{"type":"FeatureCollection","features":[{"properties":{"name":"河内","number":16,"id_url":"K03.html","yomi":"かわち","id":"K03","pref":"大阪府"},"geometry":{"type":"Polygon","coordinates":[[[135.679971,34.881319],[135.680083,34.881319],[135.680796,34.881094],[135.68177,34.880753],[135.682045,34.88062],[135.68232,34.880145],[135.68282,34.879628],[135.682958,34.87922],[135.683008,34.87877],[135.68317,34.87832],[135.683283,34.878162],[135.683395,34.877778],[135.683333,34.87747],[135.683008,34.876928],[135.682383,34.876295],[135.682133,34.875979],[135.681971,34.87562],[135.681883,34.87517],[135.681996,34.874629],[135.682021,34.873437],[135.682158,34.872671],[135.682383,34.872379],[135.682708,34.872154],[135.683258,34.871887],[135.683558,34.871679],[135.684408,34.871363],[135.685058,34.870763],[135.68627,34.870355],[135.687583,34.86948],[135.688108,34.86918],[135.688508,34.869047],[135.688733,34.869072],[135.689008,34.869205],[135.68942,34.869338],[135.689632,34.869363],[135.690595,34.869138],[135.691032,34.868963],[135.691107,34.868872],[135.691145,34.868264],[135.691382,34.86718],[135.691357,34.866322],[135.691445,34.865922],[135.691745,34.865672],[135.691857,34.865514],[135.691995,34.864998],[135.691882,34.864548],[135.691695,34.864231],[135.691307,34.863423],[135.691195,34.862973],[135.691195,34.862473],[135.691257,34.862273],[135.691557,34.86144],[135.692295,34.861307],[135.692845,34.861057],[135.693282,34.861015],[135.693682,34.861082],[135.694694,34.86144],[135.694782,34.861174],[135.694757,34.860899],[135.694644,34.86074],[135.694157,34.860515],[135.69347,34.860115],[135.692945,34.859707],[135.692182,34.859215],[135.691832,34.858915],[135.691357,34.858448],[135.690982,34.857857],[135.69082,34.857432],[135.690707,34.85644],[135.69087,34.856123],[135.69117,34.855857],[135.692295,34.855432],[135.692432,34.85509],[135.692407,34.854615],[135.692295,34.854373],[135.692132,34.854123],[135.691882,34.853873],[135.691695,34.853557],[135.69167,34.853332],[135.691882,34.852723],[135.692245,34.852415],[135.69262,34.85219],[135.693145,34.851965],[135.69352,34.85169],[135.693745,34.851065],[135.693832,34.850565],[135.69402,34.849865],[135.69462,34.849324],[135.694782,34.849015],[135.694707,34.848674],[135.694732,34.848316],[135.694895,34.848157],[135.695307,34.848116],[135.69582,34.848249],[135.696182,34.848499],[135.696482,34.848649],[135.697007,34.848832],[135.697407,34.848966],[135.697719,34.849257],[135.698394,34.849824],[135.698757,34.849891],[135.699219,34.850141],[135.700119,34.850457],[135.700669,34.850749],[135.701057,34.850907],[135.701407,34.850999],[135.701732,34.851266],[135.701981,34.851624],[135.702206,34.851782],[135.702719,34.851807],[135.703181,34.851691],[135.703681,34.851491],[135.704581,34.851316],[135.705106,34.851157],[135.705456,34.850816],[135.705919,34.850099],[135.706169,34.849849],[135.706519,34.849691],[135.706956,34.849666],[135.707019,34.849649],[135.707094,34.849666],[135.707344,34.849582],[135.707869,34.848857],[135.708194,34.848566],[135.708419,34.848299],[135.708606,34.847957],[135.708856,34.847507],[135.709118,34.847241],[135.709481,34.847032],[135.710006,34.846857],[135.710193,34.846632],[135.710056,34.845166],[135.709968,34.844824],[135.710356,34.844174],[135.711018,34.844132],[135.711231,34.843908],[135.711393,34.843208],[135.711456,34.842558],[135.711669,34.842333],[135.711781,34.842124],[135.711669,34.841991],[135.711206,34.841808],[135.711044,34.841633],[135.711069,34.841499],[135.711294,34.841425],[135.711456,34.841275],[135.711781,34.840508],[135.711994,34.840216],[135.712269,34.840166],[135.712656,34.840325],[135.712956,34.840233],[135.713344,34.839917],[135.713669,34.839583],[135.713969,34.839333],[135.714431,34.839067],[135.714706,34.838725],[135.715256,34.8383],[135.715481,34.83805],[135.715644,34.837734],[135.715669,34.837467],[135.715644,34.837125],[135.715669,34.836701],[135.715644,34.836576],[135.715769,34.836434],[135.715769,34.836384],[135.715931,34.836209],[135.716894,34.835734],[135.717356,34.835442],[135.717631,34.834243],[135.717769,34.833843],[135.717981,34.833459],[135.718181,34.833251],[135.718181,34.833026],[135.718019,34.832709],[135.717956,34.832326],[135.718156,34.832101],[135.718781,34.831718],[135.719218,34.831176],[135.719343,34.830884],[135.719343,34.830543],[135.719293,34.830026],[135.719431,34.82976],[135.719681,34.829551],[135.719993,34.829443],[135.720643,34.829376],[135.720731,34.829351],[135.721031,34.829035],[135.721543,34.828385],[135.722231,34.828018],[135.722418,34.827343],[135.723243,34.82631],[135.723293,34.825968],[135.723018,34.825202],[135.723018,34.82506],[135.723506,34.82441],[135.724006,34.823443],[135.724143,34.823235],[135.72438,34.823118],[135.724905,34.823035],[135.725918,34.823019],[135.72663,34.823102],[135.727643,34.823127],[135.72818,34.822927],[135.72898,34.822494],[135.729605,34.822294],[135.730042,34.822177],[135.730367,34.822177],[135.730592,34.822294],[135.731142,34.822677],[135.73158,34.822677],[135.73218,34.82261],[135.73248,34.82241],[135.732755,34.822027],[135.733317,34.820735],[135.733592,34.820485],[135.73398,34.820244],[135.734392,34.820086],[135.73493,34.819994],[135.735105,34.819877],[135.735292,34.819336],[135.735342,34.818886],[135.735892,34.817919],[135.736004,34.817561],[135.735979,34.817036],[135.736092,34.816769],[135.736367,34.816319],[135.736742,34.815069],[135.736767,34.814686],[135.736692,34.813878],[135.736767,34.813586],[135.736992,34.813453],[135.737292,34.813361],[135.737567,34.813178],[135.737754,34.812878],[135.737867,34.812519],[135.737917,34.812028],[135.738267,34.811736],[135.738542,34.81167],[135.738842,34.811645],[135.739142,34.811536],[135.739442,34.811303],[135.740516,34.810136],[135.741391,34.808928],[135.741666,34.80862],[135.741879,34.808287],[135.741966,34.807353],[135.742041,34.806878],[135.742291,34.806478],[135.742566,34.806229],[135.742816,34.805545],[135.743054,34.805237],[135.743954,34.804762],[135.744716,34.80442],[135.745041,34.80437],[135.745691,34.804154],[135.745903,34.803954],[135.746416,34.802596],[135.746553,34.802104],[135.746603,34.801671],[135.746553,34.801204],[135.746366,34.800746],[135.746041,34.799238],[135.745903,34.798538],[135.745791,34.798354],[135.745491,34.798054],[135.744779,34.797154],[135.744154,34.796255],[135.743816,34.795713],[135.743691,34.795296],[135.743491,34.794196],[135.743354,34.79388],[135.743166,34.793696],[135.742841,34.793605],[135.742066,34.79363],[135.741904,34.793605],[135.741466,34.793605],[135.741091,34.793538],[135.740729,34.793422],[135.740516,34.793263],[135.740266,34.792613],[135.740191,34.79223],[135.740017,34.791913],[135.739804,34.791688],[135.739529,34.79148],[135.739304,34.791255],[135.739254,34.790922],[135.739392,34.790664],[135.739942,34.79028],[135.740242,34.790122],[135.740291,34.78988],[135.740267,34.78963],[135.740379,34.789355],[135.740604,34.789064],[135.740766,34.788705],[135.740704,34.78843],[135.740516,34.788272],[135.740079,34.788122],[135.739754,34.787889],[135.739367,34.787739],[135.738929,34.787664],[135.738467,34.787547],[135.737892,34.787256],[135.737679,34.787006],[135.737479,34.786622],[135.737129,34.786264],[135.736854,34.786081],[135.736417,34.785514],[135.736279,34.784931],[135.736117,34.784631],[135.735592,34.784364],[135.734617,34.784164],[135.734017,34.784039],[135.733542,34.783764],[135.73303,34.783139],[135.73253,34.782914],[135.732155,34.782689],[135.732042,34.782581],[135.732017,34.782214],[135.731905,34.781739],[135.731717,34.781556],[135.731093,34.781331],[135.730843,34.781173],[135.730155,34.78014],[135.72953,34.779548],[135.729343,34.779248],[135.72873,34.777898],[135.728355,34.777731],[135.727718,34.776715],[135.727481,34.776448],[135.727118,34.776182],[135.726743,34.77604],[135.726418,34.775832],[135.726143,34.775832],[135.725793,34.775973],[135.725468,34.776015],[135.724718,34.775607],[135.723718,34.775115],[135.722431,34.774657],[135.721406,34.774432],[135.720869,34.774432],[135.720406,34.774498],[135.720044,34.774698],[135.719556,34.775132],[135.719306,34.775498],[135.719119,34.775882],[135.718706,34.776282],[135.718381,34.776557],[135.718081,34.776898],[135.717394,34.777448],[135.717044,34.77789],[135.716744,34.77859],[135.716494,34.779331],[135.716194,34.779631],[135.715782,34.779831],[135.715369,34.779989],[135.715069,34.780056],[135.714744,34.779939],[135.713844,34.779889],[135.713407,34.780006],[135.713244,34.780073],[135.712857,34.780348],[135.712044,34.781139],[135.711932,34.781298],[135.711332,34.781323],[135.710995,34.781023],[135.710757,34.780548],[135.71062,34.780481],[135.710345,34.780548],[135.709995,34.780548],[135.709745,34.780431],[135.709607,34.780189],[135.709632,34.779781],[135.70987,34.779331],[135.709932,34.77899],[135.709857,34.77824],[135.70967,34.777273],[135.709607,34.77709],[135.708957,34.775832],[135.708682,34.775307],[135.70802,34.774873],[135.707782,34.774557],[135.707482,34.774065],[135.706933,34.772957],[135.706683,34.772749],[135.706583,34.772507],[135.706633,34.772149],[135.706745,34.771882],[135.707108,34.771565],[135.707283,34.771524],[135.707533,34.771549],[135.708382,34.771965],[135.70862,34.772007],[135.709332,34.771807],[135.709695,34.771649],[135.709907,34.77149],[135.71002,34.771265],[135.709695,34.770832],[135.709307,34.770465],[135.70907,34.770149],[135.70857,34.769074],[135.708495,34.768732],[135.708545,34.767982],[135.708433,34.767032],[135.708345,34.766674],[135.708345,34.766333],[135.708545,34.765658],[135.708708,34.765341],[135.70887,34.764891],[135.708933,34.764166],[135.708845,34.76315],[135.708733,34.762766],[135.708683,34.762083],[135.708795,34.761766],[135.709395,34.761175],[135.71002,34.760791],[135.710133,34.760658],[135.70972,34.760158],[135.709458,34.759758],[135.708883,34.758983],[135.708858,34.758917],[135.708933,34.75865],[135.70932,34.7582],[135.709595,34.757767],[135.70972,34.757408],[135.709833,34.756659],[135.71002,34.756184],[135.710245,34.754625],[135.710158,34.753925],[135.710095,34.75365],[135.70997,34.753409],[135.70982,34.753251],[135.709958,34.753167],[135.709708,34.752926],[135.709345,34.752767],[135.708708,34.752617],[135.708345,34.752417],[135.70787,34.751776],[135.707558,34.750901],[135.707308,34.750726],[135.707171,34.750567],[135.707083,34.750301],[135.707096,34.749843],[135.707008,34.749468],[135.706933,34.748726],[135.706846,34.748518],[135.706621,34.748368],[135.706271,34.748326],[135.705808,34.748334],[135.705421,34.748384],[135.705021,34.748476],[135.704746,34.748618],[135.704396,34.749068],[135.704133,34.749301],[135.703646,34.749601],[135.702296,34.750609],[135.701971,34.750726],[135.701046,34.750801],[135.700296,34.750251],[135.699771,34.750034],[135.699384,34.749942],[135.698759,34.749659],[135.698209,34.749626],[135.697959,34.749559],[135.697846,34.749359],[135.697759,34.748976],[135.697709,34.748326],[135.697759,34.747984],[135.697921,34.747709],[135.698271,34.747418],[135.698434,34.747168],[135.698509,34.746868],[135.698659,34.746576],[135.699084,34.746101],[135.699221,34.745801],[135.699209,34.745485],[135.699071,34.74506],[135.698846,34.744768],[135.698596,34.744568],[135.698259,34.744393],[135.697472,34.744293],[135.697059,34.744143],[135.696847,34.743693],[135.696872,34.743468],[135.696984,34.743493],[135.697097,34.743443],[135.697309,34.74326],[135.697409,34.743051],[135.697459,34.742785],[135.697147,34.741818],[135.697134,34.741485],[135.697347,34.74101],[135.697534,34.74071],[135.697609,34.740485],[135.697734,34.739893],[135.697997,34.739419],[135.698309,34.739052],[135.698497,34.738785],[135.699222,34.737985],[135.699434,34.737485],[135.699509,34.737194],[135.700246,34.735902],[135.700396,34.735402],[135.700421,34.735061],[135.700246,34.734844],[135.700134,34.734844],[135.699747,34.734511],[135.699909,34.733969],[135.700147,34.733669],[135.700047,34.733044],[135.700059,34.732411],[135.700184,34.731936],[135.700509,34.731344],[135.700759,34.730686],[135.700784,34.73017],[135.700834,34.729853],[135.701147,34.729511],[135.701696,34.728486],[135.701946,34.728153],[135.701871,34.727703],[135.701946,34.727337],[135.701984,34.727295],[135.701859,34.72707],[135.702434,34.725778],[135.702671,34.725412],[135.702971,34.724912],[135.703371,34.724795],[135.703459,34.72482],[135.703759,34.724587],[135.704146,34.723954],[135.704121,34.72377],[135.704009,34.72362],[135.703734,34.723395],[135.703034,34.723087],[135.702921,34.722979],[135.702896,34.722887],[135.702971,34.722687],[135.702896,34.722545],[135.702084,34.721795],[135.701809,34.721662],[135.701372,34.721529],[135.700947,34.721362],[135.700809,34.721271],[135.700572,34.721179],[135.700434,34.721204],[135.700022,34.721462],[135.699759,34.721512],[135.699372,34.721445],[135.698259,34.720854],[135.697847,34.720654],[135.697522,34.720387],[135.697059,34.719746],[135.696922,34.719271],[135.695897,34.718629],[135.695672,34.718404],[135.695147,34.718079],[135.694722,34.717679],[135.694535,34.717546],[135.693797,34.717354],[135.693085,34.716371],[135.692885,34.715879],[135.692772,34.715721],[135.692222,34.715613],[135.691485,34.715263],[135.69096,34.715138],[135.69076,34.714871],[135.690485,34.714713],[135.690073,34.714338],[135.68951,34.71378],[135.68931,34.713671],[135.689285,34.713555],[135.688985,34.713496],[135.688698,34.713138],[135.688535,34.71303],[135.688198,34.712488],[135.688035,34.712288],[135.68781,34.712155],[135.687498,34.711846],[135.68731,34.71158],[135.687198,34.711555],[135.686685,34.711746],[135.686548,34.711746],[135.68616,34.711505],[135.685823,34.711371],[135.684623,34.711388],[135.684048,34.71133],[135.683286,34.711538],[135.683148,34.711538],[135.682986,34.711496],[135.682511,34.711238],[135.682398,34.710963],[135.682261,34.71083],[135.681736,34.710546],[135.681511,34.710388],[135.680623,34.709455],[135.680123,34.709105],[135.679923,34.708997],[135.679561,34.708613],[135.679511,34.708505],[135.679499,34.70823],[135.679436,34.707938],[135.679074,34.707088],[135.678849,34.706847],[135.678099,34.706289],[135.677786,34.705955],[135.677361,34.705264],[135.676524,34.704355],[135.675999,34.703972],[135.675587,34.703889],[135.675199,34.703872],[135.675099,34.703805],[135.675037,34.703606],[135.675087,34.703289],[135.675074,34.702997],[135.674962,34.702797],[135.674799,34.702689],[135.674324,34.702531],[135.673724,34.702381],[135.673362,34.702206],[135.673199,34.701981],[135.673062,34.701714],[135.673024,34.701422],[135.673124,34.701239],[135.673312,34.701131],[135.673499,34.700922],[135.673499,34.700656],[135.673324,34.700223],[135.673137,34.700048],[135.673524,34.699281],[135.673812,34.698864],[135.673999,34.698531],[135.674149,34.697806],[135.673862,34.696798],[135.673762,34.696415],[135.673612,34.69529],[135.673412,34.694798],[135.672925,34.694173],[135.672925,34.693948],[135.673075,34.69329],[135.6731,34.692882],[135.672975,34.69219],[135.672975,34.691065],[135.673012,34.690499],[135.6731,34.690207],[135.67355,34.689749],[135.6739,34.689449],[135.674487,34.688832],[135.67535,34.688191],[135.675912,34.687574],[135.676512,34.686416],[135.676675,34.686191],[135.676712,34.685474],[135.677087,34.684924],[135.677325,34.684741],[135.678,34.684416],[135.67825,34.684258],[135.6783,34.684191],[135.678362,34.683558],[135.678337,34.683216],[135.678237,34.682858],[135.677912,34.679983],[135.6779,34.679708],[135.678137,34.679325],[135.678387,34.67905],[135.67875,34.67835],[135.678687,34.678058],[135.678687,34.677742],[135.678625,34.677583],[135.678237,34.677133],[135.6781,34.677025],[135.677138,34.675842],[135.676888,34.675442],[135.676763,34.674384],[135.676638,34.674117],[135.67645,34.673825],[135.6755,34.672934],[135.674838,34.672384],[135.67475,34.672251],[135.6745,34.672001],[135.674125,34.671442],[135.6739,34.670884],[135.673863,34.670617],[135.673888,34.670392],[135.674013,34.669942],[135.673988,34.669926],[135.673613,34.669509],[135.673126,34.669059],[135.672551,34.668401],[135.671763,34.667584],[135.671276,34.667226],[135.670976,34.666884],[135.671113,34.666101],[135.671038,34.665151],[135.670776,34.664293],[135.670451,34.663893],[135.670151,34.663435],[135.670051,34.662918],[135.670238,34.662518],[135.670538,34.662085],[135.671126,34.661668],[135.671126,34.661102],[135.670663,34.66036],[135.670263,34.659835],[135.670101,34.659677],[135.670126,34.659135],[135.669826,34.658485],[135.669639,34.65821],[135.669514,34.65731],[135.669239,34.657085],[135.668826,34.65706],[135.668726,34.65701],[135.668426,34.656785],[135.668076,34.656244],[135.667589,34.655211],[135.667401,34.654619],[135.667051,34.653969],[135.666701,34.653536],[135.665989,34.653061],[135.665439,34.653011],[135.665089,34.652894],[135.664814,34.652469],[135.664652,34.652044],[135.664439,34.651678],[135.664252,34.651186],[135.664127,34.650503],[135.664127,34.650303],[135.664314,34.649945],[135.664402,34.649903],[135.665189,34.64977],[135.665439,34.649595],[135.665802,34.649161],[135.665689,34.64867],[135.665577,34.648486],[135.665402,34.64752],[135.665377,34.647028],[135.665489,34.646237],[135.665414,34.645295],[135.665277,34.644795],[135.665414,34.644395],[135.665364,34.643987],[135.665264,34.64387],[135.664714,34.643512],[135.664527,34.64342],[135.664389,34.643395],[135.664302,34.643329],[135.664252,34.643329],[135.664089,34.643079],[135.664089,34.642745],[135.664152,34.642362],[135.664039,34.641954],[135.663414,34.641546],[135.663114,34.641271],[135.66269,34.640329],[135.662715,34.639654],[135.66269,34.639204],[135.66254,34.638229],[135.662902,34.637221],[135.662902,34.637088],[135.66304,34.636546],[135.66299,34.636163],[135.662777,34.635713],[135.662527,34.635505],[135.662227,34.635438],[135.661352,34.635638],[135.661165,34.635613],[135.66119,34.635188],[135.661277,34.635121],[135.66144,34.634713],[135.661715,34.634405],[135.662265,34.634063],[135.66259,34.633913],[135.663439,34.63333],[135.663339,34.632047],[135.663302,34.630288],[135.66319,34.629747],[135.662815,34.628822],[135.662715,34.62878],[135.662302,34.628505],[135.662002,34.628372],[135.66189,34.628372],[135.661702,34.62823],[135.661602,34.627847],[135.661652,34.627355],[135.661552,34.627039],[135.661365,34.626722],[135.661252,34.626314],[135.661252,34.625939],[135.661177,34.625572],[135.660577,34.624672],[135.65999,34.624147],[135.659552,34.624014],[135.659365,34.623831],[135.658877,34.623131],[135.659452,34.622614],[135.65959,34.622323],[135.659677,34.621873],[135.65959,34.621264],[135.65924,34.620365],[135.659052,34.620006],[135.659002,34.619665],[135.65849,34.618248],[135.65834,34.61784],[135.658203,34.617323],[135.657853,34.616398],[135.657853,34.616306],[135.658728,34.615457],[135.65914,34.614915],[135.659065,34.614807],[135.65879,34.61474],[135.658353,34.614623],[135.658253,34.614557],[135.657815,34.613873],[135.65749,34.613582],[135.65744,34.61349],[135.657303,34.612882],[135.657003,34.612682],[135.656878,34.612048],[135.656653,34.611548],[135.655753,34.611549],[135.65549,34.611524],[135.654178,34.611265],[135.653491,34.611332],[135.653166,34.611215],[135.653166,34.610832],[135.653066,34.610674],[135.652428,34.610565],[135.651803,34.610132],[135.651291,34.61004],[135.650853,34.609857],[135.650666,34.608816],[135.650541,34.608591],[135.650216,34.607849],[135.650266,34.607649],[135.650379,34.607582],[135.650679,34.607266],[135.651066,34.607066],[135.651591,34.606957],[135.651853,34.606849],[135.651941,34.606641],[135.651928,34.605474],[135.652141,34.604982],[135.652116,34.604799],[135.652291,34.604216],[135.652616,34.603674],[135.653116,34.603366],[135.653416,34.603274],[135.654178,34.603208],[135.654716,34.603283],[135.654916,34.603349],[135.655378,34.603266],[135.655891,34.603374],[135.65674,34.603132],[135.657203,34.602866],[135.65724,34.602824],[135.657703,34.602707],[135.658953,34.602607],[135.659553,34.602516],[135.659965,34.602157],[135.66049,34.601982],[135.66199,34.601966],[135.66319,34.602157],[135.664202,34.602224],[135.664227,34.602274],[135.665427,34.602349],[135.667389,34.602757],[135.667689,34.602807],[135.669052,34.602882],[135.669564,34.602999],[135.669839,34.603265],[135.670064,34.603315],[135.670876,34.603615],[135.671089,34.603815],[135.671389,34.603882],[135.671614,34.603815],[135.672264,34.603732],[135.672464,34.603624],[135.672464,34.603257],[135.672539,34.60299],[135.673251,34.602832],[135.673639,34.602724],[135.673714,34.602565],[135.674001,34.602232],[135.674464,34.602257],[135.674901,34.601965],[135.675251,34.601807],[135.675688,34.601749],[135.675776,34.601699],[135.675688,34.601315],[135.675401,34.600757],[135.674989,34.600232],[135.674914,34.599874],[135.675026,34.59969],[135.675538,34.599316],[135.676088,34.598732],[135.676176,34.597716],[135.676376,34.597449],[135.676588,34.597024],[135.676601,34.596891],[135.676513,34.596616],[135.676488,34.596191],[135.676876,34.595583],[135.677788,34.594258],[135.678038,34.593741],[135.677951,34.593158],[135.677763,34.592591],[135.677688,34.592508],[135.677826,34.592191],[135.678213,34.591899],[135.678001,34.591425],[135.677938,34.591383],[135.678126,34.591383],[135.678651,34.591516],[135.678951,34.591408],[135.679113,34.591091],[135.678763,34.59075],[135.678026,34.590166],[135.677351,34.58985],[135.677139,34.58955],[135.677139,34.589008],[135.677251,34.588833],[135.677988,34.588075],[135.678126,34.588],[135.678151,34.587958],[135.679138,34.587917],[135.679351,34.587875],[135.679901,34.587633],[135.680288,34.587225],[135.680588,34.586842],[135.680613,34.586758],[135.680476,34.5866],[135.680563,34.585008],[135.680826,34.584933],[135.681038,34.584967],[135.681463,34.584917],[135.681713,34.584783],[135.681713,34.584608],[135.681538,34.584275],[135.681313,34.583467],[135.681188,34.583125],[135.680738,34.582484],[135.680301,34.58215],[135.679064,34.581609],[135.678464,34.581417],[135.677151,34.580817],[135.676689,34.580501],[135.675664,34.579676],[135.675039,34.579434],[135.674577,34.579417],[135.674114,34.579551],[135.673652,34.579826],[135.673327,34.579959],[135.672427,34.579992],[135.671739,34.579917],[135.671552,34.579134],[135.671414,34.578717],[135.671127,34.578109],[135.671189,34.577818],[135.671477,34.577593],[135.672102,34.577251],[135.672189,34.577168],[135.672164,34.576984],[135.671964,34.576851],[135.671577,34.576693],[135.671089,34.576543],[135.670977,34.576468],[135.670677,34.576093],[135.670615,34.575734],[135.670727,34.574951],[135.670915,34.574568],[135.671202,34.574118],[135.672552,34.572568],[135.672939,34.572268],[135.673214,34.57196],[135.673339,34.571551],[135.673364,34.571301],[135.673227,34.570901],[135.673064,34.570701],[135.672339,34.570051],[135.671802,34.569901],[135.671365,34.569851],[135.670027,34.569793],[135.668652,34.569368],[135.668352,34.569268],[135.66644,34.568244],[135.665478,34.567885],[135.665015,34.567777],[135.663553,34.566794],[135.663066,34.566352],[135.662878,34.566219],[135.662366,34.565727],[135.661516,34.565144],[135.661078,34.564928],[135.660766,34.564861],[135.660066,34.564519],[135.658704,34.563703],[135.657916,34.562928],[135.657366,34.562595],[135.656904,34.56232],[135.656791,34.562211],[135.656729,34.56192],[135.656829,34.561853],[135.657641,34.561853],[135.657766,34.560845],[135.657654,34.56012],[135.657516,34.55982],[135.657479,34.559245],[135.657604,34.558803],[135.657641,34.558553],[135.657216,34.557587],[135.657241,34.556804],[135.657266,34.55647],[135.656991,34.55607],[135.656366,34.555554],[135.655842,34.555262],[135.655517,34.555037],[135.654692,34.554371],[135.654142,34.554254],[135.653979,34.554063],[135.654004,34.553946],[135.654329,34.553788],[135.654929,34.553721],[135.655554,34.553804],[135.655804,34.553871],[135.656354,34.553871],[135.656454,34.553712],[135.656342,34.553221],[135.656342,34.552721],[135.656604,34.552279],[135.656804,34.552054],[135.656329,34.550996],[135.656329,34.550455],[135.655904,34.549988],[135.655854,34.549696],[135.655929,34.549321],[135.655842,34.549005],[135.655454,34.54883],[135.654579,34.547555],[135.65423,34.54733],[135.653755,34.547247],[135.653155,34.547063],[135.652155,34.546555],[135.651493,34.545864],[135.650855,34.545039],[135.650743,34.544947],[135.65058,34.544639],[135.650305,34.544272],[135.65033,34.544031],[135.65063,34.543647],[135.65133,34.542897],[135.651705,34.542447],[135.652867,34.541797],[135.65308,34.541639],[135.653605,34.541447],[135.653905,34.541522],[135.654417,34.541764],[135.654667,34.541922],[135.65508,34.542006],[135.656029,34.541689],[135.656442,34.541731],[135.656954,34.542022],[135.657342,34.542531],[135.657654,34.543122],[135.657979,34.543364],[135.658466,34.54363],[135.659354,34.543939],[135.659541,34.543955],[135.659504,34.54338],[135.659641,34.54288],[135.659879,34.542455],[135.660029,34.541847],[135.660141,34.541331],[135.660116,34.541081],[135.659641,34.539539],[135.659554,34.538839],[135.660604,34.538056],[135.661116,34.537623],[135.661441,34.537231],[135.661691,34.536631],[135.661841,34.535965],[135.661891,34.535106],[135.661641,34.534673],[135.661291,34.534215],[135.661229,34.533832],[135.661329,34.533173],[135.661541,34.532548],[135.661541,34.532148],[135.661616,34.531832],[135.661891,34.53144],[135.662116,34.530949],[135.662204,34.530165],[135.662529,34.529824],[135.662991,34.529649],[135.663129,34.529674],[135.663404,34.529932],[135.663729,34.530165],[135.664304,34.530265],[135.664766,34.530107],[135.665828,34.52959],[135.666228,34.529449],[135.666516,34.529607],[135.666778,34.529915],[135.666966,34.53039],[135.667166,34.530682],[135.667466,34.530907],[135.668228,34.531107],[135.669028,34.53074],[135.669515,34.53074],[135.669653,34.530782],[135.67009,34.53069],[135.670653,34.530349],[135.670915,34.530074],[135.671415,34.529807],[135.67199,34.52974],[135.672453,34.529624],[135.67274,34.52924],[135.672853,34.52904],[135.673365,34.528357],[135.674828,34.527341],[135.67669,34.525791],[135.67699,34.525474],[135.677178,34.525066],[135.677003,34.524591],[135.675965,34.523091],[135.675878,34.522758],[135.675903,34.522216],[135.676053,34.521725],[135.676053,34.521592],[135.67654,34.5206],[135.676703,34.52015],[135.676915,34.519767],[135.677015,34.519475],[135.677215,34.519209],[135.677265,34.518934],[135.677253,34.518559],[135.677365,34.518242],[135.67709,34.5175],[135.677053,34.517009],[135.67719,34.516559],[135.677128,34.516176],[135.676928,34.515634],[135.676815,34.515026],[135.67684,34.514459],[135.677078,34.513159],[135.67709,34.511993],[135.677065,34.511434],[135.677115,34.510843],[135.677078,34.510626],[135.677303,34.510243],[135.677503,34.509951],[135.677478,34.509685],[135.677128,34.509418],[135.676715,34.509343],[135.676253,34.509101],[135.675891,34.508593],[135.676003,34.508185],[135.676428,34.507893],[135.676678,34.507827],[135.67679,34.50751],[135.676865,34.506852],[135.676641,34.506593],[135.676203,34.506293],[135.675516,34.505918],[135.674941,34.505319],[135.674416,34.50451],[135.673616,34.503544],[135.673341,34.503277],[135.673166,34.503052],[135.672978,34.502694],[135.673191,34.502377],[135.673878,34.501702],[135.674253,34.501544],[135.674453,34.501386],[135.675316,34.501369],[135.675728,34.501261],[135.676003,34.501077],[135.676141,34.500944],[135.676703,34.500652],[135.677066,34.500586],[135.677253,34.500377],[135.677441,34.500086],[135.677753,34.499819],[135.678128,34.499544],[135.67829,34.499361],[135.678365,34.499161],[135.678265,34.498894],[135.678153,34.498419],[135.678216,34.498103],[135.678565,34.497636],[135.678953,34.49662],[135.67939,34.496195],[135.67949,34.495878],[135.679653,34.495653],[135.680015,34.495536],[135.680228,34.495428],[135.68004,34.494795],[135.679978,34.494395],[135.67939,34.493845],[135.67919,34.49342],[135.67919,34.493087],[135.679253,34.492703],[135.67939,34.49232],[135.679441,34.491937],[135.679578,34.491487],[135.679815,34.491037],[135.68009,34.49067],[135.680178,34.490362],[135.68039,34.489212],[135.680578,34.488804],[135.680915,34.488554],[135.681865,34.48847],[135.682103,34.488379],[135.682515,34.487837],[135.682965,34.486979],[135.683178,34.486704],[135.68334,34.486437],[135.683453,34.486129],[135.68359,34.485879],[135.683828,34.485687],[135.684565,34.485512],[135.684728,34.485362],[135.684565,34.485162],[135.684315,34.484979],[135.684215,34.484729],[135.68429,34.484421],[135.68459,34.484038],[135.684753,34.483671],[135.684653,34.483429],[135.684378,34.483196],[135.684103,34.482546],[135.683503,34.482138],[135.683265,34.481688],[135.68279,34.481488],[135.68244,34.48153],[135.681916,34.481488],[135.681703,34.481288],[135.681466,34.48083],[135.681191,34.48013],[135.681216,34.479771],[135.681566,34.479221],[135.681516,34.47883],[135.681603,34.478513],[135.682041,34.478105],[135.682091,34.477722],[135.682091,34.47738],[135.682228,34.477222],[135.682553,34.477088],[135.682878,34.476838],[135.683178,34.476547],[135.683366,34.476255],[135.683453,34.47603],[135.683091,34.475122],[135.682903,34.474747],[135.682903,34.474372],[135.683041,34.47398],[135.683091,34.473105],[135.682966,34.472339],[135.682553,34.471772],[135.682578,34.471456],[135.682666,34.471289],[135.683128,34.470781],[135.683203,34.470356],[135.683153,34.469906],[135.683016,34.469631],[135.682691,34.469381],[135.682528,34.469139],[135.682503,34.468981],[135.682628,34.468506],[135.682228,34.467806],[135.682253,34.467448],[135.682141,34.466948],[135.682303,34.466631],[135.682503,34.466023],[135.682416,34.465573],[135.682303,34.465215],[135.682391,34.464898],[135.682578,34.464106],[135.682528,34.463448],[135.682166,34.462848],[135.682066,34.461107],[135.682228,34.460682],[135.682466,34.460324],[135.682603,34.45989],[135.682553,34.459307],[135.682603,34.459015],[135.682853,34.45854],[135.682878,34.458115],[135.682991,34.457749],[135.683203,34.457299],[135.683128,34.456849],[135.682903,34.456532],[135.682391,34.456124],[135.682691,34.455657],[135.683816,34.454524],[135.684816,34.454099],[135.684978,34.453599],[135.685116,34.453424],[135.685416,34.453158],[135.685778,34.452499],[135.686078,34.452341],[135.686341,34.452275],[135.686591,34.452258],[135.686753,34.452158],[135.686941,34.451375],[135.686803,34.451108],[135.686728,34.4507],[135.686866,34.45],[135.686703,34.449508],[135.686703,34.448808],[135.686291,34.447942],[135.685341,34.446592],[135.685279,34.446425],[135.684904,34.446025],[135.684329,34.445692],[135.683954,34.445534],[135.683654,34.445284],[135.683329,34.444942],[135.682941,34.444476],[135.682179,34.443976],[135.681841,34.443551],[135.681441,34.442717],[135.680979,34.441876],[135.680917,34.441493],[135.681117,34.440768],[135.681142,34.440343],[135.680892,34.439485],[135.681004,34.439193],[135.681354,34.438718],[135.681579,34.438293],[135.681492,34.437835],[135.681092,34.437143],[135.680329,34.436193],[135.680167,34.43576],[135.679942,34.434752],[135.679729,34.434227],[135.679504,34.433552],[135.678855,34.432627],[135.67853,34.432269],[135.677905,34.431927],[135.677517,34.431652],[135.677255,34.431294],[135.677092,34.430952],[135.676792,34.430594],[135.67528,34.429669],[135.674818,34.429352],[135.674418,34.429152],[135.67398,34.429044],[135.673705,34.428727],[135.673618,34.428202],[135.67323,34.427394],[135.67303,34.427102],[135.672468,34.426652],[135.672043,34.425811],[135.67153,34.425869],[135.670843,34.426036],[135.67033,34.426236],[135.66973,34.426577],[135.669168,34.426827],[135.668768,34.426802],[135.667881,34.426011],[135.667056,34.425202],[135.666493,34.424753],[135.665068,34.424119],[135.664518,34.423669],[135.664318,34.423369],[135.664306,34.423103],[135.664468,34.422853],[135.664981,34.422603],[135.665506,34.422603],[135.666031,34.422453],[135.666193,34.422228],[135.666243,34.421536],[135.666493,34.420686],[135.666568,34.419953],[135.666606,34.419578],[135.666481,34.419195],[135.666181,34.418786],[135.666331,34.418678],[135.666856,34.418495],[135.666968,34.41832],[135.667006,34.41697],[135.667381,34.416403],[135.667956,34.416095],[135.668418,34.415529],[135.668881,34.414654],[135.669493,34.413779],[135.669693,34.413629],[135.671306,34.413254],[135.671981,34.412896],[135.67283,34.412629],[135.673705,34.412771],[135.67468,34.413346],[135.67568,34.413846],[135.676505,34.413829],[135.677368,34.413887],[135.677643,34.413771],[135.677755,34.413596],[135.677855,34.413037],[135.67773,34.412371],[135.67763,34.411821],[135.67778,34.411462],[135.678255,34.411304],[135.678468,34.411163],[135.67903,34.410079],[135.680142,34.409329],[135.680267,34.408421],[135.680292,34.408371],[135.679917,34.407855],[135.679243,34.407513],[135.678318,34.40733],[135.678155,34.407121],[135.677305,34.406438],[135.676705,34.406121],[135.676255,34.40548],[135.676218,34.40533],[135.676543,34.404771],[135.676518,34.404421],[135.67618,34.403588],[135.676255,34.403322],[135.676455,34.402888],[135.67678,34.402405],[135.676843,34.402122],[135.67668,34.401788],[135.676493,34.400872],[135.675743,34.399622],[135.675218,34.39928],[135.674481,34.399155],[135.673543,34.398814],[135.672518,34.398605],[135.672331,34.398514],[135.671706,34.398305],[135.671518,34.39828],[135.670968,34.398439],[135.670081,34.398247],[135.669381,34.397872],[135.669143,34.397722],[135.668718,34.397655],[135.668181,34.39778],[135.667493,34.397763],[135.667131,34.397555],[135.666668,34.397413],[135.666143,34.397113],[135.665868,34.396997],[135.665606,34.397005],[135.664756,34.397272],[135.664431,34.397288],[135.664094,34.39728],[135.663556,34.396672],[135.663531,34.396605],[135.663481,34.396605],[135.663506,34.396338],[135.663419,34.395655],[135.662856,34.393872],[135.662881,34.393755],[135.662681,34.393147],[135.662044,34.392664],[135.661544,34.392172],[135.660944,34.391872],[135.660194,34.391797],[135.659794,34.391572],[135.659644,34.39103],[135.659531,34.389972],[135.659444,34.389622],[135.658294,34.388406],[135.658131,34.387797],[135.657756,34.387156],[135.656806,34.386497],[135.655994,34.385814],[135.655407,34.385156],[135.655269,34.384864],[135.654732,34.384048],[135.654282,34.383564],[135.653782,34.383381],[135.652982,34.383473],[135.652282,34.383373],[135.651657,34.383231],[135.651207,34.383206],[135.651119,34.383256],[135.650669,34.383314],[135.649419,34.383606],[135.64792,34.383656],[135.646695,34.383522],[135.645632,34.383489],[135.644732,34.383681],[135.644057,34.383864],[135.643707,34.383905],[135.642207,34.383597],[135.641695,34.383555],[135.64067,34.383564],[135.639945,34.383389],[135.639095,34.383489],[135.63877,34.383422],[135.638645,34.383355],[135.638958,34.382814],[135.639233,34.382455],[135.638808,34.382097],[135.63772,34.381722],[135.636908,34.381555],[135.636408,34.381572],[135.635808,34.38178],[135.635045,34.382089],[135.634021,34.382355],[135.633246,34.38253],[135.632621,34.382722],[135.631958,34.38313],[135.630783,34.383322],[135.629971,34.383355],[135.629371,34.383147],[135.628771,34.383422],[135.627446,34.383838],[135.626559,34.383863],[135.626109,34.383772],[135.625859,34.383197],[135.625684,34.383097],[135.625296,34.383147],[135.624759,34.383397],[135.624109,34.38353],[135.623284,34.38363],[135.622834,34.383864],[135.622195,34.384004],[135.622147,34.384155],[135.622122,34.38413],[135.621572,34.384405],[135.620472,34.384405],[135.619972,34.384472],[135.619372,34.384222],[135.618872,34.383997],[135.61821,34.383705],[135.617885,34.383414],[135.617797,34.38328],[135.617472,34.381972],[135.61706,34.381139],[135.616623,34.380372],[135.616423,34.380147],[135.61601,34.379447],[135.615685,34.378689],[135.61546,34.378306],[135.615023,34.377781],[135.61441,34.377181],[135.613811,34.376773],[135.613611,34.376706],[135.613011,34.376731],[135.610461,34.377064],[135.609461,34.377248],[135.607761,34.377698],[135.607074,34.377681],[135.606199,34.377564],[135.604274,34.377414],[135.603861,34.377639],[135.603449,34.377931],[135.601962,34.378314],[135.601687,34.378739],[135.601662,34.379464],[135.601474,34.379981],[135.601062,34.380164],[135.600212,34.380122],[135.599324,34.380164],[135.598474,34.380389],[135.597762,34.380456],[135.597049,34.380147],[135.595812,34.379106],[135.595725,34.378773],[135.59595,34.377781],[135.595937,34.377306],[135.595287,34.376406],[135.595037,34.375731],[135.594512,34.375373],[135.593712,34.375123],[135.592887,34.374923],[135.592225,34.37499],[135.592087,34.375081],[135.591675,34.375439],[135.591462,34.375439],[135.5911,34.375123],[135.590912,34.375123],[135.590475,34.375439],[135.590225,34.375556],[135.590063,34.375214],[135.589925,34.375198],[135.588213,34.375739],[135.587338,34.375556],[135.586463,34.375464],[135.585775,34.375648],[135.585163,34.375923],[135.5844,34.376189],[135.583163,34.377006],[135.5825,34.377048],[135.580601,34.376648],[135.579913,34.376489],[135.579588,34.376464],[135.578813,34.376173],[135.578626,34.376039],[135.577988,34.375973],[135.577251,34.376039],[135.576813,34.375881],[135.576376,34.375523],[135.576013,34.375073],[135.575763,34.374556],[135.575626,34.374014],[135.575413,34.373739],[135.574226,34.373723],[135.573951,34.373673],[135.573451,34.373314],[135.573101,34.372865],[135.572876,34.37239],[135.572601,34.372098],[135.571476,34.371715],[135.570901,34.371606],[135.570264,34.371315],[135.569939,34.370931],[135.569502,34.370931],[135.568227,34.371565],[135.567414,34.371881],[135.566752,34.371748],[135.566664,34.371698],[135.566552,34.371473],[135.566752,34.370915],[135.566777,34.370707],[135.566065,34.37044],[135.565402,34.370373],[135.564827,34.370257],[135.56419,34.36974],[135.563452,34.36929],[135.563203,34.369065],[135.562403,34.367982],[135.561965,34.36749],[135.561765,34.366857],[135.561553,34.366315],[135.560803,34.365507],[135.560478,34.365257],[135.559878,34.365032],[135.559403,34.364724],[135.557678,34.362691],[135.557179,34.362291],[135.556954,34.362066],[135.556741,34.361549],[135.556654,34.361183],[135.555966,34.360508],[135.555254,34.359924],[135.554704,34.359566],[135.554541,34.359499],[135.553829,34.359474],[135.553192,34.359366],[135.552554,34.359458],[135.552117,34.359591],[135.551604,34.359658],[135.551267,34.359299],[135.550779,34.358575],[135.550629,34.358258],[135.550504,34.358241],[135.550142,34.35795],[135.549705,34.357741],[135.548217,34.356908],[135.547392,34.3566],[135.547067,34.356533],[135.545855,34.356866],[135.545667,34.356866],[135.544618,34.356625],[135.543793,34.356483],[135.543218,34.356666],[135.541868,34.357433],[135.54113,34.357708],[135.540468,34.357708],[135.539643,34.357416],[135.539418,34.3573],[135.53863,34.356691],[135.53778,34.355908],[135.537306,34.355391],[135.536643,34.354575],[135.536093,34.35365],[135.535493,34.353092],[135.535081,34.352642],[135.534618,34.352217],[135.534068,34.351992],[135.533706,34.351917],[135.533043,34.351717],[135.532243,34.351267],[135.531644,34.351067],[135.531506,34.351042],[135.531156,34.351158],[135.530819,34.3514],[135.530544,34.351475],[135.529094,34.351408],[135.528844,34.351408],[135.527381,34.35125],[135.526781,34.351117],[135.525819,34.350459],[135.525406,34.349942],[135.524969,34.349625],[135.523457,34.348367],[135.523094,34.347734],[135.522682,34.346742],[135.522332,34.346542],[135.521857,34.346209],[135.521719,34.346051],[135.521419,34.345551],[135.521207,34.345392],[135.52087,34.345392],[135.520457,34.345442],[135.519995,34.345309],[135.519807,34.344992],[135.519695,34.344626],[135.519445,34.344243],[135.51912,34.344001],[135.51642,34.342243],[135.515108,34.340843],[135.514495,34.34031],[135.513345,34.339426],[135.512958,34.339068],[135.512133,34.338435],[135.511558,34.338077],[135.510596,34.337602],[135.510021,34.337377],[135.509558,34.33711],[135.509058,34.336793],[135.508321,34.336752],[135.508096,34.336627],[135.507909,34.336585],[135.507721,34.336493],[135.507446,34.336452],[135.507009,34.336385],[135.506434,34.33636],[135.506059,34.336402],[135.505971,34.336427],[135.505571,34.336493],[135.505296,34.336493],[135.504646,34.336293],[135.504371,34.336293],[135.503584,34.336502],[135.503396,34.336627],[135.503421,34.336802],[135.503259,34.337093],[135.502497,34.337885],[135.502222,34.338218],[135.502384,34.338352],[135.502959,34.338535],[135.503971,34.338985],[135.504384,34.33946],[135.504859,34.340851],[135.504796,34.341485],[135.504521,34.341918],[135.503871,34.342634],[135.503559,34.343243],[135.503234,34.343518],[135.502934,34.343876],[135.502521,34.344509],[135.502271,34.345001],[135.502196,34.345068],[135.502246,34.345343],[135.502634,34.345751],[135.503484,34.346467],[135.503571,34.346651],[135.503321,34.347351],[135.503046,34.347751],[135.502821,34.348251],[135.502821,34.348384],[135.502658,34.348767],[135.502133,34.349192],[135.501883,34.349759],[135.501608,34.350259],[135.501533,34.3503],[135.500871,34.350342],[135.500346,34.3503],[135.499521,34.350275],[135.498784,34.350392],[135.498396,34.350642],[135.498259,34.350892],[135.498184,34.351342],[135.497934,34.3522],[135.497846,34.352308],[135.497684,34.3524],[135.497409,34.352467],[135.497208,34.352556],[135.497184,34.352367],[135.496809,34.352642],[135.496284,34.352867],[135.494859,34.353342],[135.494246,34.353608],[135.493971,34.353883],[135.493946,34.353992],[135.493621,34.354308],[135.492934,34.354583],[135.492384,34.354625],[135.491234,34.3549],[135.490521,34.354942],[135.490159,34.355125],[135.489659,34.355441],[135.489359,34.355983],[135.489196,34.356158],[135.488846,34.35645],[135.488546,34.356925],[135.488346,34.357508],[135.488071,34.358125],[135.487446,34.359024],[135.487359,34.359724],[135.487221,34.359833],[135.486846,34.360283],[135.486209,34.361233],[135.485909,34.361866],[135.485359,34.362832],[135.485834,34.363082],[135.487371,34.364249],[135.487946,34.36479],[135.488633,34.365082],[135.489408,34.365732],[135.489596,34.36614],[135.489621,34.366699],[135.489796,34.367965],[135.489821,34.368615],[135.489933,34.369132],[135.490208,34.369565],[135.49037,34.369723],[135.490708,34.370148],[135.490733,34.370465],[135.490595,34.370956],[135.490645,34.37134],[135.49062,34.372423],[135.490758,34.372848],[135.490958,34.373073],[135.492383,34.373323],[135.49302,34.373548],[135.493645,34.373839],[135.49442,34.374106],[135.49522,34.374314],[135.496345,34.374514],[135.49717,34.374806],[135.497208,34.374737],[135.497382,34.374664],[135.497519,34.374714],[135.498119,34.375231],[135.498507,34.375414],[135.499082,34.375431],[135.499582,34.375272],[135.499994,34.375297],[135.500544,34.375681],[135.500619,34.375814],[135.500594,34.376039],[135.500619,34.376556],[135.500981,34.377072],[135.501806,34.377889],[135.501994,34.378514],[135.502606,34.379197],[135.502856,34.37933],[135.503343,34.379797],[135.503156,34.380297],[135.503206,34.38093],[135.503544,34.381197],[135.503844,34.381713],[135.504306,34.381922],[135.504881,34.381988],[135.505156,34.381988],[135.505631,34.381847],[135.506181,34.381555],[135.506831,34.381372],[135.507106,34.38133],[135.508068,34.381438],[135.508705,34.38158],[135.509143,34.381597],[135.509555,34.38153],[135.510055,34.381505],[135.51088,34.381688],[135.51153,34.381663],[135.511943,34.38178],[135.512805,34.38223],[135.513768,34.382947],[135.51448,34.383555],[135.51473,34.383805],[135.515355,34.384255],[135.516405,34.38448],[135.516543,34.384547],[135.516705,34.384772],[135.51693,34.385447],[135.517118,34.385738],[135.517505,34.385922],[135.517943,34.38653],[135.518193,34.38698],[135.518543,34.387363],[135.518955,34.387588],[135.519068,34.387763],[135.519568,34.388121],[135.519705,34.388596],[135.519755,34.388938],[135.519618,34.389746],[135.520093,34.39083],[135.520031,34.39243],[135.520093,34.393129],[135.519818,34.393396],[135.519343,34.393688],[135.519318,34.393804],[135.519681,34.394254],[135.519956,34.394954],[135.520231,34.395471],[135.520231,34.396079],[135.519756,34.396421],[135.519318,34.396487],[135.519381,34.396804],[135.519681,34.397637],[135.519931,34.397862],[135.520031,34.398087],[135.520094,34.398696],[135.520306,34.399012],[135.521168,34.399795],[135.521443,34.399795],[135.522181,34.399912],[135.522643,34.400179],[135.522406,34.401129],[135.522618,34.401529],[135.523443,34.402745],[135.523531,34.403178],[135.523693,34.40342],[135.524218,34.403628],[135.524268,34.403828],[135.523856,34.404278],[135.523556,34.404687],[135.523281,34.405228],[135.523169,34.40577],[135.523206,34.405878],[135.523556,34.406195],[135.524243,34.406603],[135.524331,34.406961],[135.524331,34.407278],[135.524743,34.40802],[135.525206,34.408536],[135.525068,34.409078],[135.524818,34.409711],[135.524793,34.409961],[135.524818,34.410478],[135.525243,34.412052],[135.525343,34.412186],[135.525793,34.412502],[135.526143,34.412819],[135.526281,34.413111],[135.526918,34.413877],[135.526943,34.414011],[135.526893,34.414352],[135.526618,34.414686],[135.525931,34.415319],[135.525681,34.415752],[135.525681,34.416427],[135.525756,34.417035],[135.525681,34.418043],[135.525768,34.418427],[135.525981,34.419127],[135.526006,34.419668],[135.525981,34.419943],[135.526068,34.419952],[135.525956,34.420168],[135.525956,34.420285],[135.526068,34.420668],[135.526068,34.421051],[135.525793,34.421393],[135.525331,34.421776],[135.525168,34.422068],[135.525243,34.422318],[135.525581,34.422568],[135.526143,34.422926],[135.526256,34.423043],[135.526343,34.423309],[135.526143,34.423968],[135.526393,34.424551],[135.526556,34.425068],[135.526481,34.425118],[135.526093,34.425593],[135.526093,34.426134],[135.525981,34.426334],[135.525768,34.426559],[135.525543,34.426942],[135.525306,34.427642],[135.524618,34.429267],[135.524243,34.429609],[135.523781,34.4299],[135.523481,34.43015],[135.523093,34.430284],[135.522656,34.430192],[135.522306,34.430167],[135.521794,34.430217],[135.520969,34.430467],[135.519744,34.431],[135.519119,34.431658],[135.518931,34.431925],[135.518731,34.432542],[135.518406,34.4329],[135.518431,34.4331],[135.518656,34.433575],[135.518681,34.433892],[135.518869,34.4343],[135.518844,34.43455],[135.518981,34.435316],[135.519194,34.435608],[135.519231,34.435766],[135.519494,34.436175],[135.519519,34.436358],[135.519744,34.436758],[135.519956,34.4369],[135.520094,34.437166],[135.520856,34.437774],[135.521544,34.438433],[135.521843,34.438816],[135.522031,34.439358],[135.522031,34.439899],[135.522143,34.440216],[135.522443,34.440491],[135.523168,34.440982],[135.524268,34.441599],[135.524868,34.441599],[135.525356,34.441691],[135.526168,34.442007],[135.526306,34.442074],[135.52658,34.442341],[135.526905,34.443041],[135.527068,34.443199],[135.527505,34.443291],[135.527718,34.443449],[135.528018,34.443816],[135.528355,34.444332],[135.528618,34.444649],[135.52898,34.444874],[135.529305,34.445149],[135.529768,34.445465],[135.530093,34.445732],[135.530368,34.446074],[135.53088,34.44664],[135.531805,34.446865],[135.532242,34.447182],[135.53328,34.448132],[135.533742,34.448715],[135.533855,34.449032],[135.533905,34.44944],[135.534042,34.449757],[135.534455,34.44994],[135.534455,34.450165],[135.534692,34.450973],[135.534805,34.451115],[135.535192,34.45109],[135.535455,34.451115],[135.535592,34.451198],[135.535567,34.45129],[135.535592,34.451723],[135.535779,34.452106],[135.536079,34.452465],[135.536279,34.452806],[135.536354,34.453098],[135.537017,34.453665],[135.537367,34.453865],[135.537717,34.454165],[135.538642,34.454864],[135.538917,34.455131],[135.539217,34.455673],[135.539467,34.455856],[135.539817,34.455948],[135.540167,34.456131],[135.540441,34.456898],[135.540766,34.457189],[135.541091,34.457548],[135.541204,34.457847],[135.541229,34.458547],[135.541366,34.458931],[135.542029,34.459064],[135.542404,34.459406],[135.543029,34.459764],[135.543379,34.459906],[135.543654,34.460106],[135.544279,34.460806],[135.544829,34.46153],[135.545103,34.46173],[135.545291,34.461955],[135.545403,34.462255],[135.545178,34.462547],[135.544916,34.462772],[135.544254,34.463472],[135.544066,34.463855],[135.543766,34.46428],[135.543191,34.464463],[135.542979,34.464622],[135.542354,34.464913],[135.542291,34.465138],[135.542241,34.465972],[135.542154,34.466563],[135.541641,34.46658],[135.541391,34.466655],[135.541316,34.466813],[135.541316,34.467196],[135.541254,34.46758],[135.540791,34.46798],[135.539516,34.468746],[135.538666,34.469288],[135.538529,34.469604],[135.538529,34.469879],[135.538641,34.470196],[135.538616,34.470438],[135.538391,34.470688],[135.537929,34.470913],[135.537904,34.471121],[135.537991,34.471371],[135.537766,34.471837],[135.537766,34.472154],[135.537579,34.472379],[135.537329,34.473079],[135.537304,34.473396],[135.537142,34.473762],[135.536629,34.474304],[135.536467,34.474662],[135.536354,34.475245],[135.536467,34.475654],[135.536767,34.476037],[135.536792,34.476337],[135.536567,34.476945],[135.536754,34.47742],[135.536841,34.477737],[135.536729,34.477937],[135.536542,34.478162],[135.536454,34.478503],[135.536292,34.478887],[135.535529,34.479603],[135.535454,34.479853],[135.535529,34.480486],[135.535692,34.480778],[135.535892,34.481003],[135.536029,34.481411],[135.536054,34.48162],[135.536029,34.482386],[135.535804,34.483419],[135.535892,34.483669],[135.536079,34.483894],[135.536079,34.484119],[135.535916,34.484394],[135.535891,34.484728],[135.536079,34.485003],[135.536104,34.485278],[135.536079,34.485661],[135.535916,34.486086],[135.535617,34.486361],[135.535017,34.486627],[135.534742,34.486719],[135.534304,34.487036],[135.533842,34.487552],[135.533842,34.487819],[135.533929,34.488136],[135.534354,34.48931],[135.534392,34.489677],[135.534354,34.490102],[135.534117,34.49071],[135.534117,34.491185],[135.534392,34.49146],[135.534554,34.491777],[135.534604,34.492068],[135.534579,34.492135],[135.534604,34.49236],[135.535666,34.493152],[135.536054,34.49336],[135.536404,34.493468],[135.536916,34.493585],[135.537079,34.493877],[135.537191,34.49451],[135.537241,34.494627],[135.537491,34.494851],[135.538441,34.495168],[135.538716,34.495418],[135.539016,34.495935],[135.539641,34.496835],[135.539828,34.497243],[135.539916,34.497943],[135.540191,34.498534],[135.540191,34.498893],[135.540103,34.499659],[135.539891,34.500384],[135.539666,34.500926],[135.539641,34.501259],[135.539478,34.501534],[135.539316,34.501667],[135.539041,34.502034],[135.538904,34.502459],[135.538766,34.502642],[135.538504,34.502776],[135.538141,34.502959],[135.537816,34.503251],[135.537966,34.503276],[135.537941,34.503375],[135.537791,34.503559],[135.536316,34.5046],[135.536191,34.504742],[135.535991,34.505134],[135.535554,34.506225],[135.534391,34.508092],[135.534204,34.50845],[135.534104,34.508825],[135.533716,34.51075],[135.533354,34.511816],[135.533066,34.512874],[135.532729,34.513791],[135.532929,34.513974],[135.532791,34.514357],[135.532729,34.514674],[135.532866,34.514674],[135.533116,34.514791],[135.533429,34.514657],[135.533679,34.514416],[135.533754,34.514182],[135.533716,34.514141],[135.533779,34.513849],[135.534129,34.513399],[135.534491,34.513191],[135.534591,34.513216],[135.534679,34.513516],[135.533991,34.514566],[135.533866,34.515107],[135.533941,34.515191],[135.535029,34.514732],[135.535229,34.514582],[135.535266,34.514016],[135.535691,34.514358],[135.536741,34.513391],[135.537391,34.512899],[135.539053,34.512008],[135.540366,34.51145],[135.540841,34.511141],[135.541053,34.512025],[135.541128,34.51205],[135.541828,34.512075],[135.542191,34.512033],[135.542166,34.511825],[135.542316,34.511316],[135.542878,34.510108],[135.542991,34.51005],[135.543366,34.51],[135.543428,34.510508],[135.543478,34.511433],[135.543865,34.511458],[135.544053,34.511416],[135.54404,34.511958],[135.54409,34.512591],[135.543978,34.513849],[135.54409,34.514416],[135.54409,34.515041],[135.543703,34.515724],[135.543753,34.515883],[135.544103,34.516024],[135.544328,34.516024],[135.544778,34.516208],[135.544903,34.516682],[135.545378,34.517182],[135.54604,34.517749],[135.546603,34.518116],[135.54714,34.518274],[135.547478,34.517966],[135.54769,34.517699],[135.54914,34.517832],[135.552952,34.518024],[135.553452,34.517974],[135.553927,34.517716],[135.554339,34.517791],[135.554977,34.518066],[135.554952,34.518108],[135.554227,34.518757],[135.553464,34.519449],[135.553414,34.519541],[135.553239,34.519649],[135.553264,34.520032],[135.553189,34.520349],[135.553152,34.520691],[135.553527,34.521282],[135.553877,34.521374],[135.554027,34.521732],[135.554089,34.522282],[135.554064,34.522599],[135.554114,34.523049],[135.554264,34.523407],[135.554052,34.523724],[135.554177,34.52404],[135.554227,34.524357],[135.554452,34.524615],[135.554464,34.524965],[135.554739,34.525332],[135.554814,34.525648],[135.554677,34.525957],[135.554702,34.526073],[135.555052,34.526415],[135.555277,34.526782],[135.555164,34.527923],[135.555189,34.528106],[135.554927,34.528898],[135.554102,34.528781],[135.553602,34.528748],[135.553452,34.528798],[135.553277,34.528931],[135.553152,34.52974],[135.553364,34.530081],[135.553439,34.530198],[135.552989,34.530598],[135.552514,34.530456],[135.552089,34.530414],[135.552002,34.530548],[135.551852,34.530773],[135.551789,34.530906],[135.551777,34.531214],[135.551627,34.532023],[135.551364,34.532281],[135.550964,34.532531],[135.550515,34.532614],[135.54984,34.532564],[135.549515,34.532498],[135.549315,34.532356],[135.54929,34.531656],[135.549065,34.531514],[135.548752,34.531431],[135.548177,34.531039],[135.547777,34.531173],[135.547302,34.531148],[135.546865,34.530981],[135.546352,34.530689],[135.54574,34.530614],[135.545478,34.530381],[135.545253,34.529914],[135.545153,34.529889],[135.544053,34.529881],[135.543678,34.529898],[135.54364,34.530706],[135.542565,34.530681],[135.542315,34.530748],[135.542328,34.531406],[135.542253,34.532322],[135.54224,34.533347],[135.542128,34.533997],[135.541903,34.536772],[135.541915,34.537739],[135.541815,34.538372],[135.54184,34.538488],[135.541703,34.53943],[135.541665,34.540513],[135.54159,34.541488],[135.541553,34.542755],[135.54149,34.542905],[135.541465,34.543588],[135.54149,34.543813],[135.54189,34.543838],[135.54189,34.544105],[135.541628,34.54413],[135.541478,34.544171],[135.541365,34.544504],[135.541353,34.544688],[135.541578,34.544738],[135.541465,34.545571],[135.541165,34.545521],[135.539415,34.545438],[135.53904,34.545371],[135.53894,34.545579],[135.53834,34.545546],[135.53829,34.545813],[135.538528,34.546588],[135.539053,34.546588],[135.539665,34.546529],[135.540178,34.546563],[135.540128,34.546688],[135.540128,34.547163],[135.540078,34.547479],[135.539953,34.547654],[135.53939,34.547671],[135.538565,34.547729],[135.538565,34.547962],[135.53884,34.548146],[135.53929,34.548212],[135.539553,34.548379],[135.539615,34.548471],[135.539665,34.548921],[135.539578,34.549912],[135.540478,34.549829],[135.540653,34.549671],[135.540978,34.549679],[135.54099,34.549904],[135.541202,34.550354],[135.541402,34.550662],[135.541515,34.551112],[135.541527,34.551412],[135.54189,34.551437],[135.542052,34.55297],[135.54209,34.553195],[135.541527,34.553237],[135.541077,34.553195],[135.540915,34.554253],[135.540877,34.555445],[135.541052,34.555562],[135.541677,34.555612],[135.541777,34.555512],[135.541827,34.555295],[135.541977,34.55532],[135.542052,34.555028],[135.54254,34.55512],[135.542652,34.555053],[135.542765,34.554828],[135.54434,34.554795],[135.54439,34.554853],[135.54444,34.555087],[135.545215,34.555045],[135.545115,34.554645],[135.545727,34.554695],[135.546214,34.554695],[135.546814,34.554745],[135.546752,34.556378],[135.546627,34.55747],[135.546664,34.557761],[135.546702,34.559703],[135.548427,34.559803],[135.548502,34.559836],[135.549002,34.560119],[135.549289,34.560528],[135.549314,34.560711],[135.549239,34.560953],[135.548914,34.561219],[135.548327,34.561486],[135.547964,34.561544],[135.547814,34.561611],[135.547677,34.561703],[135.547514,34.561944],[135.547739,34.562453],[135.547777,34.563219],[135.547914,34.563577],[135.548039,34.564136],[135.548189,34.564161],[135.548514,34.564369],[135.549214,34.564894],[135.549001,34.565111],[135.548801,34.565419],[135.548476,34.565602],[135.548214,34.565927],[135.547989,34.56596],[135.546014,34.565835],[135.545139,34.565694],[135.544214,34.565727],[135.542677,34.565835],[135.541902,34.565835],[135.541702,34.565777],[135.540452,34.56566],[135.539652,34.565627],[135.53779,34.565669],[135.537115,34.565727],[135.537015,34.56571],[135.536965,34.56616],[135.537015,34.566519],[135.537015,34.567035],[135.536952,34.567469],[135.536902,34.567577],[135.536427,34.567544],[135.535828,34.567594],[135.535803,34.567677],[135.535965,34.568768],[135.535977,34.569285],[135.535578,34.569443],[135.535228,34.569685],[135.535628,34.569818],[135.535615,34.571243],[135.535627,34.571693],[135.534928,34.571826],[135.534253,34.571868],[135.534003,34.571726],[135.533603,34.571618],[135.533178,34.571835],[135.532215,34.57251],[135.532165,34.572593],[135.532165,34.572976],[135.532078,34.573568],[135.531853,34.573751],[135.53174,34.573768],[135.531653,34.574284],[135.531153,34.574351],[135.531153,34.574418],[135.531328,34.574601],[135.531603,34.574668],[135.531765,34.575168],[135.531915,34.575393],[135.53184,34.576159],[135.531878,34.576676],[135.531353,34.576717],[135.529528,34.576709],[135.526666,34.576759],[135.524253,34.576651],[135.522429,34.576659],[135.522441,34.577092],[135.522391,34.577809],[135.522378,34.579817],[135.522316,34.580408],[135.522353,34.583941],[135.522291,34.585608],[135.522516,34.585658],[135.522766,34.585683],[135.522741,34.586183],[135.522703,34.586599],[135.522728,34.586716],[135.522691,34.587191],[135.522441,34.587258],[135.521153,34.587466],[135.521091,34.588283],[135.520953,34.589341],[135.521028,34.589866],[135.522616,34.589907],[135.522553,34.590224],[135.522628,34.592507],[135.522428,34.592799],[135.521841,34.593515],[135.521616,34.593924],[135.521566,34.594165],[135.519366,34.59324],[135.518603,34.59289],[135.517416,34.59204],[135.516254,34.591282],[135.515141,34.590699],[135.512967,34.589949],[135.512292,34.589582],[135.50813,34.587857],[135.507367,34.587466],[135.506692,34.586958],[135.506017,34.586633],[135.505905,34.586633],[135.505855,34.586599],[135.505817,34.586591],[135.505542,34.586516],[135.503892,34.586283],[135.502893,34.586191],[135.502055,34.586208],[135.501205,34.586533],[135.501018,34.586599],[135.49988,34.587349],[135.498843,34.588791],[135.498343,34.589757],[135.49793,34.591215],[135.49758,34.592207],[135.497305,34.592749],[135.497174,34.592897],[135.497155,34.592907],[135.49668,34.593382],[135.495843,34.594007],[135.495318,34.594298],[135.494381,34.59469],[135.493831,34.594798],[135.492331,34.594973],[135.491606,34.595098],[135.490968,34.595323],[135.490094,34.595523],[135.488719,34.595782],[135.488019,34.595865],[135.487781,34.595932],[135.487281,34.595998],[135.487131,34.596065],[135.487031,34.59604],[135.486231,34.596148],[135.484357,34.596515],[135.481844,34.597081],[135.478295,34.598231],[135.475607,34.599248],[135.475032,34.599406],[135.47297,34.600381],[135.471608,34.601073],[135.471108,34.601289],[135.469145,34.601981],[135.466783,34.602681],[135.463796,34.603514],[135.459346,34.604905],[135.457896,34.605255],[135.457671,34.605347],[135.451872,34.607038],[135.450759,34.60733],[135.450109,34.607455],[135.448047,34.608004],[135.446872,34.608379],[135.446572,34.608404],[135.44451,34.608363],[135.44251,34.608304],[135.441035,34.608296],[135.44001,34.608262],[135.438948,34.608212],[135.437498,34.608221],[135.437473,34.61077],[135.423449,34.610803],[135.423449,34.618902],[135.423424,34.618969],[135.423499,34.619177],[135.423674,34.619244],[135.423974,34.619136],[135.424074,34.619044],[135.424999,34.618627],[135.426211,34.618019],[135.426349,34.617144],[135.426674,34.613945],[135.426811,34.613128],[135.432948,34.613128],[135.432948,34.615028],[135.430211,34.61607],[135.430249,34.617694],[135.431798,34.617411],[135.431748,34.618194],[135.431623,34.618311],[135.431548,34.618561],[135.430636,34.618778],[135.430686,34.618978],[135.431636,34.618828],[135.431536,34.619728],[135.430299,34.619969],[135.430374,34.620194],[135.431448,34.620019],[135.431473,34.620319],[135.431448,34.620811],[135.431373,34.620861],[135.431248,34.620852],[135.431223,34.621152],[135.430336,34.621344],[135.430411,34.621594],[135.431286,34.621486],[135.431336,34.621511],[135.431311,34.621827],[135.431511,34.621961],[135.433086,34.622311],[135.432936,34.622852],[135.432748,34.62321],[135.432773,34.62326],[135.433148,34.62346],[135.433598,34.62356],[135.434273,34.623469],[135.434948,34.623677],[135.435923,34.624094],[135.440473,34.625927],[135.440697,34.625952],[135.441297,34.626185],[135.441347,34.62616],[135.441497,34.625619],[135.44161,34.625061],[135.441685,34.624719],[135.441785,34.624186],[135.443172,34.617128],[135.446185,34.614712],[135.446222,34.614779],[135.447135,34.614804],[135.44716,34.614937],[135.44721,34.615395],[135.447297,34.616128],[135.44736,34.616578],[135.44746,34.617145],[135.44756,34.617678],[135.447635,34.618012],[135.447685,34.61832],[135.44771,34.618587],[135.447697,34.619078],[135.448022,34.621653],[135.448284,34.623478],[135.448497,34.624678],[135.448547,34.624836],[135.448534,34.626436],[135.448559,34.626486],[135.449109,34.626302],[135.449759,34.626019],[135.451047,34.625594],[135.451722,34.625419],[135.452809,34.625069],[135.454409,34.624678],[135.455946,34.624636],[135.458246,34.624903],[135.459896,34.625211],[135.460871,34.625394],[135.463096,34.625794],[135.465245,34.626195],[135.46692,34.62657],[135.46807,34.626803],[135.468295,34.626828],[135.46887,34.626986],[135.469445,34.627078],[135.470345,34.627361],[135.471995,34.628111],[135.47237,34.628344],[135.472945,34.628794],[135.473195,34.629094],[135.473482,34.629386],[135.473707,34.629478],[135.473807,34.629544],[135.474019,34.629344],[135.474894,34.628544],[135.475507,34.628028],[135.476407,34.62722],[135.477119,34.626911],[135.477594,34.626736],[135.477969,34.626486],[135.479556,34.625645],[135.480156,34.625378],[135.481319,34.624795],[135.481594,34.624645],[135.481794,34.62442],[135.482031,34.623379],[135.482444,34.621787],[135.516166,34.616179],[135.533972,34.613623],[135.540963,34.614663],[135.545102,34.615279],[135.549813,34.615279],[135.556072,34.615279],[135.561589,34.615279],[135.567952,34.615268],[135.56931,34.615429],[135.570608,34.615816],[135.571473,34.616223],[135.572354,34.616817],[135.573457,34.617454],[135.574359,34.617857],[135.574935,34.618255],[135.575098,34.620313],[135.575198,34.620472],[135.575473,34.620472],[135.575548,34.620747],[135.575448,34.622305],[135.575523,34.62283],[135.574985,34.623205],[135.575073,34.623588],[135.575647,34.624771],[135.576635,34.626521],[135.57661,34.626638],[135.576097,34.627538],[135.575835,34.628162],[135.57591,34.630496],[135.575535,34.630562],[135.57471,34.630571],[135.574635,34.631454],[135.574622,34.632245],[135.57446,34.634003],[135.573722,34.633903],[135.571785,34.633887],[135.571723,34.633928],[135.57161,34.634428],[135.57156,34.63447],[135.570598,34.634387],[135.568685,34.63432],[135.568623,34.634345],[135.568548,34.635628],[135.568523,34.637236],[135.568435,34.638228],[135.568073,34.638253],[135.566348,34.638161],[135.565336,34.638153],[135.565223,34.640478],[135.565236,34.640953],[135.564636,34.640903],[135.563111,34.640953],[135.561436,34.640886],[135.561223,34.640927],[135.561098,34.641811],[135.560961,34.64366],[135.560973,34.643885],[135.560911,34.644927],[135.560823,34.646685],[135.560761,34.647077],[135.560686,34.648518],[135.560711,34.650285],[135.561773,34.650201],[135.561961,34.65111],[135.561836,34.651718],[135.561873,34.652493],[135.561823,34.652734],[135.561573,34.652868],[135.561298,34.652909],[135.559598,34.652959],[135.559486,34.653393],[135.559323,34.654809],[135.558698,34.654851],[135.558586,34.654826],[135.558598,34.655842],[135.559148,34.655876],[135.560511,34.655867],[135.561635,34.655901],[135.562948,34.655867],[135.563023,34.655892],[135.563073,34.656551],[135.563448,34.656601],[135.563923,34.656609],[135.56386,34.657034],[135.563948,34.658326],[135.563123,34.658317],[135.56176,34.658392],[135.561623,34.659517],[135.561423,34.660559],[135.561285,34.660625],[135.56106,34.661009],[135.561085,34.662475],[135.560998,34.662583],[135.559548,34.662683],[135.558973,34.662675],[135.559048,34.663175],[135.558473,34.663283],[135.557111,34.663358],[135.557023,34.663517],[135.556986,34.663691],[135.557061,34.664416],[135.557123,34.665458],[135.557273,34.666616],[135.557411,34.668133],[135.557523,34.668158],[135.558098,34.668116],[135.559348,34.668149],[135.560498,34.668074],[135.56141,34.668083],[135.561948,34.668049],[135.56206,34.668183],[135.56206,34.668391],[135.56191,34.669358],[135.56201,34.669924],[135.56201,34.670599],[135.56211,34.671574],[135.562085,34.671707],[135.56216,34.672474],[135.562423,34.673899],[135.562998,34.675732],[135.563247,34.676982],[135.56341,34.678015],[135.563447,34.680006],[135.563485,34.680415],[135.563597,34.680731],[135.563672,34.681165],[135.563772,34.681456],[135.563797,34.681865],[135.563772,34.68209],[135.563847,34.682273],[135.564285,34.682756],[135.564572,34.683273],[135.564597,34.683564],[135.56451,34.683881],[135.564235,34.684256],[135.564235,34.684531],[135.564385,34.685106],[135.564497,34.685664],[135.564772,34.686189],[135.564435,34.686389],[135.565372,34.687731],[135.565085,34.687731],[135.564547,34.687314],[135.564147,34.687106],[135.563772,34.687039],[135.563385,34.687039],[135.562972,34.687106],[135.560573,34.687347],[135.558985,34.687614],[135.558735,34.687681],[135.558885,34.688805],[135.55896,34.68953],[135.559185,34.690955],[135.559235,34.691655],[135.559285,34.692488],[135.559398,34.693613],[135.559523,34.69573],[135.559673,34.697313],[135.559685,34.698463],[135.559748,34.699313],[135.559785,34.700537],[135.559923,34.701462],[135.559923,34.701962],[135.560147,34.70637],[135.560135,34.70682],[135.56026,34.710186],[135.560347,34.711403],[135.560322,34.711786],[135.560397,34.715019],[135.563297,34.714994],[135.563472,34.715569],[135.563497,34.715878],[135.563472,34.716194],[135.563047,34.716694],[135.562859,34.717069],[135.562859,34.717361],[135.563322,34.717327],[135.563734,34.717327],[135.565534,34.717252],[135.566034,34.717161],[135.566547,34.717161],[135.566797,34.717219],[135.567659,34.717669],[135.567484,34.718077],[135.567284,34.718419],[135.567047,34.718752],[135.566522,34.719336],[135.566209,34.719719],[135.566022,34.72006],[135.565659,34.721344],[135.565434,34.72181],[135.565397,34.72201],[135.565534,34.722602],[135.565384,34.722618],[135.565309,34.722935],[135.565222,34.723027],[135.564922,34.72316],[135.564747,34.723452],[135.564259,34.724193],[135.563534,34.724777],[135.562984,34.724977],[135.561209,34.72521],[135.560684,34.725201],[135.560634,34.725493],[135.560047,34.725993],[135.559859,34.726035],[135.559397,34.725785],[135.559097,34.725668],[135.558522,34.725635],[135.557922,34.725518],[135.556622,34.725126],[135.55561,34.724918],[135.555147,34.724885],[135.554972,34.725635],[135.55481,34.727368],[135.554822,34.728926],[135.55476,34.729851],[135.554785,34.730659],[135.55491,34.730909],[135.554747,34.731134],[135.554197,34.731826],[135.553497,34.732759],[135.55341,34.732959],[135.55341,34.73305],[135.553597,34.733184],[135.55401,34.733342],[135.554585,34.733684],[135.554772,34.733917],[135.555035,34.734075],[135.555747,34.734342],[135.557834,34.735717],[135.558734,34.736117],[135.559784,34.7365],[135.560522,34.73685],[135.560659,34.737075],[135.560822,34.737525],[135.560946,34.738067],[135.561021,34.738733],[135.561046,34.739583],[135.560984,34.740191],[135.560846,34.740558],[135.560371,34.741341],[135.559984,34.741833],[135.559559,34.742483],[135.558596,34.743516],[135.557822,34.744433],[135.556459,34.745866],[135.556309,34.746899],[135.556334,34.748207],[135.556559,34.750015],[135.556896,34.750873],[135.557059,34.751198],[135.557384,34.751532],[135.558084,34.752173],[135.559146,34.753065],[135.559184,34.753248],[135.559484,34.753407],[135.560496,34.753923],[135.560933,34.754215],[135.562383,34.755023],[135.562933,34.755298],[135.563421,34.755498],[135.563946,34.755631],[135.565121,34.755856],[135.565646,34.755998],[135.567358,34.756356],[135.570095,34.75699],[135.571658,34.757256],[135.572445,34.757456],[135.573707,34.757731],[135.574907,34.758181],[135.575407,34.758448],[135.576082,34.758765],[135.57712,34.759348],[135.578407,34.76034],[135.579619,34.761106],[135.581007,34.762239],[135.581969,34.763139],[135.582706,34.763748],[135.583394,34.764464],[135.584131,34.765164],[135.585281,34.766197],[135.586181,34.766856],[135.586943,34.767489],[135.587193,34.767714],[135.588581,34.768789],[135.590331,34.77023],[135.590393,34.770322],[135.59143,34.771089],[135.59253,34.771972],[135.59313,34.77253],[135.594055,34.773205],[135.594742,34.773838],[135.596305,34.775122],[135.597205,34.775822],[135.597805,34.776405],[135.598842,34.777221],[135.598954,34.777263],[135.599204,34.777488],[135.599304,34.777646],[135.600517,34.778663],[135.600792,34.778996],[135.601767,34.780038],[135.602266,34.780488],[135.602341,34.781254],[135.602541,34.781254],[135.602591,34.781271],[135.603004,34.781271],[135.603391,34.781346],[135.604841,34.782088],[135.605329,34.782354],[135.606666,34.782963],[135.607003,34.783213],[135.608116,34.783796],[135.608528,34.784071],[135.61039,34.785604],[135.610965,34.786346],[135.611078,34.786529],[135.611678,34.787271],[135.612303,34.788237],[135.612503,34.788595],[135.613353,34.789837],[135.613953,34.790895],[135.614203,34.791237],[135.614278,34.791412],[135.61434,34.792245],[135.61439,34.794636],[135.614553,34.795903],[135.614778,34.797361],[135.615003,34.798311],[135.615215,34.798944],[135.61544,34.799277],[135.615978,34.799844],[135.616615,34.800202],[135.617703,34.801035],[135.618065,34.801644],[135.618503,34.802594],[135.61889,34.803518],[135.619303,34.804302],[135.619815,34.805452],[135.620178,34.805993],[135.620803,34.806601],[135.62154,34.807051],[135.62204,34.80746],[135.622188,34.807523],[135.622277,34.807568],[135.622415,34.807701],[135.623265,34.808293],[135.62364,34.808601],[135.624027,34.80886],[135.624677,34.809434],[135.625665,34.810051],[135.62679,34.810659],[135.627852,34.811159],[135.628914,34.811559],[135.630277,34.811901],[135.631289,34.812101],[135.632939,34.812243],[135.634851,34.812626],[135.635526,34.812818],[135.636651,34.813251],[135.637776,34.813751],[135.638263,34.814026],[135.638913,34.814476],[135.639613,34.815242],[135.640588,34.816442],[135.640751,34.816801],[135.641188,34.818109],[135.641513,34.819509],[135.641588,34.821017],[135.641563,34.821925],[135.641675,34.822667],[135.64165,34.822667],[135.642325,34.824683],[135.6428,34.825608],[135.643063,34.825925],[135.643413,34.826375],[135.64375,34.826733],[135.644138,34.827074],[135.644925,34.827949],[135.645388,34.828558],[135.646312,34.829866],[135.6465,34.830366],[135.646612,34.831207],[135.646612,34.831632],[135.646562,34.832132],[135.646587,34.832599],[135.646525,34.83359],[135.646387,34.834565],[135.646362,34.83569],[135.646112,34.836573],[135.6462,34.837365],[135.64655,34.838915],[135.6471,34.840898],[135.647612,34.842181],[135.647725,34.842631],[135.647862,34.842831],[135.64805,34.843331],[135.648712,34.844722],[135.649249,34.845964],[135.649637,34.846839],[135.649912,34.84738],[135.650674,34.848255],[135.651524,34.849047],[135.652374,34.849747],[135.653224,34.850197],[135.654199,34.850597],[135.655161,34.850888],[135.656699,34.851272],[135.657461,34.851505],[135.658561,34.851797],[135.660011,34.852263],[135.660748,34.852563],[135.661373,34.852763],[135.66261,34.853396],[135.663723,34.854088],[135.664185,34.854455],[135.664623,34.854855],[135.665448,34.855713],[135.66621,34.856746],[135.66761,34.859138],[135.668235,34.859904],[135.66851,34.860329],[135.669035,34.861413],[135.669085,34.861638],[135.669335,34.862154],[135.669659,34.862646],[135.670284,34.863754],[135.671197,34.865146],[135.671597,34.865779],[135.671734,34.866271],[135.671709,34.866721],[135.671759,34.868145],[135.671959,34.868729],[135.672309,34.86947],[135.672672,34.869945],[135.672834,34.870054],[135.673871,34.87127],[135.674171,34.871704],[135.674721,34.872262],[135.675971,34.87377],[135.676496,34.874512],[135.676771,34.874987],[135.677833,34.876587],[135.678083,34.877078],[135.678271,34.877578],[135.678408,34.877761],[135.678633,34.878278],[135.679696,34.880395],[135.679946,34.881136],[135.679971,34.881319]]]},"type":"Feature"}]}