{"type":"FeatureCollection","features":[{"type":"Feature","properties":{"id_url":"K04.html","yomi":"いずみ","number":4,"name":"和泉","pref":"大阪府","id":"K04"},"geometry":{"type":"Polygon","coordinates":[[[135.544066,34.463855],[135.544254,34.463472],[135.544916,34.462772],[135.545178,34.462547],[135.545403,34.462255],[135.545291,34.461955],[135.545103,34.46173],[135.544829,34.46153],[135.544279,34.460806],[135.543654,34.460106],[135.543379,34.459906],[135.543029,34.459764],[135.542404,34.459406],[135.542029,34.459064],[135.541366,34.458931],[135.541229,34.458547],[135.541204,34.457847],[135.541091,34.457548],[135.540766,34.457189],[135.540441,34.456898],[135.540167,34.456131],[135.539817,34.455948],[135.539467,34.455856],[135.539217,34.455673],[135.538917,34.455131],[135.538642,34.454864],[135.537717,34.454165],[135.537367,34.453865],[135.537017,34.453665],[135.536354,34.453098],[135.536279,34.452806],[135.536079,34.452465],[135.535779,34.452106],[135.535592,34.451723],[135.535567,34.45129],[135.535592,34.451198],[135.535455,34.451115],[135.535192,34.45109],[135.534805,34.451115],[135.534692,34.450973],[135.534455,34.450165],[135.534455,34.44994],[135.534042,34.449757],[135.533905,34.44944],[135.533855,34.449032],[135.533742,34.448715],[135.53328,34.448132],[135.532242,34.447182],[135.531805,34.446865],[135.53088,34.44664],[135.530368,34.446074],[135.530093,34.445732],[135.529768,34.445465],[135.529305,34.445149],[135.52898,34.444874],[135.528618,34.444649],[135.528355,34.444332],[135.528018,34.443816],[135.527718,34.443449],[135.527505,34.443291],[135.527068,34.443199],[135.526905,34.443041],[135.52658,34.442341],[135.526306,34.442074],[135.526168,34.442007],[135.525356,34.441691],[135.524868,34.441599],[135.524268,34.441599],[135.523168,34.440982],[135.522443,34.440491],[135.522143,34.440216],[135.522031,34.439899],[135.522031,34.439358],[135.521843,34.438816],[135.521544,34.438433],[135.520856,34.437774],[135.520094,34.437166],[135.519956,34.4369],[135.519744,34.436758],[135.519519,34.436358],[135.519494,34.436175],[135.519231,34.435766],[135.519194,34.435608],[135.518981,34.435316],[135.518844,34.43455],[135.518869,34.4343],[135.518681,34.433892],[135.518656,34.433575],[135.518431,34.4331],[135.518406,34.4329],[135.518731,34.432542],[135.518931,34.431925],[135.519119,34.431658],[135.519744,34.431],[135.520969,34.430467],[135.521794,34.430217],[135.522306,34.430167],[135.522656,34.430192],[135.523093,34.430284],[135.523481,34.43015],[135.523781,34.4299],[135.524243,34.429609],[135.524618,34.429267],[135.525306,34.427642],[135.525543,34.426942],[135.525768,34.426559],[135.525981,34.426334],[135.526093,34.426134],[135.526093,34.425593],[135.526481,34.425118],[135.526556,34.425068],[135.526393,34.424551],[135.526143,34.423968],[135.526343,34.423309],[135.526256,34.423043],[135.526143,34.422926],[135.525581,34.422568],[135.525243,34.422318],[135.525168,34.422068],[135.525331,34.421776],[135.525793,34.421393],[135.526068,34.421051],[135.526068,34.420668],[135.525956,34.420285],[135.525956,34.420168],[135.526068,34.419952],[135.525981,34.419943],[135.526006,34.419668],[135.525981,34.419127],[135.525768,34.418427],[135.525681,34.418043],[135.525756,34.417035],[135.525681,34.416427],[135.525681,34.415752],[135.525931,34.415319],[135.526618,34.414686],[135.526893,34.414352],[135.526943,34.414011],[135.526918,34.413877],[135.526281,34.413111],[135.526143,34.412819],[135.525793,34.412502],[135.525343,34.412186],[135.525243,34.412052],[135.524818,34.410478],[135.524793,34.409961],[135.524818,34.409711],[135.525068,34.409078],[135.525206,34.408536],[135.524743,34.40802],[135.524331,34.407278],[135.524331,34.406961],[135.524243,34.406603],[135.523556,34.406195],[135.523206,34.405878],[135.523169,34.40577],[135.523281,34.405228],[135.523556,34.404687],[135.523856,34.404278],[135.524268,34.403828],[135.524218,34.403628],[135.523693,34.40342],[135.523531,34.403178],[135.523443,34.402745],[135.522618,34.401529],[135.522406,34.401129],[135.522643,34.400179],[135.522181,34.399912],[135.521443,34.399795],[135.521168,34.399795],[135.520306,34.399012],[135.520094,34.398696],[135.520031,34.398087],[135.519931,34.397862],[135.519681,34.397637],[135.519381,34.396804],[135.519318,34.396487],[135.519756,34.396421],[135.520231,34.396079],[135.520231,34.395471],[135.519956,34.394954],[135.519681,34.394254],[135.519318,34.393804],[135.519343,34.393688],[135.519818,34.393396],[135.520093,34.393129],[135.520031,34.39243],[135.520093,34.39083],[135.519618,34.389746],[135.519755,34.388938],[135.519705,34.388596],[135.519568,34.388121],[135.519068,34.387763],[135.518955,34.387588],[135.518543,34.387363],[135.518193,34.38698],[135.517943,34.38653],[135.517505,34.385922],[135.517118,34.385738],[135.51693,34.385447],[135.516705,34.384772],[135.516543,34.384547],[135.516405,34.38448],[135.515355,34.384255],[135.51473,34.383805],[135.51448,34.383555],[135.513768,34.382947],[135.512805,34.38223],[135.511943,34.38178],[135.51153,34.381663],[135.51088,34.381688],[135.510055,34.381505],[135.509555,34.38153],[135.509143,34.381597],[135.508705,34.38158],[135.508068,34.381438],[135.507106,34.38133],[135.506831,34.381372],[135.506181,34.381555],[135.505631,34.381847],[135.505156,34.381988],[135.504881,34.381988],[135.504306,34.381922],[135.503844,34.381713],[135.503544,34.381197],[135.503206,34.38093],[135.503156,34.380297],[135.503343,34.379797],[135.502856,34.37933],[135.502606,34.379197],[135.501994,34.378514],[135.501806,34.377889],[135.500981,34.377072],[135.500619,34.376556],[135.500594,34.376039],[135.500619,34.375814],[135.500544,34.375681],[135.499994,34.375297],[135.499582,34.375272],[135.499082,34.375431],[135.498507,34.375414],[135.498119,34.375231],[135.497519,34.374714],[135.497382,34.374664],[135.497208,34.374737],[135.49717,34.374806],[135.496345,34.374514],[135.49522,34.374314],[135.49442,34.374106],[135.493645,34.373839],[135.49302,34.373548],[135.492383,34.373323],[135.490958,34.373073],[135.490758,34.372848],[135.49062,34.372423],[135.490645,34.37134],[135.490595,34.370956],[135.490733,34.370465],[135.490708,34.370148],[135.49037,34.369723],[135.490208,34.369565],[135.489933,34.369132],[135.489821,34.368615],[135.489796,34.367965],[135.489621,34.366699],[135.489596,34.36614],[135.489408,34.365732],[135.488633,34.365082],[135.487946,34.36479],[135.487371,34.364249],[135.485834,34.363082],[135.485359,34.362832],[135.484184,34.361866],[135.483184,34.360966],[135.482747,34.360624],[135.481734,34.360108],[135.481534,34.359658],[135.481559,34.359524],[135.481397,34.359208],[135.48096,34.358849],[135.480435,34.358558],[135.479497,34.358283],[135.479147,34.357991],[135.47821,34.356233],[135.477823,34.3557],[135.477498,34.355475],[135.477323,34.355316],[135.477298,34.355041],[135.477498,34.354616],[135.47776,34.354233],[135.477873,34.353783],[135.477735,34.353466],[135.47741,34.353216],[135.476773,34.353058],[135.47606,34.353083],[135.475423,34.353041],[135.474823,34.352883],[135.474336,34.35295],[135.473448,34.353266],[135.473198,34.353308],[135.472323,34.352908],[135.471773,34.35255],[135.471661,34.352433],[135.471336,34.351666],[135.470348,34.350725],[135.469936,34.350383],[135.469686,34.350292],[135.468199,34.350117],[135.467599,34.349867],[135.467186,34.349533],[135.466961,34.349192],[135.466661,34.348542],[135.466499,34.347975],[135.466186,34.347525],[135.465811,34.34735],[135.465261,34.347392],[135.464049,34.348067],[135.463387,34.348292],[135.462974,34.348317],[135.462374,34.347825],[135.461712,34.347734],[135.461024,34.347825],[135.460474,34.347775],[135.460087,34.3476],[135.458637,34.347375],[135.457675,34.347334],[135.456825,34.347467],[135.455887,34.347759],[135.455475,34.348117],[135.454987,34.349067],[135.454487,34.349384],[135.453588,34.349792],[135.453088,34.349834],[135.452263,34.349225],[135.4518,34.349092],[135.45075,34.349367],[135.450175,34.349384],[135.449538,34.34925],[135.449051,34.34905],[135.448663,34.349025],[135.447676,34.349234],[135.447313,34.349167],[135.446901,34.348759],[135.446213,34.34835],[135.445838,34.348175],[135.444876,34.347834],[135.444189,34.3477],[135.443464,34.347592],[135.442726,34.347567],[135.442126,34.347409],[135.441576,34.347367],[135.441489,34.347392],[135.441026,34.3477],[135.440589,34.347884],[135.439952,34.347842],[135.439814,34.347775],[135.439427,34.347659],[135.438939,34.347684],[135.437727,34.348025],[135.437202,34.348],[135.436764,34.348042],[135.436627,34.348133],[135.436327,34.34845],[135.435939,34.348608],[135.435202,34.348583],[135.434815,34.348408],[135.434515,34.348317],[135.434327,34.348208],[135.434127,34.347908],[135.43369,34.347617],[135.432952,34.347392],[135.43229,34.347283],[135.431765,34.347375],[135.431515,34.34735],[135.431302,34.347283],[135.430665,34.346992],[135.430278,34.3467],[135.430115,34.346384],[135.429178,34.345909],[135.428828,34.345617],[135.42839,34.3449],[135.428115,34.344534],[135.428053,34.344109],[135.428328,34.343567],[135.428165,34.343184],[135.427803,34.342534],[135.427115,34.341926],[135.42704,34.341317],[135.426903,34.341001],[135.426491,34.340751],[135.425853,34.340576],[135.425253,34.340101],[135.424841,34.339943],[135.423741,34.340326],[135.423053,34.340259],[135.422478,34.340059],[135.421904,34.339809],[135.421429,34.339784],[135.420829,34.340009],[135.420254,34.340101],[135.419754,34.340126],[135.418954,34.340259],[135.418354,34.340326],[135.417891,34.340126],[135.417366,34.339834],[135.416954,34.339726],[135.415829,34.339834],[135.415167,34.340126],[135.414017,34.341167],[135.413817,34.341276],[135.413192,34.341551],[135.412617,34.341892],[135.412067,34.342001],[135.411317,34.342026],[135.410505,34.341959],[135.40923,34.341934],[135.408992,34.341826],[135.408742,34.341392],[135.408517,34.340451],[135.40833,34.340109],[135.407343,34.339234],[135.406955,34.338651],[135.406955,34.338126],[135.407093,34.336643],[135.407068,34.336626],[135.40678,34.335726],[135.406768,34.335451],[135.406705,34.335385],[135.40608,34.334926],[135.405893,34.334651],[135.405718,34.334018],[135.40558,34.333843],[135.404818,34.334018],[135.404293,34.334076],[135.40378,34.33401],[135.403205,34.333843],[135.403018,34.333751],[135.402718,34.333543],[135.402555,34.333293],[135.402456,34.333026],[135.402181,34.332885],[135.401931,34.332701],[135.401831,34.332676],[135.401468,34.332768],[135.401306,34.33286],[135.401056,34.332876],[135.400918,34.332851],[135.400268,34.332576],[135.399718,34.33266],[135.399393,34.332593],[135.398968,34.332368],[135.398156,34.331726],[135.397993,34.331568],[135.397506,34.330635],[135.397243,34.330477],[135.396969,34.330385],[135.396644,34.330402],[135.396331,34.330535],[135.396119,34.330693],[135.395756,34.330802],[135.395406,34.330843],[135.395081,34.330935],[135.394694,34.330885],[135.394481,34.330818],[135.394206,34.330901],[135.393894,34.331101],[135.393594,34.331376],[135.393481,34.331551],[135.392769,34.331843],[135.392469,34.332068],[135.392269,34.332268],[135.391919,34.332493],[135.391557,34.332693],[135.391194,34.333001],[135.390732,34.332951],[135.390194,34.332701],[135.389294,34.33256],[135.388532,34.33251],[135.388182,34.332393],[135.387994,34.332051],[135.387357,34.330218],[135.38717,34.32981],[135.386982,34.329243],[135.38677,34.329177],[135.386332,34.329193],[135.384607,34.329477],[135.38412,34.329518],[135.383357,34.329418],[135.383058,34.329418],[135.382458,34.329318],[135.381933,34.32916],[135.381445,34.329043],[135.380658,34.32861],[135.380308,34.328493],[135.380008,34.32856],[135.379595,34.328735],[135.379045,34.329135],[135.378733,34.329468],[135.378071,34.330035],[135.377721,34.330143],[135.376821,34.330227],[135.376433,34.330335],[135.376158,34.33056],[135.375908,34.330868],[135.375658,34.331076],[135.375358,34.331118],[135.374508,34.331068],[135.374109,34.330968],[135.373259,34.33056],[135.372771,34.330418],[135.372371,34.33026],[135.372209,34.330292],[135.371434,34.330202],[135.370971,34.330218],[135.370184,34.33036],[135.369209,34.33066],[135.368797,34.330885],[135.368472,34.331135],[135.368334,34.331201],[135.367934,34.331201],[135.367497,34.331068],[135.367084,34.330868],[135.366922,34.330618],[135.366672,34.329968],[135.366422,34.32981],[135.366022,34.329702],[135.365035,34.329677],[135.364635,34.32986],[135.364385,34.32991],[135.363922,34.329843],[135.363497,34.32996],[135.363297,34.329818],[135.363247,34.32971],[135.362647,34.329218],[135.362372,34.329193],[135.362135,34.32926],[135.361722,34.329535],[135.36151,34.33001],[135.361073,34.33051],[135.36091,34.330868],[135.360623,34.33116],[135.360485,34.331435],[135.360435,34.33186],[135.360273,34.332043],[135.360023,34.332176],[135.359673,34.332718],[135.359135,34.333126],[135.358785,34.333201],[135.358098,34.333243],[135.357835,34.333385],[135.357698,34.333584],[135.357585,34.333559],[135.357185,34.33336],[135.356748,34.333201],[135.356335,34.33321],[135.356148,34.333318],[135.355898,34.333659],[135.355735,34.333659],[135.355498,34.333551],[135.354486,34.332876],[135.354348,34.33256],[135.354186,34.332335],[135.353886,34.33216],[135.353698,34.332085],[135.353361,34.332176],[135.353286,34.332251],[135.352386,34.332451],[135.351386,34.332235],[135.350323,34.331826],[135.350123,34.331785],[135.349773,34.33181],[135.349348,34.331968],[135.348549,34.331676],[135.348174,34.33121],[135.348011,34.331118],[135.347436,34.33101],[135.347299,34.331026],[135.347086,34.331118],[135.346949,34.331118],[135.346724,34.330985],[135.346424,34.330651],[135.346124,34.330402],[135.345824,34.330468],[135.345661,34.330543],[135.345424,34.330876],[135.345236,34.331535],[135.344886,34.332118],[135.344611,34.332368],[135.344449,34.332418],[135.344099,34.33271],[135.343699,34.33316],[135.342724,34.334493],[135.342424,34.334809],[135.342324,34.334993],[135.342124,34.335176],[135.341937,34.335268],[135.341562,34.335293],[135.340749,34.335268],[135.340424,34.335293],[135.340037,34.335251],[135.339487,34.335068],[135.338999,34.335026],[135.338762,34.335118],[135.338624,34.335251],[135.338412,34.335393],[135.338249,34.335368],[135.337912,34.335234],[135.337474,34.334968],[135.337637,34.334809],[135.338124,34.334509],[135.338749,34.334034],[135.338887,34.333743],[135.339074,34.332776],[135.339212,34.33246],[135.339424,34.332185],[135.339524,34.331985],[135.339312,34.33151],[135.339199,34.331101],[135.339199,34.330651],[135.339274,34.329793],[135.339212,34.329477],[135.338999,34.329235],[135.338125,34.328585],[135.337225,34.327685],[135.336537,34.327485],[135.335837,34.327035],[135.335662,34.32681],[135.335612,34.326519],[135.335525,34.32636],[135.335012,34.325935],[135.334762,34.32566],[135.334512,34.32551],[135.334025,34.32551],[135.3337,34.325669],[135.3336,34.325694],[135.333213,34.325485],[135.332863,34.32556],[135.332725,34.325627],[135.3324,34.325602],[135.3318,34.325469],[135.331613,34.325469],[135.3312,34.325319],[135.3303,34.325185],[135.33,34.325052],[135.329513,34.324419],[135.329263,34.324327],[135.328451,34.324219],[135.328126,34.324019],[135.328013,34.323752],[135.328088,34.32321],[135.328301,34.322735],[135.328463,34.322419],[135.328651,34.321511],[135.329138,34.321311],[135.32925,34.321194],[135.329325,34.321036],[135.329975,34.320336],[135.330088,34.320111],[135.330538,34.319794],[135.330575,34.319661],[135.33015,34.318686],[135.330125,34.318328],[135.330238,34.317811],[135.3305,34.317203],[135.33055,34.316678],[135.330363,34.316769],[135.329663,34.317361],[135.329175,34.318036],[135.3286,34.318361],[135.327901,34.318677],[135.327463,34.318744],[135.326901,34.318927],[135.325951,34.319152],[135.324151,34.319136],[135.323826,34.319052],[135.322813,34.318602],[135.322538,34.318427],[135.322376,34.318202],[135.322301,34.317977],[135.322163,34.317911],[135.321314,34.317686],[135.320801,34.317486],[135.320176,34.317127],[135.319839,34.316811],[135.319514,34.316627],[135.319189,34.316494],[135.318264,34.316411],[135.318126,34.316344],[135.318051,34.316161],[135.317876,34.315961],[135.317614,34.315802],[135.317314,34.315694],[135.316902,34.315694],[135.316577,34.315511],[135.316352,34.315519],[135.315952,34.315652],[135.315727,34.315627],[135.315427,34.315427],[135.315164,34.315336],[135.314914,34.315319],[135.314727,34.315161],[135.314014,34.315186],[135.313914,34.315119],[135.313902,34.314961],[135.313827,34.314761],[135.313339,34.314469],[135.313139,34.314102],[135.312839,34.314019],[135.31214,34.314044],[135.311865,34.313994],[135.311777,34.313952],[135.311502,34.313686],[135.311265,34.313619],[135.311015,34.313819],[135.310852,34.313777],[135.310415,34.313578],[135.310252,34.313594],[135.310202,34.313644],[135.309927,34.313353],[135.30979,34.313328],[135.309365,34.313419],[135.309027,34.313403],[135.30884,34.313494],[135.308815,34.313719],[135.308677,34.313944],[135.307603,34.314419],[135.30714,34.314486],[135.306053,34.314269],[135.305315,34.314044],[135.303978,34.313711],[135.303916,34.312761],[135.304078,34.312244],[135.304478,34.311453],[135.304528,34.310778],[135.304503,34.310286],[135.304415,34.309878],[135.304203,34.309469],[135.304003,34.309203],[135.303816,34.308528],[135.303653,34.308186],[135.303428,34.30787],[135.303216,34.307403],[135.302928,34.30657],[135.302878,34.306136],[135.302841,34.304878],[135.302653,34.304495],[135.302403,34.304453],[135.301828,34.304478],[135.301666,34.304387],[135.301641,34.304203],[135.301691,34.304137],[135.301691,34.303728],[135.301503,34.303503],[135.301091,34.303278],[135.301041,34.30317],[135.301041,34.30297],[135.301091,34.302787],[135.300978,34.302587],[135.300766,34.30252],[135.299241,34.302612],[135.298729,34.302703],[135.298479,34.302528],[135.298254,34.30147],[135.298041,34.301153],[135.297766,34.300862],[135.297579,34.30077],[135.297441,34.300795],[135.297054,34.300928],[135.296304,34.30127],[135.296079,34.301337],[135.296004,34.301178],[135.295892,34.300462],[135.295779,34.300212],[135.295642,34.30017],[135.295204,34.300237],[135.294829,34.300512],[135.294717,34.300445],[135.294529,34.300154],[135.293904,34.300062],[135.293742,34.30002],[135.293679,34.29997],[135.293492,34.299612],[135.293467,34.299412],[135.293329,34.299187],[135.293054,34.299162],[135.292454,34.299304],[135.291805,34.299529],[135.291505,34.299804],[135.290892,34.300887],[135.290642,34.301203],[135.290267,34.301495],[135.28978,34.302103],[135.289617,34.302712],[135.28943,34.303103],[135.288592,34.304053],[135.288217,34.304595],[135.28803,34.304953],[135.287917,34.305336],[135.28793,34.305653],[135.287867,34.306061],[135.287767,34.306311],[135.287217,34.306511],[135.287055,34.306645],[135.28693,34.307053],[135.28688,34.307528],[135.286718,34.307753],[135.286555,34.308361],[135.28653,34.309111],[135.286418,34.309403],[135.28613,34.309828],[135.286043,34.310211],[135.286105,34.310577],[135.286542,34.311652],[135.28668,34.312244],[135.28663,34.312602],[135.28633,34.313277],[135.285793,34.314002],[135.285555,34.31441],[135.285393,34.314819],[135.28478,34.316077],[135.284105,34.31676],[135.283943,34.316877],[135.283205,34.317668],[135.282855,34.317868],[135.282643,34.317893],[135.282418,34.317827],[135.282305,34.317735],[135.281868,34.317127],[135.28138,34.316885],[135.280943,34.316477],[135.280505,34.31641],[135.28018,34.316502],[135.279968,34.31646],[135.279481,34.315985],[135.279181,34.315918],[135.278818,34.31601],[135.277956,34.315702],[135.277656,34.315635],[135.277406,34.315543],[135.277018,34.314602],[135.276693,34.31426],[135.276281,34.314035],[135.275843,34.313927],[135.275306,34.31386],[135.275168,34.313819],[135.275006,34.31366],[135.274731,34.313502],[135.274406,34.313369],[135.273831,34.313235],[135.273481,34.312944],[135.272769,34.31216],[135.272519,34.312227],[135.272306,34.31216],[135.272169,34.312044],[135.271981,34.312069],[135.271681,34.312452],[135.271131,34.312319],[135.270294,34.312277],[135.269856,34.312194],[135.269256,34.312419],[135.268669,34.312444],[135.267981,34.31251],[135.266294,34.31261],[135.266032,34.312585],[135.265782,34.31261],[135.265644,34.312652],[135.265182,34.312902],[135.264507,34.31311],[135.263857,34.313027],[135.263507,34.313044],[135.263119,34.312977],[135.262657,34.312669],[135.262144,34.312377],[135.261982,34.312335],[135.261844,34.312352],[135.261544,34.312577],[135.261219,34.312944],[135.260295,34.313852],[135.259707,34.314235],[135.259245,34.314618],[135.258645,34.315027],[135.258082,34.315502],[135.257695,34.315568],[135.257095,34.31546],[135.256745,34.31546],[135.25612,34.315668],[135.255982,34.315693],[135.255607,34.315577],[135.255032,34.31556],[135.254682,34.315652],[135.25447,34.315677],[135.254132,34.315518],[135.25362,34.315177],[135.25302,34.315119],[135.252695,34.314735],[135.252557,34.314685],[135.252182,34.31471],[135.252008,34.31476],[135.251583,34.314735],[135.251145,34.314602],[135.250708,34.314519],[135.250408,34.314535],[135.250158,34.314469],[135.249858,34.314335],[135.249733,34.314319],[135.24932,34.314335],[135.24902,34.314319],[135.248858,34.31371],[135.248495,34.312986],[135.24822,34.312919],[135.24792,34.312927],[135.247333,34.313061],[135.247229,34.313124],[135.247045,34.313219],[135.246445,34.313327],[135.24647,34.313286],[135.246308,34.312627],[135.246058,34.312244],[135.245795,34.311927],[135.24532,34.311561],[135.244833,34.311336],[135.244558,34.311111],[135.244458,34.310911],[135.244021,34.310703],[135.243696,34.310161],[135.243533,34.310111],[135.243071,34.310111],[135.242796,34.310003],[135.242521,34.309703],[135.242333,34.309386],[135.242133,34.309186],[135.241833,34.30912],[135.241621,34.308961],[135.241321,34.308461],[135.240608,34.308411],[135.240046,34.308028],[135.239683,34.307895],[135.239283,34.307645],[135.238546,34.307053],[135.238271,34.306645],[135.237996,34.306512],[135.237783,34.306353],[135.237621,34.30617],[135.236858,34.305854],[135.236608,34.305695],[135.236196,34.305629],[135.236121,34.305512],[135.235959,34.304854],[135.235734,34.304362],[135.235571,34.304129],[135.235321,34.303954],[135.235521,34.303746],[135.235571,34.303637],[135.234071,34.303229],[135.233309,34.303046],[135.232609,34.302837],[135.231784,34.302654],[135.230996,34.302521],[135.227884,34.301654],[135.226359,34.301312],[135.225472,34.30097],[135.224897,34.300928],[135.224809,34.300995],[135.224672,34.301428],[135.224109,34.302078],[135.222934,34.303095],[135.221947,34.303795],[135.221572,34.303928],[135.220922,34.304269],[135.220422,34.304653],[135.219447,34.305011],[135.21896,34.305119],[135.218322,34.305169],[135.217897,34.305169],[135.217022,34.305094],[135.216197,34.305077],[135.215772,34.305119],[135.214348,34.30566],[135.213723,34.30586],[135.21331,34.306044],[135.212935,34.306285],[135.211685,34.306468],[135.21086,34.306718],[135.210623,34.306877],[135.21021,34.307235],[135.209935,34.307551],[135.209585,34.307868],[135.209123,34.308068],[135.20871,34.30811],[135.208035,34.308135],[135.208298,34.307868],[135.20841,34.307685],[135.208523,34.307251],[135.20846,34.306668],[135.208223,34.305852],[135.208273,34.304877],[135.208473,34.304135],[135.208636,34.303752],[135.208636,34.303344],[135.208411,34.302752],[135.208036,34.302277],[135.207048,34.301419],[135.206698,34.301077],[135.206286,34.300786],[135.205448,34.300536],[135.205198,34.300311],[135.205011,34.299877],[135.204736,34.298994],[135.204386,34.298136],[135.204324,34.297728],[135.204599,34.296919],[135.204799,34.296553],[135.204924,34.29617],[135.204849,34.295736],[135.204824,34.295336],[135.204874,34.29502],[135.204799,34.293953],[135.204824,34.293453],[135.204686,34.292645],[135.204761,34.291762],[135.204736,34.291378],[135.204411,34.29052],[135.204524,34.290178],[135.204824,34.289703],[135.205199,34.28887],[135.205286,34.28857],[135.205261,34.288437],[135.205074,34.288212],[135.204799,34.288079],[135.204436,34.288054],[135.204061,34.28807],[135.203649,34.288145],[135.203436,34.288095],[135.202911,34.28762],[135.202786,34.28762],[135.202262,34.287887],[135.201937,34.288137],[135.201637,34.288229],[135.200162,34.287529],[135.199762,34.287454],[135.199649,34.287479],[135.199399,34.287687],[135.199162,34.287953],[135.198887,34.288045],[135.198587,34.287978],[135.198287,34.287795],[135.197937,34.287362],[135.197474,34.286687],[135.196925,34.28637],[135.196737,34.28612],[135.196437,34.285979],[135.19595,34.286029],[135.19545,34.286204],[135.19475,34.286862],[135.194062,34.286928],[135.194012,34.28697],[135.1936,34.28702],[135.193062,34.286928],[135.1921,34.286678],[135.191775,34.286453],[135.191537,34.286137],[135.19115,34.285453],[135.190875,34.285095],[135.19075,34.28432],[135.190087,34.283354],[135.1899,34.283012],[135.189688,34.282762],[135.189363,34.282787],[135.188813,34.282962],[135.188238,34.283212],[135.188,34.283237],[135.186775,34.282329],[135.186388,34.281962],[135.186088,34.281537],[135.18595,34.281445],[135.185213,34.281262],[135.184975,34.281062],[135.184888,34.280604],[135.184888,34.279954],[135.184813,34.279479],[135.1847,34.279112],[135.184563,34.278912],[135.184025,34.278754],[135.1835,34.278754],[135.18315,34.278904],[135.182851,34.279179],[135.182438,34.279337],[135.181926,34.279404],[135.181488,34.279537],[135.181138,34.279762],[135.180426,34.279895],[135.180313,34.279895],[135.179851,34.279537],[135.179613,34.27917],[135.179363,34.27897],[135.178738,34.278904],[135.178551,34.278945],[135.178226,34.279079],[135.177701,34.279354],[135.177301,34.27962],[135.176888,34.279779],[135.176338,34.27987],[135.175801,34.279895],[135.175363,34.27982],[135.174926,34.27987],[135.173314,34.280203],[135.172726,34.280203],[135.172664,34.280295],[135.172389,34.28052],[135.172126,34.280628],[135.171714,34.280628],[135.171364,34.280495],[135.170926,34.28022],[135.170489,34.279995],[135.170189,34.279928],[135.169776,34.280178],[135.169376,34.280262],[135.168151,34.280037],[135.167551,34.280012],[135.166976,34.279945],[135.166589,34.279812],[135.166326,34.279495],[135.166027,34.278953],[135.165702,34.278745],[135.164777,34.278653],[135.163652,34.278628],[135.163189,34.278495],[135.162914,34.278312],[135.162652,34.278178],[135.162377,34.278103],[135.161914,34.278037],[135.161527,34.277812],[135.161264,34.277562],[135.161064,34.277453],[135.160927,34.277453],[135.160902,34.27752],[135.160627,34.277812],[135.160464,34.277903],[135.160064,34.277812],[135.159789,34.277562],[135.158977,34.276995],[135.158402,34.27702],[135.157915,34.277128],[135.157365,34.277037],[135.156927,34.276812],[135.15649,34.276495],[135.155865,34.275703],[135.155002,34.274978],[135.15459,34.274595],[135.15424,34.274345],[135.153802,34.274253],[135.153502,34.27427],[135.15304,34.274387],[135.152352,34.274428],[135.152352,34.274587],[135.152465,34.274878],[135.152602,34.275087],[135.153365,34.27527],[135.153877,34.276287],[135.154077,34.276537],[135.154152,34.276803],[135.15404,34.277237],[135.153852,34.277711],[135.153502,34.278345],[135.15344,34.278728],[135.153502,34.279136],[135.153627,34.27947],[135.15434,34.280061],[135.15469,34.280428],[135.15489,34.280745],[135.154965,34.281011],[135.154665,34.28117],[135.154227,34.281261],[135.153952,34.281353],[135.153852,34.281594],[135.153815,34.281894],[135.15369,34.282161],[135.153465,34.282344],[135.15309,34.282344],[135.152327,34.282094],[135.152027,34.282203],[135.151827,34.282344],[135.151127,34.282253],[135.15069,34.282361],[135.149465,34.282878],[135.149352,34.282878],[135.149028,34.283019],[135.148428,34.283644],[135.148265,34.283736],[135.14764,34.283802],[135.147178,34.283736],[135.146903,34.283644],[135.146253,34.283102],[135.145928,34.282653],[135.145165,34.281836],[135.14424,34.281203],[135.143965,34.280903],[135.143665,34.280428],[135.143553,34.280361],[135.143203,34.280361],[135.142715,34.280611],[135.142253,34.280969],[135.141266,34.281961],[135.141153,34.282011],[135.140941,34.281986],[135.140553,34.281894],[135.140366,34.281894],[135.140153,34.281936],[135.139853,34.281919],[135.139603,34.281669],[135.139441,34.281353],[135.139228,34.281036],[135.139141,34.280761],[135.139166,34.280653],[135.139578,34.280353],[135.139691,34.280153],[135.139691,34.279928],[135.139528,34.279403],[135.138978,34.278911],[135.138791,34.278594],[135.138716,34.278361],[135.138716,34.278069],[135.138791,34.277736],[135.138528,34.277078],[135.138466,34.276828],[135.138253,34.276603],[135.137866,34.276353],[135.137791,34.276261],[135.137766,34.275603],[135.137603,34.275378],[135.137541,34.275128],[135.137953,34.274653],[135.137816,34.274336],[135.137303,34.27407],[135.137053,34.27382],[135.136816,34.273503],[135.136454,34.273478],[135.136266,34.273503],[135.135804,34.273453],[135.135204,34.273228],[135.134141,34.272753],[135.133654,34.272612],[135.133216,34.272595],[135.132916,34.272545],[135.132516,34.272412],[135.132104,34.272345],[135.131429,34.272412],[135.131291,34.272478],[135.130791,34.272836],[135.130466,34.27302],[135.130279,34.27347],[135.129979,34.273811],[135.129754,34.273986],[135.129567,34.274328],[135.129217,34.274711],[135.129129,34.274895],[135.129217,34.275545],[135.129079,34.275861],[135.128829,34.276069],[135.128804,34.276136],[135.128454,34.276311],[135.127467,34.276494],[135.126592,34.276678],[135.126379,34.276811],[135.126129,34.277353],[135.125854,34.277419],[135.125529,34.277303],[135.125154,34.276944],[135.124854,34.276761],[135.124467,34.276669],[135.123955,34.276469],[135.123605,34.276169],[135.123117,34.275561],[135.122867,34.274794],[135.12273,34.274728],[135.122241,34.274699],[135.122055,34.274919],[135.121705,34.274986],[135.12158,34.274936],[135.121317,34.274436],[135.121017,34.273961],[135.120742,34.273828],[135.120392,34.273736],[135.119967,34.273686],[135.119342,34.273661],[135.118542,34.273628],[135.118017,34.273261],[135.117467,34.27317],[135.117092,34.27312],[135.116967,34.273261],[135.11668,34.273619],[135.11608,34.273928],[135.11538,34.274194],[135.115005,34.274261],[135.114118,34.274436],[135.113918,34.274411],[135.113768,34.274294],[135.11338,34.273928],[135.11228,34.273678],[135.11203,34.273561],[135.111905,34.273428],[135.11188,34.273269],[135.111905,34.272953],[135.111855,34.272728],[135.111668,34.272094],[135.111493,34.27187],[135.111343,34.271936],[135.11058,34.272578],[135.110405,34.272803],[135.110355,34.273186],[135.110418,34.273503],[135.110418,34.273778],[135.110293,34.274003],[135.109843,34.274286],[135.109568,34.274578],[135.109305,34.274961],[135.109055,34.275544],[135.108768,34.275953],[135.108668,34.276269],[135.108568,34.276719],[135.108618,34.277011],[135.10858,34.277594],[135.10843,34.277777],[135.108055,34.277911],[135.107755,34.278061],[135.10753,34.278261],[135.107393,34.278577],[135.107343,34.279302],[135.107368,34.279552],[135.107568,34.279752],[135.108205,34.280594],[135.108455,34.281177],[135.108843,34.281952],[135.109118,34.282652],[135.109118,34.28276],[135.109043,34.282969],[135.108755,34.283369],[135.10868,34.283935],[135.10858,34.28411],[135.108405,34.284227],[135.107618,34.284352],[135.107043,34.284327],[135.106668,34.284352],[135.106243,34.284477],[135.105743,34.284544],[135.105468,34.284702],[135.10518,34.28501],[135.10498,34.285169],[135.104805,34.285235],[135.10443,34.28526],[135.104005,34.28541],[135.10378,34.285568],[135.103368,34.28611],[135.103168,34.28626],[135.103018,34.286285],[135.102768,34.286168],[135.102368,34.285918],[135.102043,34.285827],[135.101568,34.285752],[135.101443,34.285843],[135.101368,34.28596],[135.101343,34.286185],[135.101368,34.286518],[135.101305,34.28681],[135.10103,34.287152],[135.10078,34.287327],[135.100355,34.287435],[135.100093,34.287952],[135.099918,34.288227],[135.099618,34.288518],[135.099393,34.288668],[135.098918,34.288935],[135.09863,34.289185],[135.098605,34.289276],[135.098755,34.289685],[135.09878,34.289685],[135.098943,34.290426],[135.098943,34.290651],[135.099093,34.291085],[135.099418,34.29151],[135.099705,34.292193],[135.09978,34.292601],[135.09973,34.292935],[135.09958,34.293251],[135.099193,34.293876],[135.099143,34.294376],[135.099005,34.294693],[135.09833,34.295134],[135.09813,34.295426],[135.09788,34.295626],[135.09773,34.295693],[135.097193,34.295759],[135.096918,34.295984],[135.096818,34.296634],[135.096955,34.297001],[135.09758,34.297659],[135.09773,34.297951],[135.09793,34.298226],[135.098443,34.298792],[135.098843,34.299001],[135.099643,34.299184],[135.099893,34.299301],[135.100043,34.299551],[135.100193,34.300201],[135.100418,34.300476],[135.100643,34.300501],[135.100668,34.300517],[135.101068,34.300617],[135.101393,34.300726],[135.10188,34.301092],[135.102405,34.301709],[135.102555,34.301776],[135.103005,34.301776],[135.103205,34.301892],[135.10348,34.302142],[135.10363,34.302434],[135.10383,34.302684],[135.104243,34.303092],[135.104343,34.303317],[135.104518,34.303934],[135.104668,34.3042],[135.104743,34.304292],[135.105243,34.304609],[135.105368,34.304659],[135.105617,34.304817],[135.106155,34.30545],[135.10648,34.30595],[135.106255,34.307958],[135.10613,34.308608],[135.10598,34.308791],[135.105705,34.30895],[135.104867,34.308941],[135.104793,34.308958],[135.104917,34.309366],[135.104917,34.309641],[135.104743,34.309708],[135.103918,34.309675],[135.103493,34.309741],[135.103393,34.3099],[135.10348,34.310466],[135.10363,34.310783],[135.103655,34.311049],[135.103455,34.311116],[135.103305,34.311024],[135.10253,34.310749],[135.102255,34.310566],[135.10198,34.310208],[135.10143,34.30975],[135.100805,34.309383],[135.100505,34.309316],[135.10018,34.309358],[135.099905,34.309358],[135.09963,34.309308],[135.098905,34.30885],[135.098255,34.3088],[135.097793,34.307966],[135.097568,34.307808],[135.097268,34.307783],[135.097018,34.307983],[135.095493,34.309641],[135.095018,34.310291],[135.094456,34.310849],[135.093643,34.311549],[135.093493,34.311749],[135.093693,34.311882],[135.094093,34.312357],[135.094368,34.312857],[135.094318,34.312974],[135.094556,34.313332],[135.094756,34.313474],[135.094756,34.31354],[135.094531,34.31394],[135.094331,34.31419],[135.093906,34.314324],[135.093818,34.314615],[135.093743,34.314682],[135.093468,34.314857],[135.093418,34.31499],[135.093668,34.315332],[135.093793,34.315424],[135.094043,34.315474],[135.094193,34.315474],[135.094493,34.315299],[135.095193,34.315049],[135.096005,34.31449],[135.09628,34.314382],[135.09698,34.314249],[135.09758,34.314441],[135.09798,34.314466],[135.09833,34.314491],[135.09858,34.314624],[135.099005,34.31499],[135.09933,34.315124],[135.09948,34.315282],[135.099505,34.31569],[135.099468,34.31614],[135.099568,34.316365],[135.099718,34.316615],[135.100343,34.31714],[135.100568,34.31739],[135.10113,34.317957],[135.10133,34.318249],[135.101405,34.318457],[135.101405,34.318815],[135.10148,34.31909],[135.101743,34.319473],[135.101968,34.319673],[135.102343,34.319857],[135.103668,34.32014],[135.104367,34.320348],[135.105142,34.320532],[135.105567,34.320557],[135.105855,34.32049],[135.10608,34.320498],[135.106555,34.320698],[135.10683,34.320773],[135.107142,34.320907],[135.107492,34.321207],[135.108717,34.321532],[135.109217,34.321623],[135.110117,34.32174],[135.11203,34.321957],[135.112305,34.32194],[135.112605,34.321782],[135.11283,34.32174],[135.113454,34.321807],[135.113679,34.321898],[135.113679,34.321948],[135.113829,34.322107],[135.114204,34.32229],[135.114979,34.322448],[135.115329,34.32259],[135.115679,34.322682],[135.116304,34.322665],[135.116579,34.322598],[135.117004,34.32244],[135.117167,34.32229],[135.117342,34.322065],[135.117492,34.321948],[135.117817,34.321682],[135.117792,34.32159],[135.117817,34.321482],[135.117967,34.321498],[135.118317,34.321215],[135.118454,34.321165],[135.118704,34.321165],[135.118954,34.32124],[135.119479,34.321515],[135.120092,34.32174],[135.119917,34.322148],[135.119792,34.322532],[135.120217,34.322757],[135.120592,34.322807],[135.120742,34.322648],[135.121304,34.321957],[135.121429,34.321615],[135.121404,34.321524],[135.121204,34.321415],[135.122067,34.320107],[135.122216,34.319986],[135.122654,34.319957],[135.122854,34.320049],[135.122929,34.320182],[135.122954,34.32039],[135.122904,34.320565],[135.122579,34.320957],[135.122329,34.321182],[135.122216,34.321161],[135.122179,34.32119],[135.122004,34.321324],[135.121779,34.32164],[135.121567,34.322407],[135.121592,34.322498],[135.121742,34.322657],[135.121567,34.322948],[135.121517,34.323423],[135.121554,34.323648],[135.121229,34.323715],[135.121754,34.32399],[135.122179,34.324148],[135.122216,34.324261],[135.122354,34.324273],[135.122541,34.324482],[135.122704,34.324548],[135.123391,34.324682],[135.124041,34.325156],[135.124504,34.325406],[135.124829,34.325481],[135.125404,34.32539],[135.125779,34.325206],[135.126329,34.324848],[135.126466,34.32469],[135.126329,34.324557],[135.126629,34.32444],[135.126791,34.324573],[135.127341,34.324148],[135.130741,34.326073],[135.133228,34.323115],[135.130154,34.321399],[135.129991,34.321032],[135.130041,34.32099],[135.130129,34.32099],[135.130366,34.320782],[135.130154,34.320674],[135.130341,34.320465],[135.130616,34.320449],[135.134103,34.319074],[135.134328,34.319391],[135.135278,34.318982],[135.139178,34.318716],[135.139416,34.318832],[135.140103,34.317699],[135.141516,34.318341],[135.14154,34.318724],[135.14214,34.318907],[135.14214,34.319541],[135.142715,34.319674],[135.142965,34.319199],[135.14329,34.319291],[135.14334,34.319249],[135.143528,34.319474],[135.14369,34.319741],[135.143778,34.320124],[135.143253,34.320982],[135.143828,34.321149],[135.143803,34.321257],[135.144753,34.321557],[135.144815,34.321624],[135.145115,34.321732],[135.145328,34.321782],[135.145303,34.322165],[135.145628,34.32214],[135.146065,34.32219],[135.14764,34.322915],[135.147828,34.322757],[135.148128,34.322874],[135.148653,34.323549],[135.148703,34.323707],[135.14854,34.324224],[135.148728,34.324474],[135.149253,34.325449],[135.149215,34.325673],[135.149115,34.325765],[135.149078,34.326082],[135.149765,34.327007],[135.15014,34.327348],[135.150227,34.327373],[135.150415,34.327732],[135.150627,34.328048],[135.150927,34.328298],[135.151315,34.328532],[135.151502,34.329006],[135.151802,34.32934],[135.15254,34.329906],[135.152702,34.330156],[135.152977,34.330906],[135.153277,34.33124],[135.153677,34.331406],[135.154115,34.331515],[135.15464,34.331498],[135.155802,34.331565],[135.156765,34.331881],[135.157202,34.331931],[135.157502,34.331865],[135.157689,34.331681],[135.158102,34.33159],[135.159052,34.33159],[135.159377,34.331231],[135.160764,34.331098],[135.161589,34.331231],[135.161889,34.331256],[135.162127,34.33119],[135.162377,34.33119],[135.163739,34.331398],[135.164089,34.331715],[135.164289,34.331781],[135.164689,34.332006],[135.164914,34.332256],[135.165264,34.332373],[135.165814,34.332873],[135.165914,34.33289],[135.166214,34.333048],[135.166351,34.333273],[135.166626,34.333456],[135.166876,34.333548],[135.167364,34.334156],[135.167689,34.334323],[135.167964,34.334548],[135.168151,34.334814],[135.168364,34.334973],[135.168526,34.335289],[135.169026,34.335523],[135.169651,34.335539],[135.170114,34.335631],[135.169951,34.335339],[135.170364,34.335073],[135.170951,34.335089],[135.172289,34.335889],[135.172489,34.335839],[135.172914,34.336206],[135.172701,34.336364],[135.173351,34.336473],[135.173488,34.336564],[135.173426,34.336623],[135.173801,34.336973],[135.174051,34.336998],[135.174838,34.337289],[135.174813,34.337331],[135.175438,34.337648],[135.175788,34.337714],[135.176151,34.337714],[135.176451,34.337898],[135.176776,34.337648],[135.176588,34.337514],[135.176851,34.337314],[135.177051,34.337423],[135.177726,34.336931],[135.178301,34.336656],[135.178263,34.336623],[135.178638,34.336556],[135.182763,34.336198],[135.183188,34.336515],[135.184175,34.336423],[135.184775,34.336448],[135.185838,34.336381],[135.186275,34.336381],[135.186925,34.336473],[135.186925,34.336315],[135.18905,34.33654],[135.189063,34.336623],[135.189125,34.336831],[135.190987,34.336981],[135.190987,34.337156],[135.191225,34.337123],[135.191237,34.337223],[135.191362,34.337231],[135.191312,34.337373],[135.191412,34.337406],[135.191225,34.337856],[135.191487,34.337948],[135.1916,34.337606],[135.192762,34.337815],[135.192862,34.337356],[135.193175,34.337381],[135.193225,34.337165],[135.192562,34.337065],[135.192587,34.336623],[135.192725,34.336181],[135.194012,34.336465],[135.194125,34.336506],[135.1942,34.336556],[135.194162,34.336623],[135.194162,34.336648],[135.194762,34.336873],[135.195662,34.337123],[135.196537,34.337573],[135.197075,34.337906],[135.196587,34.338481],[135.195762,34.338098],[135.195625,34.338265],[135.1962,34.338581],[135.195962,34.338898],[135.196175,34.339098],[135.196375,34.338931],[135.1965,34.338998],[135.197187,34.339298],[135.197612,34.339481],[135.1979,34.339689],[135.198087,34.339864],[135.198199,34.339798],[135.198362,34.339814],[135.198449,34.339898],[135.198512,34.340056],[135.198524,34.340239],[135.198599,34.340256],[135.198837,34.340381],[135.199074,34.340564],[135.199249,34.340764],[135.199399,34.340906],[135.199699,34.341023],[135.199887,34.341131],[135.200074,34.341314],[135.200199,34.341473],[135.200399,34.341697],[135.200687,34.341889],[135.201137,34.342064],[135.201737,34.342122],[135.201949,34.342164],[135.202212,34.342314],[135.202374,34.342439],[135.202524,34.342572],[135.202724,34.342747],[135.202924,34.342314],[135.203699,34.340923],[135.204024,34.341106],[135.204349,34.341448],[135.204674,34.341598],[135.204899,34.341806],[135.205611,34.342281],[135.205574,34.342589],[135.205661,34.342747],[135.205774,34.342797],[135.205911,34.342797],[135.206336,34.342522],[135.206424,34.342456],[135.206536,34.342281],[135.206561,34.342231],[135.206774,34.342297],[135.207349,34.342681],[135.207399,34.342681],[135.207349,34.342839],[135.206836,34.342814],[135.206636,34.343114],[135.206861,34.343131],[135.206861,34.343247],[135.207786,34.343447],[135.207898,34.343022],[135.208223,34.343064],[135.209561,34.343514],[135.210048,34.343606],[135.210998,34.343606],[135.212248,34.343739],[135.212873,34.343847],[135.213498,34.343897],[135.21386,34.343872],[135.21516,34.343964],[135.215848,34.344031],[135.216223,34.344056],[135.216448,34.344164],[135.216848,34.344281],[135.21731,34.344347],[135.217772,34.344456],[135.21816,34.344681],[135.218622,34.345039],[135.219085,34.345339],[135.220285,34.345831],[135.220797,34.346097],[135.22146,34.346556],[135.222434,34.347022],[135.223447,34.347697],[135.223747,34.347855],[135.223859,34.348105],[135.224184,34.348305],[135.224284,34.348514],[135.224422,34.348672],[135.224809,34.34878],[135.225222,34.349055],[135.225184,34.349255],[135.225384,34.349414],[135.225709,34.349522],[135.225784,34.349772],[135.226009,34.349972],[135.226334,34.350197],[135.226584,34.350563],[135.226796,34.350788],[135.227071,34.350947],[135.228321,34.352655],[135.228459,34.352813],[135.228571,34.352838],[135.228821,34.352972],[135.229009,34.353288],[135.229284,34.353355],[135.229334,34.353646],[135.229659,34.353871],[135.229859,34.354146],[135.230158,34.354821],[135.230533,34.35518],[135.230833,34.355563],[135.230858,34.355496],[135.230971,34.35543],[135.232446,34.357571],[135.232171,34.357704],[135.232446,34.357954],[135.232833,34.358038],[135.233071,34.358404],[135.232971,34.358579],[135.233346,34.359013],[135.233533,34.359304],[135.233621,34.359529],[135.233871,34.359621],[135.23422,34.359821],[135.23392,34.360046],[135.234245,34.360271],[135.234545,34.360746],[135.234733,34.360812],[135.234958,34.361104],[135.235608,34.361329],[135.235908,34.361754],[135.236045,34.361896],[135.236133,34.362121],[135.23717,34.363154],[135.239157,34.365004],[135.240045,34.365737],[135.23977,34.365995],[135.240882,34.366945],[135.240732,34.367162],[135.241032,34.367395],[135.24167,34.366937],[135.241882,34.367095],[135.242182,34.367054],[135.242507,34.366462],[135.243019,34.366687],[135.242782,34.367137],[135.24167,34.367862],[135.242757,34.36847],[135.243032,34.368878],[135.243219,34.369012],[135.243494,34.369345],[135.243769,34.369712],[135.244394,34.370362],[135.245244,34.371261],[135.245344,34.371486],[135.245344,34.371803],[135.245569,34.371986],[135.245919,34.372053],[135.246407,34.372636],[135.246581,34.37302],[135.246794,34.373336],[135.246881,34.373361],[135.247119,34.373745],[135.247181,34.373894],[135.247203,34.373775],[135.247319,34.373836],[135.247581,34.374194],[135.247203,34.374833],[135.247394,34.375044],[135.247744,34.375186],[135.248044,34.375319],[135.248256,34.375436],[135.248406,34.375603],[135.248519,34.375753],[135.248606,34.375953],[135.248706,34.376244],[135.248681,34.376469],[135.248669,34.376661],[135.248594,34.376744],[135.248456,34.376803],[135.248244,34.376811],[135.248044,34.376836],[135.248369,34.377219],[135.248806,34.376844],[135.248894,34.376836],[135.249194,34.376836],[135.249706,34.376886],[135.249981,34.376961],[135.250181,34.376986],[135.250306,34.376969],[135.250481,34.377003],[135.250569,34.377011],[135.250806,34.376903],[135.251281,34.376803],[135.251931,34.377028],[135.252468,34.376919],[135.253181,34.376786],[135.254331,34.375844],[135.254618,34.376061],[135.252643,34.377469],[135.252443,34.377353],[135.252293,34.377536],[135.25708,34.381727],[135.257455,34.381519],[135.258268,34.382294],[135.25843,34.38206],[135.257368,34.38126],[135.257268,34.381285],[135.256943,34.380994],[135.257668,34.380494],[135.258543,34.381311],[135.258405,34.381394],[135.258605,34.381552],[135.258755,34.38141],[135.259655,34.38226],[135.259693,34.382135],[135.258805,34.381452],[135.258905,34.381244],[135.259168,34.381111],[135.25953,34.380861],[135.25973,34.380769],[135.260043,34.380711],[135.260455,34.380661],[135.260805,34.380602],[135.261142,34.380527],[135.26138,34.380452],[135.261492,34.380486],[135.26173,34.380502],[135.262055,34.380519],[135.262342,34.380519],[135.262642,34.380561],[135.262905,34.380594],[135.262905,34.381586],[135.263105,34.381552],[135.263092,34.380361],[135.272966,34.389135],[135.272129,34.389893],[135.274129,34.391668],[135.274404,34.391526],[135.274354,34.391385],[135.274129,34.391401],[135.274041,34.391401],[135.272804,34.390218],[135.273604,34.389785],[135.273641,34.38971],[135.274791,34.390693],[135.275254,34.390368],[135.275254,34.390293],[135.276603,34.391735],[135.276616,34.391793],[135.276603,34.391876],[135.276553,34.391976],[135.276366,34.392076],[135.276316,34.392176],[135.276391,34.392235],[135.276566,34.392493],[135.276766,34.392751],[135.276891,34.392768],[135.277016,34.392935],[135.277041,34.393001],[135.277141,34.393026],[135.277428,34.393076],[135.277641,34.393243],[135.277766,34.393335],[135.277853,34.393226],[135.277953,34.393043],[135.278016,34.39296],[135.278103,34.393035],[135.278241,34.393151],[135.278316,34.393226],[135.278416,34.393235],[135.278378,34.393326],[135.278253,34.393418],[135.278028,34.39346],[135.277778,34.393459],[135.277553,34.393418],[135.277341,34.393409],[135.277491,34.393684],[135.277628,34.393684],[135.277816,34.393659],[135.278103,34.393618],[135.278466,34.393593],[135.278766,34.393618],[135.278891,34.393643],[135.278991,34.393635],[135.279628,34.393976],[135.279128,34.395709],[135.279091,34.395809],[135.279353,34.395834],[135.279528,34.394984],[135.279841,34.395318],[135.28339,34.398409],[135.284328,34.397951],[135.286303,34.399826],[135.285828,34.400217],[135.285928,34.400575],[135.28609,34.4005],[135.28604,34.400309],[135.286028,34.400242],[135.286253,34.400109],[135.286865,34.400717],[135.28634,34.401167],[135.289052,34.403542],[135.293102,34.407033],[135.293565,34.414107],[135.294265,34.414757],[135.294727,34.415124],[135.302377,34.415882],[135.306639,34.41954],[135.309726,34.417132],[135.311289,34.418382],[135.311314,34.41844],[135.311326,34.418423],[135.311739,34.41809],[135.313926,34.419948],[135.314038,34.42014],[135.313276,34.420998],[135.314838,34.42224],[135.314938,34.422156],[135.313576,34.421032],[135.314188,34.420332],[135.315988,34.421873],[135.316163,34.421723],[135.315551,34.42104],[135.316088,34.420323],[135.316863,34.42074],[135.317038,34.420415],[135.315938,34.419948],[135.316013,34.419798],[135.316701,34.418765],[135.316838,34.41884],[135.318513,34.419632],[135.318088,34.419948],[135.317851,34.420265],[135.318026,34.420257],[135.318363,34.420457],[135.317138,34.421807],[135.317563,34.422006],[135.318451,34.420773],[135.318576,34.42084],[135.319213,34.420082],[135.319663,34.42039],[135.319225,34.421098],[135.319513,34.421165],[135.319388,34.421348],[135.319875,34.421557],[135.319888,34.421882],[135.319675,34.421782],[135.319188,34.421973],[135.318913,34.421757],[135.31855,34.42224],[135.319638,34.421898],[135.321663,34.421865],[135.322575,34.422365],[135.32235,34.422507],[135.319613,34.422665],[135.313701,34.426581],[135.317813,34.430772],[135.3185,34.430789],[135.32285,34.427923],[135.322762,34.427789],[135.32285,34.427739],[135.322225,34.427048],[135.322062,34.427131],[135.3208,34.425764],[135.32285,34.424431],[135.328324,34.429897],[135.326224,34.431256],[135.325162,34.430197],[135.321112,34.432955],[135.325037,34.43698],[135.331099,34.432714],[135.331236,34.432831],[135.331374,34.432989],[135.331636,34.433122],[135.332649,34.433772],[135.333299,34.434322],[135.333661,34.434764],[135.333711,34.43483],[135.333873,34.435055],[135.333948,34.435139],[135.334086,34.435664],[135.334123,34.43588],[135.334186,34.436139],[135.334311,34.436414],[135.334373,34.436539],[135.334536,34.436739],[135.334698,34.436955],[135.334886,34.437197],[135.335148,34.437472],[135.335361,34.43773],[135.335511,34.43793],[135.335486,34.438222],[135.335336,34.438413],[135.335148,34.43853],[135.335048,34.438638],[135.334998,34.438755],[135.334911,34.439105],[135.334911,34.439255],[135.334986,34.439563],[135.335136,34.43973],[135.335211,34.43983],[135.335361,34.44003],[135.335498,34.44033],[135.335523,34.440388],[135.335636,34.440721],[135.335636,34.440788],[135.335673,34.440946],[135.335748,34.441063],[135.335786,34.44113],[135.335886,34.44123],[135.336061,34.441388],[135.336136,34.441455],[135.336161,34.44158],[135.337435,34.441171],[135.337473,34.441813],[135.33791,34.44193],[135.338235,34.442088],[135.338323,34.442405],[135.338585,34.442738],[135.33866,34.442805],[135.336535,34.444321],[135.33731,34.445904],[135.343635,34.450012],[135.346472,34.448071],[135.350334,34.451879],[135.352083,34.45797],[135.353496,34.45722],[135.351884,34.451879],[135.353521,34.450887],[135.356921,34.455054],[135.356171,34.455453],[135.35972,34.459928],[135.360908,34.461486],[135.35912,34.462486],[135.358408,34.461653],[135.357795,34.460936],[135.353996,34.462994],[135.356383,34.464294],[135.36277,34.472277],[135.364107,34.470668],[135.362357,34.46851],[135.363257,34.467852],[135.362245,34.466594],[135.363607,34.465827],[135.365545,34.468144],[135.366632,34.468052],[135.367044,34.467736],[135.367419,34.467644],[135.367994,34.467694],[135.369432,34.466611],[135.369082,34.465977],[135.370732,34.465136],[135.371369,34.465769],[135.370819,34.466652],[135.370219,34.466761],[135.369657,34.467077],[135.370519,34.468227],[135.372019,34.467369],[135.372189,34.467558],[135.372294,34.467544],[135.372544,34.467836],[135.372294,34.467969],[135.372189,34.467917],[135.371619,34.468277],[135.372189,34.468892],[135.372294,34.468902],[135.372919,34.469669],[135.372319,34.470052],[135.372189,34.470025],[135.371344,34.47051],[135.372106,34.471652],[135.371156,34.471952],[135.368482,34.471385],[135.366682,34.470402],[135.366444,34.47076],[135.366469,34.471185],[135.366657,34.471327],[135.366794,34.471143],[135.367582,34.471568],[135.367557,34.471702],[135.367807,34.471952],[135.367157,34.472785],[135.367319,34.47301],[135.363782,34.477659],[135.366132,34.480751],[135.371106,34.478109],[135.372189,34.477299],[135.373456,34.476501],[135.374319,34.475868],[135.374481,34.475801],[135.373781,34.475093],[135.373531,34.474752],[135.374044,34.474368],[135.375144,34.473785],[135.375094,34.473585],[135.375869,34.473243],[135.376681,34.474852],[135.376856,34.474893],[135.377093,34.475443],[135.376956,34.475485],[135.376181,34.476185],[135.376318,34.476501],[135.376981,34.478693],[135.376843,34.478743],[135.375156,34.479668],[135.375131,34.479851],[135.375593,34.481342],[135.376143,34.482742],[135.376581,34.484142],[135.377206,34.4858],[135.377406,34.4865],[135.377043,34.486659],[135.372189,34.489214],[135.370231,34.490283],[135.372188,34.493947],[135.372331,34.493908],[135.372556,34.494383],[135.372331,34.494499],[135.372188,34.494464],[135.370856,34.495541],[135.370844,34.500474],[135.370819,34.502707],[135.371144,34.503273],[135.371356,34.503523],[135.371269,34.503556],[135.372188,34.504896],[135.372256,34.50499],[135.373831,34.507273],[135.376481,34.508839],[135.382705,34.516489],[135.384455,34.518855],[135.385917,34.517413],[135.384705,34.51568],[135.381843,34.511739],[135.384155,34.509956],[135.387592,34.514431],[135.389742,34.512947],[135.38633,34.508298],[135.390079,34.505565],[135.392304,34.50769],[135.390292,34.509314],[135.392604,34.512323],[135.394366,34.511048],[135.394241,34.510931],[135.394142,34.510823],[135.394004,34.510673],[135.393854,34.510489],[135.393729,34.510356],[135.393667,34.510231],[135.393579,34.510089],[135.393492,34.509906],[135.393417,34.509764],[135.393342,34.509581],[135.393304,34.509465],[135.393267,34.509306],[135.393242,34.509073],[135.393217,34.50884],[135.393229,34.508573],[135.393242,34.508331],[135.393292,34.50804],[135.393354,34.507881],[135.395204,34.507765],[135.395629,34.506523],[135.396779,34.506932],[135.396554,34.507765],[135.397904,34.508248],[135.398379,34.507723],[135.398179,34.507631],[135.398341,34.507482],[135.398729,34.507681],[135.398841,34.507615],[135.399029,34.507656],[135.398979,34.507748],[135.399666,34.508015],[135.398754,34.509106],[135.400353,34.509623],[135.401353,34.50804],[135.401778,34.50814],[135.401903,34.507998],[135.402141,34.508106],[135.402303,34.50779],[135.403216,34.508181],[135.397504,34.513722],[135.397316,34.514197],[135.398379,34.514647],[135.398216,34.515214],[135.399316,34.515739],[135.399291,34.515847],[135.400528,34.51633],[135.400391,34.516597],[135.401053,34.51678],[135.401978,34.518522],[135.403253,34.517347],[135.401328,34.514147],[135.402541,34.512956],[135.40439,34.516172],[135.405603,34.514997],[135.403766,34.511798],[135.405653,34.509965],[135.410252,34.513189],[135.406415,34.516897],[135.410327,34.522963],[135.418702,34.519172],[135.418839,34.51933],[135.419026,34.519647],[135.42975,34.530404],[135.429813,34.529888],[135.430363,34.529571],[135.430663,34.530004],[135.43085,34.530071],[135.4311,34.530429],[135.43135,34.530479],[135.431563,34.530654],[135.432063,34.531313],[135.432113,34.531454],[135.4317,34.531654],[135.432013,34.532096],[135.431813,34.532196],[135.437662,34.541045],[135.442261,34.548511],[135.442399,34.548811],[135.442499,34.549344],[135.442561,34.550186],[135.442524,34.550452],[135.443824,34.551144],[135.444074,34.551885],[135.444099,34.552402],[135.443461,34.55256],[135.443961,34.553852],[135.443261,34.55401],[135.443324,34.554194],[135.443736,34.554127],[135.443961,34.554802],[135.444424,34.554752],[135.444674,34.55566],[135.444999,34.555568],[135.445086,34.556202],[135.445386,34.556135],[135.445661,34.556935],[135.439699,34.558485],[135.439624,34.558343],[135.438262,34.558676],[135.437624,34.558793],[135.437724,34.55901],[135.437224,34.559093],[135.436012,34.559451],[135.432874,34.560326],[135.432724,34.560051],[135.43145,34.560443],[135.431575,34.560668],[135.42245,34.560717],[135.422425,34.560417],[135.421925,34.560417],[135.4219,34.560701],[135.410439,34.560684],[135.404776,34.586489],[135.404801,34.586597],[135.402101,34.599871],[135.402151,34.600054],[135.402276,34.600121],[135.402476,34.600146],[135.403089,34.599904],[135.415613,34.593947],[135.415788,34.59383],[135.4173,34.586598],[135.42025,34.572583],[135.42075,34.572649],[135.420938,34.571633],[135.4205,34.571591],[135.420475,34.571566],[135.420588,34.571116],[135.42105,34.571133],[135.421188,34.570416],[135.42075,34.570325],[135.420863,34.56965],[135.429437,34.570683],[135.427649,34.581107],[135.42735,34.581065],[135.427175,34.58224],[135.427399,34.58224],[135.427037,34.584748],[135.426687,34.584723],[135.426462,34.586239],[135.426287,34.586239],[135.426262,34.586506],[135.42635,34.586598],[135.426249,34.587439],[135.426262,34.587748],[135.426412,34.587823],[135.426387,34.588314],[135.426199,34.589106],[135.426149,34.589464],[135.426174,34.589756],[135.426549,34.589647],[135.427624,34.589206],[135.427787,34.589114],[135.428412,34.588898],[135.429187,34.588581],[135.430674,34.587989],[135.431349,34.587764],[135.432911,34.587098],[135.433586,34.586831],[135.433636,34.586765],[135.433761,34.586748],[135.433649,34.586598],[135.434174,34.586381],[135.434461,34.584598],[135.434099,34.584573],[135.434374,34.582607],[135.441536,34.582915],[135.443423,34.576224],[135.443211,34.576208],[135.443348,34.576091],[135.444673,34.568817],[135.444598,34.568834],[135.444623,34.5687],[135.444498,34.568675],[135.444536,34.568184],[135.444673,34.568184],[135.444711,34.567842],[135.444598,34.5678],[135.444661,34.567325],[135.444798,34.567325],[135.444798,34.567217],[135.444948,34.567192],[135.444986,34.567034],[135.446223,34.566675],[135.446448,34.566759],[135.447185,34.566517],[135.447135,34.566359],[135.447598,34.566242],[135.447685,34.566376],[135.448648,34.566076],[135.448573,34.565926],[135.452398,34.564917],[135.45276,34.565526],[135.45296,34.565459],[135.453035,34.565667],[135.452872,34.565751],[135.453297,34.566409],[135.449348,34.567892],[135.450785,34.572258],[135.450522,34.572417],[135.451397,34.575108],[135.451535,34.575083],[135.45161,34.575333],[135.451722,34.575333],[135.45181,34.575508],[135.45266,34.575966],[135.455472,34.575858],[135.455372,34.574233],[135.455497,34.574208],[135.455409,34.573625],[135.456634,34.572667],[135.457109,34.573242],[135.456972,34.573308],[135.457459,34.573875],[135.457572,34.575658],[135.456634,34.576083],[135.456597,34.576425],[135.452747,34.576508],[135.451997,34.576941],[135.450722,34.581091],[135.45056,34.581091],[135.450535,34.581316],[135.450635,34.581341],[135.45001,34.583399],[135.450172,34.583665],[135.45036,34.583624],[135.450447,34.583807],[135.45191,34.583374],[135.451822,34.583124],[135.453297,34.582657],[135.453422,34.582765],[135.454059,34.582591],[135.454947,34.582616],[135.454959,34.582566],[135.455722,34.582482],[135.455709,34.582641],[135.455934,34.582657],[135.455947,34.582499],[135.456347,34.582482],[135.456384,34.582657],[135.456434,34.582682],[135.457122,34.582657],[135.457097,34.582524],[135.457247,34.582524],[135.458884,34.583566],[135.462409,34.582799],[135.463134,34.581449],[135.463896,34.581333],[135.464346,34.581408],[135.464746,34.581616],[135.465471,34.582199],[135.465771,34.582649],[135.465733,34.583532],[135.465721,34.583782],[135.466271,34.584641],[135.465083,34.584891],[135.464946,34.585024],[135.464446,34.585066],[135.464071,34.585066],[135.463734,34.584949],[135.463346,34.584632],[135.463271,34.584382],[135.463571,34.583641],[135.463759,34.583457],[135.464346,34.583324],[135.464258,34.583057],[135.45061,34.586557],[135.45061,34.586598],[135.450447,34.586682],[135.450097,34.586748],[135.449547,34.586907],[135.449222,34.58704],[135.44946,34.587465],[135.449735,34.587648],[135.450285,34.588132],[135.450535,34.588398],[135.450885,34.588648],[135.451097,34.588948],[135.451497,34.58929],[135.451622,34.589423],[135.452022,34.589765],[135.452422,34.590148],[135.452672,34.590106],[135.453547,34.589798],[135.455509,34.589315],[135.458396,34.588573],[135.459171,34.588415],[135.460534,34.587998],[135.460659,34.587998],[135.460684,34.587932],[135.460659,34.587749],[135.462384,34.587449],[135.462459,34.587424],[135.462784,34.58804],[135.462809,34.588149],[135.462734,34.588598],[135.462721,34.589098],[135.462746,34.589482],[135.462634,34.590673],[135.462621,34.591532],[135.462271,34.59169],[135.460946,34.592065],[135.460871,34.592148],[135.460884,34.592581],[135.460934,34.592715],[135.460734,34.592806],[135.460659,34.59294],[135.460596,34.594831],[135.459771,34.594873],[135.459746,34.594673],[135.459821,34.593923],[135.459946,34.591448],[135.459921,34.590923],[135.460009,34.590698],[135.459934,34.590698],[135.459084,34.59004],[135.459034,34.590015],[135.451797,34.591973],[135.451722,34.591931],[135.45061,34.591556],[135.449435,34.591073],[135.44711,34.590273],[135.44466,34.589573],[135.44401,34.589323],[135.44391,34.589481],[135.443785,34.589615],[135.443348,34.590448],[135.437723,34.58874],[135.425612,34.593455],[135.423549,34.605121],[135.431011,34.602963],[135.431411,34.603104],[135.432236,34.602904],[135.432361,34.602838],[135.433374,34.602513],[135.433549,34.602446],[135.433624,34.602446],[135.433924,34.602805],[135.434123,34.602671],[135.433899,34.60238],[135.433924,34.602263],[135.433461,34.601046],[135.433361,34.600905],[135.439061,34.59928],[135.439136,34.599413],[135.44476,34.597697],[135.444835,34.598014],[135.44501,34.598105],[135.44496,34.598172],[135.444985,34.598355],[135.445298,34.598964],[135.445398,34.598989],[135.445473,34.598897],[135.445285,34.598514],[135.44526,34.59838],[135.445385,34.598355],[135.445623,34.598872],[135.445673,34.598989],[135.445573,34.599105],[135.446022,34.59998],[135.44636,34.60073],[135.446485,34.600797],[135.446585,34.601163],[135.44646,34.601547],[135.446547,34.60193],[135.437011,34.604838],[135.437598,34.606129],[135.437498,34.608221],[135.438948,34.608212],[135.44001,34.608262],[135.441035,34.608296],[135.44251,34.608304],[135.44451,34.608363],[135.446572,34.608404],[135.446872,34.608379],[135.448047,34.608004],[135.450109,34.607455],[135.450759,34.60733],[135.451872,34.607038],[135.457671,34.605347],[135.457896,34.605255],[135.459346,34.604905],[135.463796,34.603514],[135.466783,34.602681],[135.469145,34.601981],[135.471108,34.601289],[135.471608,34.601073],[135.47297,34.600381],[135.475032,34.599406],[135.475607,34.599248],[135.478295,34.598231],[135.481844,34.597081],[135.484357,34.596515],[135.486231,34.596148],[135.487031,34.59604],[135.487131,34.596065],[135.487281,34.595998],[135.487781,34.595932],[135.488019,34.595865],[135.488719,34.595782],[135.490094,34.595523],[135.490968,34.595323],[135.491606,34.595098],[135.492331,34.594973],[135.493831,34.594798],[135.494381,34.59469],[135.495318,34.594298],[135.495843,34.594007],[135.49668,34.593382],[135.497155,34.592907],[135.497174,34.592897],[135.497305,34.592749],[135.49758,34.592207],[135.49793,34.591215],[135.498343,34.589757],[135.498843,34.588791],[135.49988,34.587349],[135.501018,34.586599],[135.501205,34.586533],[135.502055,34.586208],[135.502893,34.586191],[135.503892,34.586283],[135.505542,34.586516],[135.505817,34.586591],[135.505855,34.586599],[135.505905,34.586633],[135.506017,34.586633],[135.506692,34.586958],[135.507367,34.587466],[135.50813,34.587857],[135.512292,34.589582],[135.512967,34.589949],[135.515141,34.590699],[135.516254,34.591282],[135.517416,34.59204],[135.518603,34.59289],[135.519366,34.59324],[135.521566,34.594165],[135.521616,34.593924],[135.521841,34.593515],[135.522428,34.592799],[135.522628,34.592507],[135.522553,34.590224],[135.522616,34.589907],[135.521028,34.589866],[135.520953,34.589341],[135.521091,34.588283],[135.521153,34.587466],[135.522441,34.587258],[135.522691,34.587191],[135.522728,34.586716],[135.522703,34.586599],[135.522741,34.586183],[135.522766,34.585683],[135.522516,34.585658],[135.522291,34.585608],[135.522353,34.583941],[135.522316,34.580408],[135.522378,34.579817],[135.522391,34.577809],[135.522441,34.577092],[135.522429,34.576659],[135.524253,34.576651],[135.526666,34.576759],[135.529528,34.576709],[135.531353,34.576717],[135.531878,34.576676],[135.53184,34.576159],[135.531915,34.575393],[135.531765,34.575168],[135.531603,34.574668],[135.531328,34.574601],[135.531153,34.574418],[135.531153,34.574351],[135.531653,34.574284],[135.53174,34.573768],[135.531853,34.573751],[135.532078,34.573568],[135.532165,34.572976],[135.532165,34.572593],[135.532215,34.57251],[135.533178,34.571835],[135.533603,34.571618],[135.534003,34.571726],[135.534253,34.571868],[135.534928,34.571826],[135.535627,34.571693],[135.535615,34.571243],[135.535628,34.569818],[135.535228,34.569685],[135.535578,34.569443],[135.535977,34.569285],[135.535965,34.568768],[135.535803,34.567677],[135.535828,34.567594],[135.536427,34.567544],[135.536902,34.567577],[135.536952,34.567469],[135.537015,34.567035],[135.537015,34.566519],[135.536965,34.56616],[135.537015,34.56571],[135.537115,34.565727],[135.53779,34.565669],[135.539652,34.565627],[135.540452,34.56566],[135.541702,34.565777],[135.541902,34.565835],[135.542677,34.565835],[135.544214,34.565727],[135.545139,34.565694],[135.546014,34.565835],[135.547989,34.56596],[135.548214,34.565927],[135.548476,34.565602],[135.548801,34.565419],[135.549001,34.565111],[135.549214,34.564894],[135.548514,34.564369],[135.548189,34.564161],[135.548039,34.564136],[135.547914,34.563577],[135.547777,34.563219],[135.547739,34.562453],[135.547514,34.561944],[135.547677,34.561703],[135.547814,34.561611],[135.547964,34.561544],[135.548327,34.561486],[135.548914,34.561219],[135.549239,34.560953],[135.549314,34.560711],[135.549289,34.560528],[135.549002,34.560119],[135.548502,34.559836],[135.548427,34.559803],[135.546702,34.559703],[135.546664,34.557761],[135.546627,34.55747],[135.546752,34.556378],[135.546814,34.554745],[135.546214,34.554695],[135.545727,34.554695],[135.545115,34.554645],[135.545215,34.555045],[135.54444,34.555087],[135.54439,34.554853],[135.54434,34.554795],[135.542765,34.554828],[135.542652,34.555053],[135.54254,34.55512],[135.542052,34.555028],[135.541977,34.55532],[135.541827,34.555295],[135.541777,34.555512],[135.541677,34.555612],[135.541052,34.555562],[135.540877,34.555445],[135.540915,34.554253],[135.541077,34.553195],[135.541527,34.553237],[135.54209,34.553195],[135.542052,34.55297],[135.54189,34.551437],[135.541527,34.551412],[135.541515,34.551112],[135.541402,34.550662],[135.541202,34.550354],[135.54099,34.549904],[135.540978,34.549679],[135.540653,34.549671],[135.540478,34.549829],[135.539578,34.549912],[135.539665,34.548921],[135.539615,34.548471],[135.539553,34.548379],[135.53929,34.548212],[135.53884,34.548146],[135.538565,34.547962],[135.538565,34.547729],[135.53939,34.547671],[135.539953,34.547654],[135.540078,34.547479],[135.540128,34.547163],[135.540128,34.546688],[135.540178,34.546563],[135.539665,34.546529],[135.539053,34.546588],[135.538528,34.546588],[135.53829,34.545813],[135.53834,34.545546],[135.53894,34.545579],[135.53904,34.545371],[135.539415,34.545438],[135.541165,34.545521],[135.541465,34.545571],[135.541578,34.544738],[135.541353,34.544688],[135.541365,34.544504],[135.541478,34.544171],[135.541628,34.54413],[135.54189,34.544105],[135.54189,34.543838],[135.54149,34.543813],[135.541465,34.543588],[135.54149,34.542905],[135.541553,34.542755],[135.54159,34.541488],[135.541665,34.540513],[135.541703,34.53943],[135.54184,34.538488],[135.541815,34.538372],[135.541915,34.537739],[135.541903,34.536772],[135.542128,34.533997],[135.54224,34.533347],[135.542253,34.532322],[135.542328,34.531406],[135.542315,34.530748],[135.542565,34.530681],[135.54364,34.530706],[135.543678,34.529898],[135.544053,34.529881],[135.545153,34.529889],[135.545253,34.529914],[135.545478,34.530381],[135.54574,34.530614],[135.546352,34.530689],[135.546865,34.530981],[135.547302,34.531148],[135.547777,34.531173],[135.548177,34.531039],[135.548752,34.531431],[135.549065,34.531514],[135.54929,34.531656],[135.549315,34.532356],[135.549515,34.532498],[135.54984,34.532564],[135.550515,34.532614],[135.550964,34.532531],[135.551364,34.532281],[135.551627,34.532023],[135.551777,34.531214],[135.551789,34.530906],[135.551852,34.530773],[135.552002,34.530548],[135.552089,34.530414],[135.552514,34.530456],[135.552989,34.530598],[135.553439,34.530198],[135.553364,34.530081],[135.553152,34.52974],[135.553277,34.528931],[135.553452,34.528798],[135.553602,34.528748],[135.554102,34.528781],[135.554927,34.528898],[135.555189,34.528106],[135.555164,34.527923],[135.555277,34.526782],[135.555052,34.526415],[135.554702,34.526073],[135.554677,34.525957],[135.554814,34.525648],[135.554739,34.525332],[135.554464,34.524965],[135.554452,34.524615],[135.554227,34.524357],[135.554177,34.52404],[135.554052,34.523724],[135.554264,34.523407],[135.554114,34.523049],[135.554064,34.522599],[135.554089,34.522282],[135.554027,34.521732],[135.553877,34.521374],[135.553527,34.521282],[135.553152,34.520691],[135.553189,34.520349],[135.553264,34.520032],[135.553239,34.519649],[135.553414,34.519541],[135.553464,34.519449],[135.554227,34.518757],[135.554952,34.518108],[135.554977,34.518066],[135.554339,34.517791],[135.553927,34.517716],[135.553452,34.517974],[135.552952,34.518024],[135.54914,34.517832],[135.54769,34.517699],[135.547478,34.517966],[135.54714,34.518274],[135.546603,34.518116],[135.54604,34.517749],[135.545378,34.517182],[135.544903,34.516682],[135.544778,34.516208],[135.544328,34.516024],[135.544103,34.516024],[135.543753,34.515883],[135.543703,34.515724],[135.54409,34.515041],[135.54409,34.514416],[135.543978,34.513849],[135.54409,34.512591],[135.54404,34.511958],[135.544053,34.511416],[135.543865,34.511458],[135.543478,34.511433],[135.543428,34.510508],[135.543366,34.51],[135.542991,34.51005],[135.542878,34.510108],[135.542316,34.511316],[135.542166,34.511825],[135.542191,34.512033],[135.541828,34.512075],[135.541128,34.51205],[135.541053,34.512025],[135.540841,34.511141],[135.540366,34.51145],[135.539053,34.512008],[135.537391,34.512899],[135.536741,34.513391],[135.535691,34.514358],[135.535266,34.514016],[135.535229,34.514582],[135.535029,34.514732],[135.533941,34.515191],[135.533866,34.515107],[135.533991,34.514566],[135.534679,34.513516],[135.534591,34.513216],[135.534491,34.513191],[135.534129,34.513399],[135.533779,34.513849],[135.533716,34.514141],[135.533754,34.514182],[135.533679,34.514416],[135.533429,34.514657],[135.533116,34.514791],[135.532866,34.514674],[135.532729,34.514674],[135.532791,34.514357],[135.532929,34.513974],[135.532729,34.513791],[135.533066,34.512874],[135.533354,34.511816],[135.533716,34.51075],[135.534104,34.508825],[135.534204,34.50845],[135.534391,34.508092],[135.535554,34.506225],[135.535991,34.505134],[135.536191,34.504742],[135.536316,34.5046],[135.537791,34.503559],[135.537941,34.503375],[135.537966,34.503276],[135.537816,34.503251],[135.538141,34.502959],[135.538504,34.502776],[135.538766,34.502642],[135.538904,34.502459],[135.539041,34.502034],[135.539316,34.501667],[135.539478,34.501534],[135.539641,34.501259],[135.539666,34.500926],[135.539891,34.500384],[135.540103,34.499659],[135.540191,34.498893],[135.540191,34.498534],[135.539916,34.497943],[135.539828,34.497243],[135.539641,34.496835],[135.539016,34.495935],[135.538716,34.495418],[135.538441,34.495168],[135.537491,34.494851],[135.537241,34.494627],[135.537191,34.49451],[135.537079,34.493877],[135.536916,34.493585],[135.536404,34.493468],[135.536054,34.49336],[135.535666,34.493152],[135.534604,34.49236],[135.534579,34.492135],[135.534604,34.492068],[135.534554,34.491777],[135.534392,34.49146],[135.534117,34.491185],[135.534117,34.49071],[135.534354,34.490102],[135.534392,34.489677],[135.534354,34.48931],[135.533929,34.488136],[135.533842,34.487819],[135.533842,34.487552],[135.534304,34.487036],[135.534742,34.486719],[135.535017,34.486627],[135.535617,34.486361],[135.535916,34.486086],[135.536079,34.485661],[135.536104,34.485278],[135.536079,34.485003],[135.535891,34.484728],[135.535916,34.484394],[135.536079,34.484119],[135.536079,34.483894],[135.535892,34.483669],[135.535804,34.483419],[135.536029,34.482386],[135.536054,34.48162],[135.536029,34.481411],[135.535892,34.481003],[135.535692,34.480778],[135.535529,34.480486],[135.535454,34.479853],[135.535529,34.479603],[135.536292,34.478887],[135.536454,34.478503],[135.536542,34.478162],[135.536729,34.477937],[135.536841,34.477737],[135.536754,34.47742],[135.536567,34.476945],[135.536792,34.476337],[135.536767,34.476037],[135.536467,34.475654],[135.536354,34.475245],[135.536467,34.474662],[135.536629,34.474304],[135.537142,34.473762],[135.537304,34.473396],[135.537329,34.473079],[135.537579,34.472379],[135.537766,34.472154],[135.537766,34.471837],[135.537991,34.471371],[135.537904,34.471121],[135.537929,34.470913],[135.538391,34.470688],[135.538616,34.470438],[135.538641,34.470196],[135.538529,34.469879],[135.538529,34.469604],[135.538666,34.469288],[135.539516,34.468746],[135.540791,34.46798],[135.541254,34.46758],[135.541316,34.467196],[135.541316,34.466813],[135.541391,34.466655],[135.541641,34.46658],[135.542154,34.466563],[135.542241,34.465972],[135.542291,34.465138],[135.542354,34.464913],[135.542979,34.464622],[135.543191,34.464463],[135.543766,34.46428],[135.544066,34.463855]]]}}]}