{"type":"FeatureCollection","features":[{"geometry":{"coordinates":[[[135.476675,34.994206],[135.4772,34.994231],[135.47795,34.99434],[135.47855,34.994523],[135.478875,34.994698],[135.479075,34.994923],[135.479262,34.995056],[135.479512,34.995081],[135.480774,34.99504],[135.481112,34.995173],[135.481499,34.995281],[135.481774,34.995306],[135.482124,34.995106],[135.482399,34.994723],[135.482624,34.994223],[135.482812,34.993115],[135.482887,34.992848],[135.484512,34.992598],[135.485124,34.992532],[135.486324,34.99264],[135.486911,34.992573],[135.487399,34.992307],[135.487761,34.991965],[135.488386,34.990948],[135.488499,34.990565],[135.488686,34.99034],[135.488886,34.990232],[135.488911,34.990074],[135.489074,34.990024],[135.489349,34.990049],[135.489674,34.989982],[135.490424,34.989549],[135.490724,34.989415],[135.491224,34.989324],[135.491799,34.989324],[135.492486,34.98939],[135.492786,34.989349],[135.493336,34.98894],[135.493523,34.98869],[135.493586,34.988374],[135.493411,34.988082],[135.493136,34.987765],[135.492236,34.987324],[135.491761,34.987115],[135.491049,34.986649],[135.490524,34.986441],[135.489724,34.986282],[135.488486,34.986107],[135.487937,34.985999],[135.487424,34.985791],[135.486424,34.985182],[135.485737,34.984349],[135.485137,34.983766],[135.483675,34.982533],[135.483512,34.982466],[135.483125,34.982174],[135.482987,34.981941],[135.483012,34.981833],[135.483537,34.981408],[135.4842,34.98095],[135.484337,34.980483],[135.484412,34.97915],[135.484437,34.978633],[135.484662,34.978541],[135.484962,34.978516],[135.485425,34.978341],[135.485587,34.978116],[135.485762,34.977592],[135.485787,34.977367],[135.485975,34.976875],[135.486274,34.976425],[135.487324,34.9757],[135.487462,34.975433],[135.487287,34.974842],[135.487074,34.9746],[135.486849,34.974417],[135.486737,34.974034],[135.486712,34.973584],[135.4868,34.972842],[135.486962,34.972634],[135.486962,34.972434],[135.48685,34.972142],[135.487262,34.971801],[135.487449,34.971534],[135.487562,34.970992],[135.4877,34.969934],[135.487675,34.969751],[135.4875,34.969418],[135.4875,34.969076],[135.488025,34.968109],[135.4883,34.967318],[135.488874,34.967434],[135.489287,34.967543],[135.489649,34.967726],[135.490112,34.968109],[135.490499,34.968309],[135.490962,34.968351],[135.491049,34.968268],[135.490749,34.967884],[135.490524,34.967676],[135.489999,34.967026],[135.489724,34.966826],[135.489399,34.96671],[135.489037,34.966668],[135.488925,34.966685],[135.488625,34.966668],[135.488462,34.966618],[135.488325,34.96601],[135.488075,34.965743],[135.487775,34.965493],[135.487525,34.965201],[135.487275,34.964727],[135.487025,34.964393],[135.4867,34.964127],[135.486287,34.963918],[135.4859,34.96381],[135.485712,34.963852],[135.48565,34.963902],[135.485575,34.964102],[135.485762,34.964527],[135.486562,34.965201],[135.487312,34.96631],[135.487362,34.966626],[135.487275,34.96676],[135.48695,34.966785],[135.485825,34.966601],[135.485412,34.966443],[135.484912,34.965793],[135.483875,34.964827],[135.483563,34.964685],[135.483263,34.964777],[135.482663,34.965093],[135.482325,34.96521],[135.48225,34.96521],[135.482138,34.965251],[135.48205,34.965251],[135.481863,34.965051],[135.481563,34.964035],[135.48125,34.962802],[135.48125,34.96246],[135.482688,34.961044],[135.483313,34.960544],[135.483613,34.960427],[135.483838,34.96041],[135.484325,34.960502],[135.484525,34.960477],[135.484525,34.960294],[135.484413,34.959977],[135.484413,34.959577],[135.48455,34.959369],[135.484825,34.959144],[135.484988,34.958877],[135.485013,34.958361],[135.485288,34.957527],[135.4854,34.957369],[135.485513,34.957344],[135.486775,34.957361],[135.48735,34.957252],[135.487487,34.957136],[135.487462,34.957052],[135.487125,34.956736],[135.4868,34.956486],[135.486663,34.956419],[135.486088,34.956353],[135.485888,34.956261],[135.485863,34.956061],[135.486025,34.955694],[135.485913,34.955403],[135.485663,34.955111],[135.485363,34.954886],[135.485113,34.954644],[135.484738,34.953945],[135.48465,34.953653],[135.484538,34.953536],[135.48405,34.953428],[135.483688,34.95322],[135.48305,34.952703],[135.482663,34.952253],[135.482251,34.951603],[135.481876,34.951153],[135.481563,34.950862],[135.481426,34.950612],[135.481288,34.950478],[135.481151,34.950545],[135.480938,34.950545],[135.480851,34.950428],[135.480851,34.950203],[135.481101,34.949803],[135.481426,34.949487],[135.481763,34.949237],[135.482251,34.949053],[135.482801,34.948987],[135.4831,34.948787],[135.483438,34.94842],[135.483925,34.947812],[135.484313,34.94757],[135.484663,34.947412],[135.485075,34.94727],[135.48615,34.946804],[135.486788,34.94662],[135.487913,34.946595],[135.488375,34.946479],[135.4887,34.946212],[135.488875,34.94587],[135.488838,34.944971],[135.489,34.944571],[135.489575,34.943579],[135.490187,34.942721],[135.490375,34.941887],[135.490425,34.941837],[135.4923,34.941771],[135.492925,34.941654],[135.493375,34.941429],[135.493725,34.941121],[135.494112,34.940938],[135.494437,34.940871],[135.494875,34.940888],[135.495349,34.941004],[135.495787,34.941071],[135.495974,34.941071],[135.496799,34.940888],[135.497198,34.940693],[135.497437,34.940679],[135.498087,34.940763],[135.498749,34.940946],[135.499562,34.941346],[135.499762,34.941479],[135.500337,34.942137],[135.500824,34.942487],[135.501486,34.942871],[135.501711,34.943029],[135.502061,34.943412],[135.502886,34.944645],[135.503224,34.945387],[135.503711,34.94617],[135.504011,34.94642],[135.504236,34.94642],[135.504474,34.94637],[135.505086,34.946062],[135.505899,34.945837],[135.506099,34.945712],[135.506311,34.94552],[135.506799,34.944929],[135.506986,34.944754],[135.507299,34.944637],[135.507549,34.944587],[135.507898,34.944587],[135.508173,34.94462],[135.508473,34.94462],[135.508911,34.944679],[135.509161,34.944654],[135.509398,34.944545],[135.510186,34.944021],[135.510573,34.943846],[135.511036,34.943729],[135.511311,34.943812],[135.511636,34.944087],[135.511973,34.944154],[135.512323,34.944037],[135.51276,34.943862],[135.513098,34.943796],[135.513523,34.943862],[135.513585,34.943904],[135.514273,34.944129],[135.51446,34.944129],[135.514548,34.943854],[135.514623,34.943271],[135.514598,34.942504],[135.514623,34.942046],[135.514923,34.941812],[135.51486,34.941137],[135.51481,34.941071],[135.514423,34.940871],[135.514373,34.940796],[135.514373,34.940596],[135.51456,34.940371],[135.51456,34.940171],[135.51461,34.939996],[135.514885,34.939588],[135.514885,34.939229],[135.514685,34.938529],[135.51466,34.938171],[135.514798,34.937313],[135.514998,34.936688],[135.51526,34.936188],[135.515535,34.935805],[135.515748,34.93558],[135.51611,34.93508],[135.51651,34.934346],[135.517085,34.933605],[135.517248,34.933463],[135.51756,34.933355],[135.51781,34.933305],[135.518097,34.933397],[135.518472,34.933705],[135.518647,34.933796],[135.518972,34.933796],[135.51931,34.933721],[135.520797,34.933705],[135.520822,34.933596],[135.52116,34.933105],[135.52126,34.932822],[135.52176,34.931613],[135.52221,34.930463],[135.522635,34.930113],[135.522797,34.930038],[135.523997,34.929313],[135.525197,34.928839],[135.525509,34.928839],[135.526134,34.928947],[135.526659,34.92893],[135.526897,34.92888],[135.527147,34.928772],[135.527422,34.928522],[135.527747,34.92818],[135.528159,34.928005],[135.528759,34.927889],[135.529384,34.927647],[135.529684,34.927505],[135.529909,34.927347],[135.530321,34.92723],[135.531496,34.927297],[135.531796,34.927255],[135.532121,34.927072],[135.532259,34.926964],[135.532559,34.926964],[135.533059,34.927139],[135.533271,34.927139],[135.533458,34.927089],[135.533596,34.926989],[135.533621,34.926839],[135.533896,34.92653],[135.534046,34.926439],[135.534883,34.92623],[135.535621,34.926055],[135.536171,34.925705],[135.536383,34.925622],[135.537121,34.925547],[135.537383,34.925514],[135.537658,34.925505],[135.537996,34.92548],[135.538096,34.925447],[135.538158,34.925322],[135.538171,34.924989],[135.538158,34.92493],[135.537896,34.924864],[135.537533,34.924639],[135.537396,34.924489],[135.537283,34.924355],[135.537083,34.92403],[135.536883,34.923622],[135.536833,34.923372],[135.536721,34.922731],[135.536621,34.922231],[135.536521,34.921897],[135.536358,34.921631],[135.536183,34.921389],[135.536008,34.921106],[135.535958,34.920864],[135.536008,34.920481],[135.536358,34.919897],[135.536396,34.919839],[135.536721,34.919589],[135.536996,34.919297],[135.537296,34.919022],[135.537433,34.918981],[135.537846,34.918956],[135.537983,34.918981],[135.538383,34.918781],[135.538646,34.918414],[135.539133,34.917539],[135.539645,34.916773],[135.540445,34.916006],[135.54072,34.915556],[135.541258,34.915264],[135.541695,34.915198],[135.542195,34.915331],[135.54277,34.915714],[135.543233,34.916148],[135.54347,34.916689],[135.543808,34.917139],[135.543858,34.917264],[135.544045,34.917539],[135.54447,34.917314],[135.54487,34.917139],[135.545482,34.916956],[135.54597,34.916731],[135.546407,34.916689],[135.54837,34.916797],[135.548557,34.916889],[135.54862,34.916956],[135.548782,34.917656],[135.549107,34.918397],[135.549244,34.918506],[135.549769,34.918556],[135.550457,34.918372],[135.550669,34.918264],[135.551082,34.917947],[135.551469,34.917539],[135.551819,34.917089],[135.552344,34.916573],[135.552694,34.916123],[135.553157,34.915631],[135.553369,34.915514],[135.553432,34.915514],[135.553894,34.915839],[135.554119,34.916023],[135.554382,34.916164],[135.554757,34.916323],[135.555044,34.916423],[135.555669,34.916439],[135.556194,34.916864],[135.556881,34.917248],[135.557256,34.917364],[135.557819,34.917473],[135.558381,34.917539],[135.559831,34.917814],[135.560056,34.917881],[135.560681,34.917931],[135.562456,34.917789],[135.562919,34.917673],[135.563244,34.917548],[135.564293,34.917323],[135.564856,34.917064],[135.565656,34.916873],[135.566368,34.916806],[135.566881,34.916464],[135.567281,34.916373],[135.567543,34.916373],[135.567793,34.916423],[135.568143,34.916439],[135.568743,34.916556],[135.570118,34.916689],[135.57083,34.916714],[135.571868,34.91649],[135.572443,34.91649],[135.572605,34.916531],[135.573043,34.916831],[135.573293,34.917056],[135.57353,34.917456],[135.573943,34.918331],[135.574418,34.918831],[135.57553,34.919506],[135.575692,34.919572],[135.576217,34.919689],[135.576917,34.919897],[135.577192,34.920114],[135.577855,34.920564],[135.57878,34.921081],[135.579442,34.921464],[135.58123,34.922472],[135.581017,34.922855],[135.58098,34.923055],[135.581067,34.923597],[135.581599,34.924913],[135.582558,34.926406],[135.584457,34.927938],[135.586263,34.928932],[135.588651,34.929301],[135.590178,34.929743],[135.592084,34.929863],[135.595468,34.929303],[135.598189,34.928767],[135.599577,34.928405],[135.599827,34.928288],[135.600065,34.928355],[135.600227,34.928221],[135.60029,34.928071],[135.600265,34.928046],[135.601439,34.927771],[135.602889,34.927346],[135.603377,34.92728],[135.604527,34.92743],[135.605514,34.927455],[135.605851,34.927521],[135.606451,34.927746],[135.607076,34.92813],[135.607626,34.928355],[135.608039,34.928421],[135.608414,34.92833],[135.608726,34.928221],[135.609238,34.928163],[135.609563,34.928238],[135.609738,34.928321],[135.610313,34.928413],[135.610501,34.928371],[135.611351,34.92848],[135.611626,34.92848],[135.612501,34.928255],[135.612738,34.928238],[135.613563,34.928005],[135.614925,34.927721],[135.615125,34.927713],[135.6152,34.927888],[135.61545,34.92818],[135.615775,34.928271],[135.616025,34.928296],[135.61635,34.928496],[135.616375,34.928546],[135.616538,34.928638],[135.616763,34.928705],[135.617013,34.928963],[135.617213,34.929213],[135.617263,34.929238],[135.617287,34.929421],[135.617237,34.929579],[135.617262,34.929713],[135.617537,34.930046],[135.617612,34.930321],[135.617612,34.930479],[135.6177,34.930704],[135.617925,34.930904],[135.618062,34.930971],[135.618337,34.931038],[135.61875,34.931296],[135.618887,34.931596],[135.618937,34.931937],[135.619075,34.932087],[135.619512,34.932312],[135.620175,34.932762],[135.620749,34.933104],[135.621074,34.933129],[135.621187,34.933079],[135.621537,34.933104],[135.621812,34.933237],[135.622187,34.933671],[135.622537,34.933787],[135.622787,34.934004],[135.622974,34.934346],[135.623099,34.934579],[135.623762,34.935237],[135.623912,34.935279],[135.624274,34.935287],[135.625049,34.934696],[135.625599,34.934537],[135.626224,34.934171],[135.626924,34.934054],[135.627799,34.933937],[135.628036,34.934012],[135.628311,34.934337],[135.628774,34.935037],[135.629161,34.935379],[135.629236,34.935404],[135.629749,34.935271],[135.630074,34.935304],[135.630424,34.935404],[135.630724,34.935371],[135.631098,34.935262],[135.631436,34.935037],[135.631823,34.934979],[135.632636,34.934904],[135.633411,34.934421],[135.634173,34.933863],[135.634273,34.933704],[135.634136,34.932821],[135.634211,34.932529],[135.634511,34.932371],[135.634961,34.932288],[135.635511,34.932063],[135.636198,34.931388],[135.636448,34.93123],[135.636798,34.931188],[135.637273,34.931438],[135.637673,34.931855],[135.63806,34.932146],[135.63851,34.932196],[135.639248,34.931888],[135.639698,34.931771],[135.639923,34.931755],[135.640398,34.931621],[135.64081,34.931263],[135.640923,34.930997],[135.641135,34.930838],[135.64156,34.93088],[135.642535,34.930888],[135.642898,34.930622],[135.643198,34.929838],[135.643485,34.929313],[135.64411,34.928647],[135.644623,34.927989],[135.644948,34.927697],[135.645785,34.927389],[135.646085,34.927205],[135.64636,34.926805],[135.64671,34.926697],[135.64716,34.926614],[135.647897,34.926281],[135.648447,34.926122],[135.649135,34.925656],[135.649485,34.925247],[135.64956,34.924889],[135.649435,34.924797],[135.649285,34.924639],[135.649435,34.924531],[135.649685,34.924389],[135.650122,34.924123],[135.650572,34.923348],[135.65071,34.923064],[135.650585,34.922681],[135.650385,34.921864],[135.650472,34.92099],[135.650935,34.919898],[135.65086,34.919823],[135.650972,34.919481],[135.65116,34.919148],[135.651435,34.918765],[135.651735,34.91849],[135.652085,34.918248],[135.65296,34.917932],[135.653272,34.917865],[135.653435,34.917682],[135.65346,34.917273],[135.65341,34.916448],[135.653297,34.916148],[135.65316,34.916132],[135.652935,34.916215],[135.652835,34.916465],[135.65256,34.916848],[135.652422,34.91689],[135.652035,34.916915],[135.650835,34.916715],[135.650285,34.916665],[135.649547,34.916665],[135.648398,34.916873],[135.648285,34.916848],[135.648198,34.916598],[135.648198,34.916265],[135.648285,34.915857],[135.648423,34.915448],[135.648673,34.915223],[135.648885,34.91489],[135.648423,34.91394],[135.64826,34.913424],[135.64826,34.912974],[135.648348,34.912415],[135.648348,34.911915],[135.648235,34.91144],[135.64821,34.911041],[135.64826,34.910407],[135.648423,34.910091],[135.648673,34.909466],[135.648973,34.909416],[135.65051,34.909374],[135.650998,34.909574],[135.651435,34.909849],[135.65166,34.909916],[135.652147,34.909916],[135.653272,34.909691],[135.65376,34.909466],[135.654235,34.909133],[135.654772,34.908658],[135.655547,34.907691],[135.656472,34.906808],[135.65681,34.906675],[135.657385,34.906608],[135.658085,34.906433],[135.658585,34.906158],[135.660034,34.905166],[135.660797,34.904383],[135.661322,34.903958],[135.662197,34.903683],[135.662559,34.90375],[135.662822,34.903958],[135.662959,34.90425],[135.662909,34.9045],[135.662634,34.904991],[135.662684,34.905083],[135.663022,34.905125],[135.663484,34.905125],[135.663897,34.904966],[135.664009,34.9049],[135.664272,34.904583],[135.664384,34.904183],[135.664334,34.903683],[135.663897,34.90265],[135.663834,34.902308],[135.663897,34.902133],[135.663947,34.902083],[135.664247,34.902108],[135.664497,34.90245],[135.664584,34.902783],[135.664634,34.902833],[135.664722,34.903192],[135.664909,34.903458],[135.665021,34.903975],[135.665234,34.904208],[135.665484,34.904292],[135.665834,34.904358],[135.666221,34.904317],[135.666634,34.904317],[135.667009,34.904225],[135.667096,34.904183],[135.667459,34.90405],[135.667584,34.903958],[135.667921,34.903867],[135.668571,34.903775],[135.669009,34.903642],[135.669884,34.902925],[135.670321,34.9027],[135.671233,34.902359],[135.672358,34.901709],[135.672758,34.901417],[135.673033,34.901125],[135.673196,34.900875],[135.673446,34.900242],[135.673646,34.900109],[135.674108,34.900159],[135.674433,34.900159],[135.674733,34.900092],[135.674871,34.900001],[135.675583,34.899459],[135.675721,34.899301],[135.675721,34.899209],[135.675233,34.898717],[135.675146,34.898534],[135.675308,34.898401],[135.676158,34.898043],[135.67632,34.897768],[135.676046,34.896826],[135.675833,34.896418],[135.675171,34.895318],[135.675096,34.894934],[135.675396,34.894893],[135.676083,34.895093],[135.676758,34.895226],[135.676896,34.895226],[135.676921,34.894668],[135.676983,34.894235],[135.677033,34.894101],[135.677745,34.893426],[135.678045,34.893043],[135.67832,34.892568],[135.67857,34.891985],[135.679558,34.889852],[135.679833,34.88951],[135.680208,34.889219],[135.680683,34.888969],[135.681495,34.888452],[135.682683,34.887802],[135.681908,34.886719],[135.681283,34.885594],[135.680546,34.883794],[135.680058,34.881519],[135.679971,34.881319],[135.679946,34.881136],[135.679696,34.880395],[135.678633,34.878278],[135.678408,34.877761],[135.678271,34.877578],[135.678083,34.877078],[135.677833,34.876587],[135.676771,34.874987],[135.676496,34.874512],[135.675971,34.87377],[135.674721,34.872262],[135.674171,34.871704],[135.673871,34.87127],[135.672834,34.870054],[135.672672,34.869945],[135.672309,34.86947],[135.671959,34.868729],[135.671759,34.868145],[135.671709,34.866721],[135.671734,34.866271],[135.671597,34.865779],[135.671197,34.865146],[135.670284,34.863754],[135.669659,34.862646],[135.669335,34.862154],[135.669085,34.861638],[135.669035,34.861413],[135.66851,34.860329],[135.668235,34.859904],[135.66761,34.859138],[135.66621,34.856746],[135.665448,34.855713],[135.664623,34.854855],[135.664185,34.854455],[135.663723,34.854088],[135.66261,34.853396],[135.661373,34.852763],[135.660748,34.852563],[135.660011,34.852263],[135.658561,34.851797],[135.657461,34.851505],[135.656699,34.851272],[135.655161,34.850888],[135.654199,34.850597],[135.653224,34.850197],[135.652374,34.849747],[135.651524,34.849047],[135.650674,34.848255],[135.649912,34.84738],[135.649637,34.846839],[135.649249,34.845964],[135.648712,34.844722],[135.64805,34.843331],[135.647862,34.842831],[135.647725,34.842631],[135.647612,34.842181],[135.6471,34.840898],[135.64655,34.838915],[135.6462,34.837365],[135.646112,34.836573],[135.646362,34.83569],[135.646387,34.834565],[135.646525,34.83359],[135.646587,34.832599],[135.646562,34.832132],[135.646612,34.831632],[135.646612,34.831207],[135.6465,34.830366],[135.646312,34.829866],[135.645388,34.828558],[135.644925,34.827949],[135.644138,34.827074],[135.64375,34.826733],[135.643413,34.826375],[135.643063,34.825925],[135.6428,34.825608],[135.642325,34.824683],[135.64165,34.822667],[135.641675,34.822667],[135.641563,34.821925],[135.641588,34.821017],[135.641513,34.819509],[135.641188,34.818109],[135.640751,34.816801],[135.640588,34.816442],[135.639613,34.815242],[135.638913,34.814476],[135.638263,34.814026],[135.637776,34.813751],[135.636651,34.813251],[135.635526,34.812818],[135.634851,34.812626],[135.632939,34.812243],[135.631289,34.812101],[135.630277,34.811901],[135.628914,34.811559],[135.627852,34.811159],[135.62679,34.810659],[135.625665,34.810051],[135.624677,34.809434],[135.624027,34.80886],[135.62364,34.808601],[135.623265,34.808293],[135.622415,34.807701],[135.622277,34.807568],[135.622188,34.807523],[135.62204,34.80746],[135.62154,34.807051],[135.620803,34.806601],[135.620178,34.805993],[135.619815,34.805452],[135.619303,34.804302],[135.61889,34.803518],[135.618503,34.802594],[135.618065,34.801644],[135.617703,34.801035],[135.616615,34.800202],[135.615978,34.799844],[135.61544,34.799277],[135.615215,34.798944],[135.615003,34.798311],[135.614778,34.797361],[135.614553,34.795903],[135.61439,34.794636],[135.61434,34.792245],[135.614278,34.791412],[135.614203,34.791237],[135.613953,34.790895],[135.613353,34.789837],[135.612503,34.788595],[135.612303,34.788237],[135.611678,34.787271],[135.611078,34.786529],[135.610965,34.786346],[135.61039,34.785604],[135.608528,34.784071],[135.608116,34.783796],[135.607003,34.783213],[135.606666,34.782963],[135.605329,34.782354],[135.604841,34.782088],[135.603391,34.781346],[135.603004,34.781271],[135.602591,34.781271],[135.602541,34.781254],[135.602341,34.781254],[135.602266,34.780488],[135.601767,34.780038],[135.600792,34.778996],[135.600517,34.778663],[135.599304,34.777646],[135.599204,34.777488],[135.598954,34.777263],[135.598842,34.777221],[135.597805,34.776405],[135.597205,34.775822],[135.596305,34.775122],[135.594742,34.773838],[135.594055,34.773205],[135.59313,34.77253],[135.59253,34.771972],[135.59143,34.771089],[135.590393,34.770322],[135.590331,34.77023],[135.588581,34.768789],[135.587193,34.767714],[135.586943,34.767489],[135.586181,34.766856],[135.585281,34.766197],[135.584131,34.765164],[135.583394,34.764464],[135.582706,34.763748],[135.581969,34.763139],[135.581007,34.762239],[135.579619,34.761106],[135.578407,34.76034],[135.57712,34.759348],[135.576082,34.758765],[135.575407,34.758448],[135.574907,34.758181],[135.573707,34.757731],[135.572445,34.757456],[135.571658,34.757256],[135.570095,34.75699],[135.567358,34.756356],[135.565646,34.755998],[135.565121,34.755856],[135.563946,34.755631],[135.563421,34.755498],[135.562933,34.755298],[135.562383,34.755023],[135.560933,34.754215],[135.560496,34.753923],[135.559484,34.753407],[135.559184,34.753248],[135.559146,34.753065],[135.558084,34.752173],[135.557384,34.751532],[135.557059,34.751198],[135.556896,34.750873],[135.556559,34.750015],[135.556334,34.748207],[135.556309,34.746899],[135.556459,34.745866],[135.557822,34.744433],[135.558596,34.743516],[135.559559,34.742483],[135.559984,34.741833],[135.560371,34.741341],[135.560846,34.740558],[135.560984,34.740191],[135.561046,34.739583],[135.561021,34.738733],[135.560946,34.738067],[135.560822,34.737525],[135.560659,34.737075],[135.560522,34.73685],[135.559784,34.7365],[135.558734,34.736117],[135.557834,34.735717],[135.555747,34.734342],[135.555035,34.734075],[135.554772,34.733917],[135.554585,34.733684],[135.55401,34.733342],[135.553597,34.733184],[135.55341,34.73305],[135.55341,34.732959],[135.553497,34.732759],[135.554197,34.731826],[135.554747,34.731134],[135.55491,34.730909],[135.554785,34.730659],[135.55476,34.729851],[135.554822,34.728926],[135.55481,34.727368],[135.554972,34.725635],[135.555147,34.724885],[135.55561,34.724918],[135.556622,34.725126],[135.557922,34.725518],[135.558522,34.725635],[135.559097,34.725668],[135.559397,34.725785],[135.559859,34.726035],[135.560047,34.725993],[135.560634,34.725493],[135.560684,34.725201],[135.561209,34.72521],[135.562984,34.724977],[135.563534,34.724777],[135.564259,34.724193],[135.564747,34.723452],[135.564922,34.72316],[135.565222,34.723027],[135.565309,34.722935],[135.565384,34.722618],[135.565534,34.722602],[135.565397,34.72201],[135.565434,34.72181],[135.565659,34.721344],[135.566022,34.72006],[135.566209,34.719719],[135.566522,34.719336],[135.567047,34.718752],[135.567284,34.718419],[135.567484,34.718077],[135.567659,34.717669],[135.566797,34.717219],[135.566547,34.717161],[135.566034,34.717161],[135.565534,34.717252],[135.563734,34.717327],[135.563322,34.717327],[135.562859,34.717361],[135.562859,34.717069],[135.563047,34.716694],[135.563472,34.716194],[135.563497,34.715878],[135.563472,34.715569],[135.563297,34.714994],[135.560397,34.715019],[135.560322,34.711786],[135.560347,34.711403],[135.56026,34.710186],[135.560135,34.70682],[135.560147,34.70637],[135.559923,34.701962],[135.559923,34.701462],[135.559785,34.700537],[135.559748,34.699313],[135.559685,34.698463],[135.559673,34.697313],[135.559523,34.69573],[135.559398,34.693613],[135.559285,34.692488],[135.559235,34.691655],[135.559185,34.690955],[135.55896,34.68953],[135.558885,34.688805],[135.558735,34.687681],[135.558985,34.687614],[135.560573,34.687347],[135.562972,34.687106],[135.563385,34.687039],[135.563772,34.687039],[135.564147,34.687106],[135.564547,34.687314],[135.565085,34.687731],[135.565372,34.687731],[135.564435,34.686389],[135.564772,34.686189],[135.564497,34.685664],[135.564385,34.685106],[135.564235,34.684531],[135.564235,34.684256],[135.56451,34.683881],[135.564597,34.683564],[135.564572,34.683273],[135.564285,34.682756],[135.563847,34.682273],[135.563772,34.68209],[135.563797,34.681865],[135.563772,34.681456],[135.563672,34.681165],[135.563597,34.680731],[135.563485,34.680415],[135.563447,34.680006],[135.56341,34.678015],[135.563247,34.676982],[135.562998,34.675732],[135.562423,34.673899],[135.56216,34.672474],[135.562085,34.671707],[135.56211,34.671574],[135.56201,34.670599],[135.56201,34.669924],[135.56191,34.669358],[135.56206,34.668391],[135.56206,34.668183],[135.561948,34.668049],[135.56141,34.668083],[135.560498,34.668074],[135.559348,34.668149],[135.558098,34.668116],[135.557523,34.668158],[135.557411,34.668133],[135.557273,34.666616],[135.557123,34.665458],[135.557061,34.664416],[135.556986,34.663691],[135.557023,34.663517],[135.557111,34.663358],[135.558473,34.663283],[135.559048,34.663175],[135.558973,34.662675],[135.559548,34.662683],[135.560998,34.662583],[135.561085,34.662475],[135.56106,34.661009],[135.561285,34.660625],[135.561423,34.660559],[135.561623,34.659517],[135.56176,34.658392],[135.563123,34.658317],[135.563948,34.658326],[135.56386,34.657034],[135.563923,34.656609],[135.563448,34.656601],[135.563073,34.656551],[135.563023,34.655892],[135.562948,34.655867],[135.561635,34.655901],[135.560511,34.655867],[135.559148,34.655876],[135.558598,34.655842],[135.558586,34.654826],[135.558698,34.654851],[135.559323,34.654809],[135.559486,34.653393],[135.559598,34.652959],[135.561298,34.652909],[135.561573,34.652868],[135.561823,34.652734],[135.561873,34.652493],[135.561836,34.651718],[135.561961,34.65111],[135.561773,34.650201],[135.560711,34.650285],[135.560686,34.648518],[135.560761,34.647077],[135.560823,34.646685],[135.560911,34.644927],[135.560973,34.643885],[135.560961,34.64366],[135.561098,34.641811],[135.561223,34.640927],[135.561436,34.640886],[135.563111,34.640953],[135.564636,34.640903],[135.565236,34.640953],[135.565223,34.640478],[135.565336,34.638153],[135.566348,34.638161],[135.568073,34.638253],[135.568435,34.638228],[135.568523,34.637236],[135.568548,34.635628],[135.568623,34.634345],[135.568685,34.63432],[135.570598,34.634387],[135.57156,34.63447],[135.57161,34.634428],[135.571723,34.633928],[135.571785,34.633887],[135.573722,34.633903],[135.57446,34.634003],[135.574622,34.632245],[135.574635,34.631454],[135.57471,34.630571],[135.575535,34.630562],[135.57591,34.630496],[135.575835,34.628162],[135.576097,34.627538],[135.57661,34.626638],[135.576635,34.626521],[135.575647,34.624771],[135.575073,34.623588],[135.574985,34.623205],[135.575523,34.62283],[135.575448,34.622305],[135.575548,34.620747],[135.575473,34.620472],[135.575198,34.620472],[135.575098,34.620313],[135.574935,34.618255],[135.574359,34.617857],[135.573457,34.617454],[135.572354,34.616817],[135.571473,34.616223],[135.570608,34.615816],[135.56931,34.615429],[135.567952,34.615268],[135.561589,34.615279],[135.556072,34.615279],[135.549813,34.615279],[135.545102,34.615279],[135.540963,34.614663],[135.533972,34.613623],[135.516166,34.616179],[135.482444,34.621787],[135.482031,34.623379],[135.481794,34.62442],[135.481594,34.624645],[135.481319,34.624795],[135.480156,34.625378],[135.479556,34.625645],[135.477969,34.626486],[135.477594,34.626736],[135.477119,34.626911],[135.476407,34.62722],[135.475507,34.628028],[135.474894,34.628544],[135.474019,34.629344],[135.473807,34.629544],[135.473707,34.629478],[135.473482,34.629386],[135.473195,34.629094],[135.472945,34.628794],[135.47237,34.628344],[135.471995,34.628111],[135.470345,34.627361],[135.469445,34.627078],[135.46887,34.626986],[135.468295,34.626828],[135.46807,34.626803],[135.46692,34.62657],[135.465245,34.626195],[135.463096,34.625794],[135.460871,34.625394],[135.459896,34.625211],[135.458246,34.624903],[135.455946,34.624636],[135.454409,34.624678],[135.452809,34.625069],[135.451722,34.625419],[135.451047,34.625594],[135.449759,34.626019],[135.449109,34.626302],[135.448559,34.626486],[135.448584,34.626594],[135.448547,34.627161],[135.448597,34.628019],[135.448647,34.628352],[135.448534,34.628602],[135.448284,34.629544],[135.448122,34.630402],[135.448122,34.630652],[135.448172,34.630835],[135.448322,34.63101],[135.448472,34.631018],[135.450372,34.630602],[135.451709,34.630094],[135.453421,34.62936],[135.453496,34.629294],[135.453309,34.630935],[135.453296,34.63116],[135.453396,34.631502],[135.453271,34.631594],[135.453084,34.632693],[135.452834,34.632893],[135.452934,34.633643],[135.452696,34.634993],[135.452709,34.635193],[135.452484,34.635151],[135.452384,34.635826],[135.452384,34.63596],[135.452484,34.635985],[135.452459,34.63621],[135.452371,34.636526],[135.452371,34.636768],[135.452246,34.637243],[135.452246,34.637493],[135.452059,34.638301],[135.451209,34.643234],[135.451159,34.643392],[135.451209,34.643575],[135.450971,34.644592],[135.450946,34.644859],[135.450896,34.644992],[135.450896,34.6454],[135.450534,34.645942],[135.450409,34.646075],[135.450209,34.6465],[135.450159,34.646542],[135.450134,34.646658],[135.449959,34.646658],[135.448509,34.646083],[135.448359,34.646033],[135.448184,34.646167],[135.447709,34.645983],[135.447634,34.645942],[135.447709,34.645742],[135.447434,34.645575],[135.445734,34.645],[135.444984,34.644817],[135.444509,34.644567],[135.444259,34.644475],[135.444109,34.644567],[135.443784,34.644583],[135.442547,34.645117],[135.442322,34.645208],[135.442297,34.645342],[135.442122,34.645425],[135.442972,34.645792],[135.444647,34.646375],[135.444872,34.646483],[135.445297,34.64665],[135.445647,34.646717],[135.445896,34.646717],[135.446196,34.64665],[135.446621,34.646475],[135.446771,34.646567],[135.446846,34.646767],[135.446471,34.6469],[135.445684,34.647283],[135.444934,34.647616],[135.444197,34.647966],[135.443922,34.647925],[135.443672,34.647833],[135.443659,34.647533],[135.443309,34.647375],[135.441259,34.646641],[135.440584,34.646366],[135.439935,34.646158],[135.43981,34.646158],[135.439485,34.646333],[135.438722,34.646666],[135.438672,34.646825],[135.438322,34.647025],[135.437322,34.6474],[135.437272,34.647291],[135.437122,34.647308],[135.435885,34.647841],[135.43571,34.647891],[135.43536,34.648066],[135.435485,34.648224],[135.43546,34.648266],[135.43551,34.648341],[135.435872,34.648474],[135.436522,34.648724],[135.437122,34.648916],[135.438347,34.649416],[135.438922,34.649599],[135.43936,34.649383],[135.440134,34.649066],[135.440259,34.648999],[135.440559,34.649433],[135.438872,34.650233],[135.438035,34.650658],[135.437585,34.650807],[135.437335,34.650716],[135.436635,34.650507],[135.43321,34.649199],[135.433085,34.649266],[135.432285,34.649574],[135.429798,34.650757],[135.429573,34.650824],[135.429385,34.650907],[135.42926,34.651499],[135.42866,34.651357],[135.42826,34.651149],[135.428186,34.651149],[135.428285,34.65104],[135.427961,34.650857],[135.428036,34.65074],[135.426786,34.650307],[135.426686,34.65024],[135.426361,34.650149],[135.426161,34.650057],[135.426036,34.650232],[135.425861,34.65019],[135.425461,34.651065],[135.425611,34.651132],[135.425623,34.651265],[135.426748,34.651724],[135.427348,34.65189],[135.427373,34.651932],[135.427448,34.651849],[135.427998,34.652049],[135.428148,34.651874],[135.428748,34.652082],[135.428698,34.652349],[135.428798,34.652399],[135.428748,34.652732],[135.428573,34.653249],[135.428185,34.65449],[135.427998,34.654823],[135.428023,34.654848],[135.426361,34.65574],[135.426186,34.655806],[135.425786,34.656048],[135.423998,34.65699],[135.423523,34.657165],[135.423436,34.65734],[135.423361,34.65739],[135.422848,34.657156],[135.422773,34.656956],[135.422848,34.656915],[135.422873,34.65684],[135.422798,34.656681],[135.422523,34.656773],[135.421636,34.655098],[135.421411,34.654806],[135.420899,34.65374],[135.420774,34.653673],[135.419724,34.653323],[135.419324,34.653232],[135.419224,34.653348],[135.419486,34.654673],[135.419624,34.655398],[135.419824,34.656323],[135.419986,34.657706],[135.420286,34.659198],[135.420411,34.659981],[135.420561,34.660056],[135.420536,34.660189],[135.420261,34.660047],[135.420011,34.660031],[135.418061,34.659497],[135.417961,34.659089],[135.417886,34.658881],[135.417836,34.658522],[135.416899,34.654973],[135.416899,34.654815],[135.416699,34.65484],[135.416099,34.652531],[135.416024,34.652215],[135.415824,34.652215],[135.415799,34.65199],[135.415599,34.651857],[135.414899,34.651557],[135.414424,34.651532],[135.414299,34.651598],[135.414299,34.651798],[135.414562,34.652948],[135.414637,34.65349],[135.414874,34.654123],[135.414924,34.654398],[135.416124,34.660047],[135.416261,34.66088],[135.416336,34.66108],[135.416436,34.661555],[135.416861,34.661697],[135.417186,34.661764],[135.417636,34.66193],[135.417711,34.66193],[135.417711,34.661864],[135.417786,34.661722],[135.418211,34.661839],[135.422336,34.663022],[135.422586,34.663022],[135.422611,34.66318],[135.423861,34.663722],[135.426098,34.66748],[135.426348,34.667913],[135.426198,34.668047],[135.426123,34.668355],[135.425998,34.668322],[135.425848,34.66828],[135.425348,34.667547],[135.425123,34.667013],[135.424485,34.665897],[135.42441,34.665739],[135.424023,34.66558],[135.422998,34.665322],[135.419299,34.664264],[135.418924,34.664147],[135.418224,34.663989],[135.417974,34.663889],[135.418049,34.663664],[135.417424,34.66348],[135.417324,34.66373],[135.417011,34.663747],[135.416861,34.66393],[135.416924,34.665172],[135.416924,34.666055],[135.417011,34.667588],[135.417024,34.668646],[135.417149,34.668988],[135.417336,34.669188],[135.417786,34.669754],[135.417886,34.669921],[135.418498,34.670646],[135.42466,34.672288],[135.424573,34.672513],[135.42601,34.673246],[135.425023,34.675804],[135.417648,34.673721],[135.417711,34.673529],[135.417723,34.673412],[135.417648,34.673396],[135.417474,34.673337],[135.417299,34.673304],[135.417074,34.673262],[135.416886,34.673196],[135.416749,34.673162],[135.416849,34.673179],[135.414036,34.672437],[135.413899,34.672521],[135.412474,34.672104],[135.412312,34.672221],[135.411762,34.672062],[135.411674,34.671954],[135.411674,34.671862],[135.411574,34.671846],[135.411299,34.671887],[135.410287,34.671696],[135.409924,34.670746],[135.408162,34.671887],[135.408412,34.672387],[135.408737,34.672287],[135.408962,34.673145],[135.408662,34.673195],[135.409249,34.674704],[135.408749,34.675512],[135.412199,34.67682],[135.420723,34.67922],[135.419498,34.682628],[135.418186,34.686761],[135.417998,34.686836],[135.417511,34.687986],[135.414148,34.689585],[135.412574,34.690302],[135.411811,34.690802],[135.410949,34.691435],[135.410561,34.691827],[135.409861,34.69271],[135.409436,34.69341],[135.408936,34.694476],[135.408374,34.696076],[135.408274,34.696601],[135.407349,34.697051],[135.406312,34.697601],[135.404937,34.695834],[135.404549,34.695793],[135.404412,34.695543],[135.404574,34.695451],[135.401637,34.691776],[135.401475,34.691868],[135.399013,34.688793],[135.399138,34.688726],[135.398788,34.688235],[135.39475,34.686976],[135.392751,34.688168],[135.393526,34.689218],[135.393663,34.689151],[135.3956,34.691618],[135.395275,34.691734],[135.396688,34.693509],[135.396688,34.693618],[135.396763,34.693768],[135.3971,34.694151],[135.397225,34.694342],[135.397275,34.694426],[135.397388,34.694417],[135.397538,34.694351],[135.397688,34.694426],[135.397813,34.694551],[135.397938,34.694692],[135.398112,34.694909],[135.40015,34.697559],[135.400287,34.697942],[135.401287,34.699192],[135.399275,34.699975],[135.399187,34.69995],[135.398837,34.700134],[135.398587,34.700317],[135.398587,34.70045],[135.398425,34.700475],[135.398262,34.70055],[135.3981,34.700325],[135.397175,34.700175],[135.39665,34.70015],[135.3961,34.700317],[135.395,34.698875],[135.394775,34.698792],[135.393463,34.700758],[135.393188,34.701075],[135.392888,34.701217],[135.392288,34.701267],[135.3924,34.701133],[135.392263,34.700608],[135.392338,34.700208],[135.393738,34.698284],[135.393475,34.697334],[135.391676,34.69505],[135.391813,34.694934],[135.390151,34.692892],[135.390338,34.692801],[135.389676,34.691976],[135.389076,34.691751],[135.388338,34.691942],[135.388201,34.69185],[135.386651,34.692292],[135.386601,34.692517],[135.385501,34.692767],[135.385364,34.69275],[135.385289,34.692884],[135.383414,34.69355],[135.383164,34.693575],[135.382951,34.693483],[135.381527,34.69095],[135.381389,34.690883],[135.381139,34.690933],[135.380814,34.691067],[135.379052,34.6916],[135.377502,34.692108],[135.377389,34.6919],[135.377577,34.691791],[135.377439,34.691475],[135.37724,34.691566],[135.375452,34.687225],[135.376902,34.685709],[135.372903,34.682218],[135.372303,34.681634],[135.372212,34.681633],[135.371215,34.680801],[135.368453,34.683242],[135.372212,34.689641],[135.373765,34.693099],[135.372515,34.693583],[135.372212,34.693657],[135.37219,34.693816],[135.37099,34.694274],[135.36879,34.696374],[135.368415,34.696374],[135.365053,34.693708],[135.365053,34.693549],[135.36739,34.691491],[135.363266,34.688358],[135.353916,34.696866],[135.359728,34.701216],[135.360578,34.701166],[135.36324,34.698766],[135.364778,34.699999],[135.361603,34.702957],[135.362203,34.703249],[135.36204,34.703524],[135.363753,34.704982],[135.36359,34.705524],[135.363315,34.706224],[135.363215,34.70624],[135.36269,34.706065],[135.361628,34.705757],[135.361428,34.705757],[135.36064,34.705849],[135.360478,34.705915],[135.360103,34.706165],[135.359528,34.706774],[135.359365,34.706865],[135.35909,34.707274],[135.358928,34.70739],[135.35809,34.707665],[135.358603,34.707948],[135.358478,34.708132],[135.358278,34.708132],[135.357978,34.708498],[135.35774,34.708723],[135.357303,34.708857],[135.357165,34.708973],[135.356978,34.709423],[135.35649,34.709832],[135.355328,34.71074],[135.355078,34.711098],[135.355003,34.711548],[135.354378,34.712315],[135.353865,34.712815],[135.353265,34.713473],[135.352478,34.714148],[135.351503,34.715081],[135.351203,34.715331],[135.35074,34.715623],[135.350278,34.715781],[135.349928,34.715556],[135.349653,34.715315],[135.349403,34.715115],[135.349166,34.71494],[135.349003,34.71479],[135.348891,34.714865],[135.348628,34.715023],[135.348466,34.715123],[135.348316,34.715215],[135.348241,34.71529],[135.348253,34.71529],[135.343741,34.718606],[135.344103,34.719123],[135.343203,34.719731],[135.338941,34.722298],[135.338841,34.724056],[135.338753,34.724073],[135.338703,34.724031],[135.337941,34.724481],[135.337991,34.724531],[135.337753,34.724639],[135.337666,34.724506],[135.337204,34.724623],[135.337291,34.724806],[135.337129,34.724889],[135.337179,34.725006],[135.336829,34.725206],[135.336829,34.725189],[135.336691,34.725139],[135.336166,34.725456],[135.336279,34.725614],[135.335904,34.725847],[135.335441,34.725847],[135.334304,34.724139],[135.334654,34.724023],[135.335229,34.723523],[135.335229,34.723214],[135.335091,34.723256],[135.334866,34.722606],[135.334754,34.722131],[135.334779,34.721273],[135.340353,34.717848],[135.340403,34.717965],[135.340766,34.718031],[135.341129,34.715757],[135.338766,34.710924],[135.334429,34.71069],[135.334429,34.71044],[135.330105,34.71039],[135.330117,34.710774],[135.324917,34.710824],[135.32493,34.715323],[135.325042,34.715348],[135.325042,34.716065],[135.324905,34.716073],[135.324917,34.71699],[135.330304,34.721698],[135.334579,34.721231],[135.334566,34.722156],[135.333941,34.722589],[135.333229,34.722814],[135.332054,34.723223],[135.330804,34.723639],[135.329442,34.724222],[135.329167,34.724297],[135.329029,34.724297],[135.328654,34.724231],[135.328654,34.724181],[135.328842,34.724006],[135.329004,34.723781],[135.329079,34.723531],[135.329004,34.723256],[135.328829,34.723123],[135.328692,34.723106],[135.328392,34.723173],[135.328267,34.723306],[135.327904,34.723464],[135.327742,34.723489],[135.327667,34.723556],[135.327642,34.723698],[135.327854,34.723964],[135.328017,34.724256],[135.327992,34.724506],[135.327592,34.724706],[135.327179,34.724847],[135.327042,34.724939],[135.326854,34.724981],[135.326304,34.724822],[135.326117,34.724872],[135.326029,34.724964],[135.325817,34.725139],[135.325517,34.725281],[135.325354,34.725372],[135.325192,34.725414],[135.325054,34.725347],[135.324892,34.725347],[135.324754,34.725464],[135.323905,34.725714],[135.322867,34.725897],[135.322567,34.725897],[135.322355,34.725814],[135.323905,34.724747],[135.323905,34.724539],[135.32373,34.724547],[135.323755,34.724272],[135.32393,34.724272],[135.323855,34.718465],[135.32393,34.718006],[135.306369,34.714415],[135.305944,34.714615],[135.305881,34.715065],[135.305969,34.71529],[135.305669,34.718673],[135.305394,34.718739],[135.304794,34.718723],[135.304706,34.718631],[135.304519,34.718631],[135.303969,34.718723],[135.303619,34.718839],[135.302369,34.719089],[135.301707,34.719256],[135.301519,34.719414],[135.300594,34.719547],[135.300669,34.718989],[135.298107,34.719422],[135.294532,34.719506],[135.294195,34.719397],[135.297057,34.718506],[135.298557,34.717506],[135.303382,34.716789],[135.303769,34.712148],[135.304169,34.71219],[135.304194,34.71174],[135.303957,34.71174],[135.304082,34.710798],[135.303919,34.710798],[135.304407,34.706041],[135.304132,34.705732],[135.293908,34.704624],[135.29347,34.704849],[135.29237,34.712106],[135.293533,34.714781],[135.29527,34.715498],[135.293995,34.717573],[135.294032,34.718364],[135.294332,34.718472],[135.29382,34.719289],[135.292795,34.718814],[135.293232,34.718006],[135.29317,34.717756],[135.292845,34.717623],[135.29252,34.718122],[135.29137,34.717764],[135.291583,34.717339],[135.291258,34.717181],[135.29167,34.716523],[135.291995,34.716589],[135.292133,34.716256],[135.291858,34.716189],[135.29202,34.715956],[135.291795,34.715356],[135.291633,34.715398],[135.291358,34.714748],[135.290895,34.714881],[135.290995,34.715198],[135.290095,34.714839],[135.28947,34.715023],[135.288183,34.714648],[135.287421,34.714289],[135.285608,34.714048],[135.285608,34.71369],[135.284271,34.713556],[135.284271,34.713181],[135.283258,34.713115],[135.283309,34.71269],[135.282846,34.712798],[135.282246,34.712506],[135.281884,34.712373],[135.282759,34.711181],[135.283496,34.711556],[135.286833,34.711973],[135.288083,34.704016],[135.272097,34.702216],[135.27171,34.702424],[135.271197,34.705932],[135.271435,34.70634],[135.27111,34.70679],[135.26956,34.706215],[135.268872,34.706398],[135.268523,34.706915],[135.268135,34.706965],[135.26786,34.706623],[135.267835,34.705948],[135.268548,34.702074],[135.26821,34.701782],[135.255074,34.700416],[135.254474,34.700332],[135.253349,34.700157],[135.247222,34.69948],[135.2451,34.699299],[135.23975,34.701515],[135.236325,34.701065],[135.236088,34.702357],[135.234588,34.702207],[135.234451,34.70224],[135.234338,34.702207],[135.234313,34.702165],[135.234363,34.702082],[135.234638,34.701623],[135.234763,34.700924],[135.227864,34.700082],[135.227964,34.698799],[135.234738,34.698465],[135.237763,34.693658],[135.235601,34.693399],[135.233726,34.696616],[135.231651,34.696382],[135.233663,34.693191],[135.233726,34.693166],[135.231613,34.692933],[135.229626,34.696124],[135.227626,34.695882],[135.229651,34.692741],[135.227476,34.692483],[135.225414,34.695632],[135.223464,34.695441],[135.225426,34.692233],[135.223702,34.692041],[135.218989,34.695557],[135.21629,34.694107],[135.215252,34.693482],[135.214377,34.692682],[135.21759,34.690224],[135.217115,34.689824],[135.213927,34.692282],[135.213415,34.692058],[135.216465,34.689783],[135.215952,34.689375],[135.21299,34.691741],[135.211515,34.690966],[135.213078,34.689783],[135.21264,34.689424],[135.21104,34.690699],[135.21059,34.690491],[135.21214,34.689383],[135.211753,34.688974],[135.210053,34.690249],[135.208765,34.689541],[135.212365,34.686875],[135.21179,34.686541],[135.208503,34.688999],[135.20799,34.688666],[135.21129,34.686275],[135.210628,34.685941],[135.207078,34.688649],[135.205541,34.687775],[135.20899,34.684983],[135.207528,34.684267],[135.204078,34.687],[135.203128,34.686216],[135.204303,34.684675],[135.203766,34.68445],[135.202728,34.685833],[135.201766,34.684983],[135.203516,34.679267],[135.203379,34.679192],[135.204591,34.677792],[135.204753,34.677851],[135.206316,34.676742],[135.210765,34.678834],[135.210303,34.681267],[135.219965,34.682742],[135.225352,34.678334],[135.225539,34.677834],[135.216378,34.675009],[135.217728,34.67261],[135.227864,34.675768],[135.231614,34.67376],[135.231764,34.673393],[135.220177,34.669918],[135.219502,34.669727],[135.22099,34.667227],[135.229627,34.669918],[135.233326,34.67106],[135.233826,34.669919],[135.234026,34.669402],[135.22379,34.665086],[135.228015,34.657853],[135.22784,34.657786],[135.226977,34.659136],[135.223702,34.657861],[135.228265,34.650421],[135.217141,34.650212],[135.205716,34.657678],[135.204266,34.657061],[135.204091,34.659203],[135.202504,34.659153],[135.201829,34.669868],[135.201904,34.669918],[135.201591,34.673618],[135.202854,34.673676],[135.202854,34.674734],[135.204266,34.675834],[135.203316,34.677051],[135.204116,34.677476],[135.202866,34.678951],[135.202354,34.678617],[135.200691,34.683817],[135.198991,34.68345],[135.199554,34.680059],[135.198429,34.679909],[135.197841,34.683133],[135.196404,34.682967],[135.196879,34.679759],[135.195792,34.679634],[135.195217,34.682858],[135.193717,34.682717],[135.194167,34.679484],[135.193079,34.679375],[135.192179,34.684616],[135.193142,34.684683],[135.192992,34.685558],[135.189955,34.685366],[135.19028,34.681292],[135.188205,34.681058],[135.189555,34.67945],[135.188705,34.679],[135.187017,34.681],[135.18583,34.684025],[135.185567,34.684033],[135.18553,34.6843],[135.18468,34.68395],[135.18503,34.683042],[135.184393,34.682592],[135.184105,34.683358],[135.183555,34.682733],[135.184118,34.681875],[135.183855,34.68095],[135.183593,34.680975],[135.18348,34.680708],[135.184593,34.680675],[135.185768,34.677875],[135.183743,34.677842],[135.183393,34.677392],[135.182893,34.677375],[135.182893,34.677284],[135.182343,34.677259],[135.182268,34.6774],[135.182068,34.6774],[135.182043,34.676792],[135.182418,34.676767],[135.18248,34.677034],[135.183468,34.677117],[135.183518,34.677367],[135.183855,34.677409],[135.184143,34.676667],[135.184605,34.676659],[135.184668,34.676792],[135.186742,34.676826],[135.18733,34.675767],[135.185868,34.675209],[135.18603,34.674851],[135.18683,34.675117],[135.18723,34.674859],[135.187642,34.674767],[135.187867,34.674609],[135.188255,34.673618],[135.18853,34.673634],[135.188792,34.672776],[135.189292,34.672859],[135.189442,34.672226],[135.18893,34.672143],[135.189055,34.671776],[135.18928,34.671801],[135.18878,34.670818],[135.18853,34.67086],[135.18768,34.670393],[135.187643,34.670101],[135.186093,34.67011],[135.186093,34.670226],[135.185043,34.670226],[135.18503,34.670068],[135.183168,34.670068],[135.182268,34.67016],[135.182293,34.670376],[135.180793,34.670734],[135.177543,34.670418],[135.177518,34.670101],[135.177631,34.669918],[135.177606,34.66841],[135.178031,34.667901],[135.178156,34.667751],[135.177869,34.666868],[135.177956,34.664877],[135.178169,34.664843],[135.178681,34.664902],[135.179581,34.666693],[135.180456,34.667835],[135.182306,34.66806],[135.182381,34.668001],[135.187093,34.666877],[135.187043,34.666752],[135.18693,34.666227],[135.186643,34.665668],[135.182118,34.666818],[135.181706,34.665677],[135.186193,34.66441],[135.185755,34.663327],[135.181281,34.66446],[135.180956,34.663719],[135.183106,34.663152],[135.183218,34.662927],[135.182718,34.661735],[135.182568,34.661619],[135.179806,34.662302],[135.178644,34.663785],[135.177369,34.66376],[135.177406,34.663044],[135.177456,34.663019],[135.177956,34.66246],[135.178631,34.660744],[135.179831,34.658719],[135.180356,34.658311],[135.180618,34.657753],[135.180493,34.655503],[135.181268,34.655478],[135.182581,34.655545],[135.182756,34.656078],[135.182993,34.656686],[135.184081,34.659244],[135.184281,34.659261],[135.183856,34.658303],[135.183318,34.656744],[135.183643,34.656644],[135.183906,34.656503],[135.183568,34.656269],[135.183706,34.656219],[135.183831,34.656128],[135.184181,34.656053],[135.184281,34.655978],[135.184493,34.655895],[135.184656,34.65582],[135.184643,34.655728],[135.184581,34.655628],[135.184456,34.655436],[135.184306,34.65517],[135.184206,34.655011],[135.184156,34.654978],[135.184381,34.654911],[135.184556,34.654845],[135.184318,34.654103],[135.184843,34.653536],[135.185955,34.653378],[135.185905,34.65352],[135.185905,34.653603],[135.185905,34.653686],[135.185905,34.653803],[135.185918,34.653978],[135.185918,34.654111],[135.185893,34.654245],[135.18588,34.654353],[135.185868,34.65442],[135.18588,34.654595],[135.185893,34.654803],[135.18588,34.654961],[135.185868,34.655086],[135.18588,34.655236],[135.18588,34.65532],[135.18588,34.655503],[135.18588,34.655611],[135.185868,34.655678],[135.18588,34.65577],[135.18588,34.655895],[135.185893,34.656028],[135.185893,34.656136],[135.185968,34.656153],[135.186068,34.656111],[135.186068,34.656045],[135.186093,34.655953],[135.186093,34.655886],[135.186118,34.655736],[135.186118,34.65562],[135.186118,34.655536],[135.186118,34.655445],[135.18613,34.655286],[135.186105,34.65512],[135.186105,34.654995],[135.186105,34.654836],[135.18613,34.654645],[135.186143,34.654428],[135.186155,34.654186],[135.186193,34.653978],[135.186218,34.65382],[135.186193,34.65372],[135.186218,34.65357],[135.186205,34.65347],[135.18623,34.653353],[135.18623,34.653278],[135.186243,34.653287],[135.186693,34.65302],[135.186818,34.653045],[135.186993,34.652595],[135.186368,34.652053],[135.186455,34.651962],[135.183306,34.649379],[135.167182,34.647787],[135.150009,34.645912],[135.147509,34.64562],[135.139747,34.642429],[135.138122,34.641887],[135.136735,34.641329],[135.136535,34.641329],[135.135972,34.642204],[135.135797,34.641871],[135.135622,34.641887],[135.13416,34.641846],[135.134123,34.641062],[135.132098,34.641237],[135.13216,34.642429],[135.13116,34.642412],[135.131123,34.642479],[135.130898,34.642479],[135.130898,34.642387],[135.129898,34.642387],[135.12971,34.641896],[135.127898,34.642437],[135.126861,34.64257],[135.126598,34.642529],[135.126161,34.642395],[135.124948,34.641787],[135.124598,34.64172],[135.123336,34.642212],[135.122898,34.642262],[135.122234,34.642167],[135.121724,34.64222],[135.120749,34.642029],[135.120011,34.64177],[135.119436,34.641512],[135.119349,34.641879],[135.118999,34.641937],[135.117324,34.641987],[135.117236,34.642104],[135.116424,34.642112],[135.115762,34.642079],[135.114349,34.641862],[135.114237,34.641795],[135.112849,34.641545],[135.112199,34.641562],[135.111487,34.641395],[135.111374,34.641345],[135.111324,34.641395],[135.109762,34.641212],[135.109362,34.64112],[135.108162,34.640695],[135.1071,34.64037],[135.105175,34.639437],[135.1049,34.639345],[135.104113,34.638787],[135.102613,34.637454],[135.1024,34.637004],[135.101963,34.636887],[135.100876,34.636662],[135.098613,34.635887],[135.097663,34.635604],[135.093576,34.634762],[135.093089,34.634621],[135.092976,34.634896],[135.092876,34.635504],[135.092901,34.635637],[135.093576,34.636262],[135.093664,34.636446],[135.093701,34.63712],[135.093439,34.638004],[135.093101,34.638954],[135.092889,34.639787],[135.092864,34.640128],[135.093264,34.640853],[135.094151,34.641703],[135.094463,34.642345],[135.094538,34.643045],[135.094851,34.643911],[135.095376,34.645161],[135.095401,34.645344],[135.095888,34.645619],[135.096813,34.645953],[135.097551,34.646253],[135.098226,34.646736],[135.0992,34.647136],[135.099388,34.647253],[135.099413,34.647503],[135.09915,34.648378],[135.099338,34.648994],[135.099575,34.649219],[135.099925,34.649752],[135.10005,34.650361],[135.100663,34.651119],[135.101363,34.651869],[135.101413,34.652036],[135.100338,34.65311],[135.09855,34.651794],[135.097925,34.651602],[135.096888,34.65166],[135.095488,34.652069],[135.095651,34.652235],[135.095976,34.652194],[135.096001,34.65226],[135.095938,34.652444],[135.096076,34.652785],[135.096238,34.652785],[135.096376,34.652902],[135.095926,34.653327],[135.095563,34.653844],[135.094213,34.654618],[135.093213,34.655235],[135.092501,34.655777],[135.091913,34.656677],[135.091051,34.657001],[135.089351,34.657251],[135.089001,34.657585],[135.088351,34.65846],[135.087626,34.659318],[135.087126,34.660168],[135.086864,34.660868],[135.086826,34.661501],[135.086576,34.661793],[135.086314,34.662451],[135.086639,34.662792],[135.086851,34.663292],[135.086589,34.664192],[135.086426,34.664626],[135.086376,34.665392],[135.086151,34.66605],[135.085426,34.666625],[135.084576,34.666892],[135.083976,34.667109],[135.083676,34.666859],[135.082739,34.665534],[135.082226,34.664934],[135.080539,34.664575],[135.079139,34.665259],[135.078964,34.665367],[135.077877,34.665217],[135.077714,34.66495],[135.077564,34.664334],[135.077014,34.664625],[135.076702,34.665567],[135.076327,34.666134],[135.075965,34.666575],[135.076014,34.666967],[135.077052,34.667158],[135.077502,34.66685],[135.077689,34.666825],[135.078164,34.66765],[135.077702,34.667733],[135.077589,34.668117],[135.077552,34.668408],[135.077052,34.668767],[135.076714,34.669192],[135.076827,34.669558],[135.076902,34.66965],[135.077264,34.669916],[135.077539,34.670366],[135.077714,34.670425],[135.077977,34.67045],[135.077827,34.670558],[135.077564,34.670825],[135.077564,34.670891],[135.077727,34.671058],[135.078077,34.671],[135.078827,34.670691],[135.079577,34.670316],[135.080202,34.669916],[135.080589,34.669742],[135.081189,34.669858],[135.081739,34.6698],[135.082301,34.669917],[135.082639,34.670391],[135.082039,34.67145],[135.081801,34.672108],[135.081651,34.672966],[135.081239,34.673791],[135.080901,34.674174],[135.081014,34.674466],[135.081951,34.674874],[135.082826,34.675316],[135.084226,34.676249],[135.084139,34.676499],[135.084426,34.676774],[135.084364,34.677457],[135.084276,34.677616],[135.083614,34.677874],[135.083489,34.678257],[135.083451,34.678307],[135.083364,34.678332],[135.083176,34.678316],[135.082889,34.678216],[135.081689,34.677791],[135.081289,34.677624],[135.080976,34.677482],[135.080751,34.677374],[135.080526,34.677224],[135.080301,34.677091],[135.079389,34.677116],[135.078614,34.677074],[135.078202,34.676432],[135.077527,34.675974],[135.077377,34.675766],[135.077277,34.675624],[135.077214,34.675483],[135.077014,34.675183],[135.076852,34.675016],[135.076652,34.674883],[135.076464,34.674799],[135.076452,34.674841],[135.076339,34.674949],[135.076027,34.675158],[135.075877,34.675341],[135.075739,34.675591],[135.075539,34.676066],[135.075389,34.676374],[135.075277,34.676582],[135.074589,34.677291],[135.074364,34.677557],[135.072627,34.679599],[135.07214,34.680299],[135.071727,34.680974],[135.071415,34.681598],[135.071265,34.682048],[135.071177,34.682348],[135.067615,34.68204],[135.067552,34.683632],[135.06814,34.68424],[135.069702,34.685965],[135.069752,34.686031],[135.069752,34.686231],[135.07039,34.687015],[135.070565,34.687298],[135.07064,34.687481],[135.070727,34.687881],[135.070727,34.688231],[135.070377,34.688406],[135.069465,34.688481],[135.06904,34.688481],[135.068752,34.688623],[135.06814,34.688948],[135.067677,34.689181],[135.067127,34.689339],[135.066765,34.689439],[135.066227,34.689748],[135.066115,34.689939],[135.06569,34.690922],[135.065665,34.691056],[135.065952,34.691106],[135.066052,34.691156],[135.06614,34.691281],[135.066177,34.691364],[135.06669,34.691606],[135.066777,34.691956],[135.06744,34.692231],[135.06824,34.692497],[135.068302,34.692531],[135.068627,34.692839],[135.068652,34.693072],[135.068415,34.693456],[135.06854,34.693572],[135.068952,34.693506],[135.069202,34.693347],[135.06929,34.693297],[135.06939,34.693264],[135.069627,34.693306],[135.07014,34.693489],[135.070777,34.693439],[135.070902,34.693422],[135.070902,34.693214],[135.070902,34.693131],[135.070989,34.693006],[135.071352,34.692681],[135.071502,34.692622],[135.071564,34.692489],[135.071564,34.692339],[135.071627,34.692214],[135.071802,34.692089],[135.071864,34.691956],[135.071952,34.691872],[135.072252,34.691797],[135.072602,34.691631],[135.072914,34.691456],[135.073077,34.691347],[135.073289,34.691206],[135.073502,34.691164],[135.073789,34.691231],[135.074089,34.691422],[135.074827,34.691906],[135.075189,34.692122],[135.075589,34.692381],[135.075789,34.692489],[135.076002,34.692464],[135.077289,34.691106],[135.077451,34.691006],[135.077564,34.690964],[135.077701,34.691056],[135.077939,34.691181],[135.078139,34.691231],[135.078239,34.691198],[135.078501,34.691039],[135.078651,34.690864],[135.078664,34.690773],[135.078664,34.690581],[135.078701,34.690531],[135.078951,34.690356],[135.079176,34.690273],[135.079601,34.690089],[135.079851,34.689998],[135.080076,34.689806],[135.080176,34.689698],[135.080251,34.689598],[135.080501,34.689556],[135.080639,34.689523],[135.080776,34.689539],[135.080976,34.689589],[135.081189,34.689714],[135.081426,34.689856],[135.081539,34.689973],[135.081789,34.690256],[135.081876,34.690314],[135.082251,34.690589],[135.082226,34.691356],[135.082401,34.691747],[135.082563,34.691872],[135.082801,34.691989],[135.083013,34.691989],[135.083538,34.691814],[135.084313,34.691706],[135.085126,34.691989],[135.086163,34.692289],[135.087451,34.692106],[135.088113,34.691931],[135.089313,34.691864],[135.089988,34.692264],[135.090538,34.692797],[135.091475,34.692906],[135.092713,34.692839],[135.093125,34.693114],[135.093238,34.693606],[135.093188,34.694139],[135.094038,34.694872],[135.0944,34.695556],[135.094625,34.696739],[135.094937,34.69783],[135.095137,34.698739],[135.09505,34.699288],[135.0935,34.701347],[135.092837,34.702321],[135.0928,34.702755],[135.093062,34.703121],[135.0936,34.703538],[135.093862,34.70398],[135.094325,34.704371],[135.093187,34.706229],[135.093112,34.706546],[135.092887,34.706904],[135.0925,34.707371],[135.09215,34.707887],[135.090887,34.708087],[135.0908,34.708204],[135.091512,34.708996],[135.0919,34.709562],[135.0921,34.709646],[135.092275,34.709654],[135.092687,34.709546],[135.093212,34.709787],[135.093762,34.711237],[135.094175,34.71172],[135.094175,34.712045],[135.09395,34.712537],[135.093412,34.713187],[135.093387,34.713454],[135.09325,34.715945],[135.093112,34.71667],[135.093437,34.716995],[135.09335,34.71747],[135.092475,34.71822],[135.092387,34.718736],[135.092087,34.719544],[135.091975,34.719769],[135.091325,34.720486],[135.090525,34.720811],[135.089712,34.721361],[135.0889,34.722111],[135.08825,34.723011],[135.087662,34.723252],[135.08755,34.723336],[135.087487,34.723452],[135.087425,34.723561],[135.087425,34.723702],[135.087562,34.724027],[135.0875,34.724102],[135.087262,34.724219],[135.0865,34.724219],[135.085538,34.724702],[135.085425,34.725419],[135.0852,34.725652],[135.084525,34.725794],[135.084438,34.725885],[135.0845,34.726002],[135.0845,34.726135],[135.084388,34.726235],[135.084238,34.726277],[135.084163,34.726394],[135.084438,34.726744],[135.085,34.727027],[135.085712,34.727127],[135.086437,34.727643],[135.086675,34.728552],[135.08725,34.729218],[135.087437,34.72931],[135.088925,34.729202],[135.08985,34.729377],[135.090312,34.730068],[135.090887,34.730485],[135.091149,34.730627],[135.091862,34.730993],[135.092962,34.73146],[135.093712,34.73161],[135.093849,34.731576],[135.094074,34.730518],[135.094212,34.730227],[135.094687,34.729668],[135.095612,34.72941],[135.095662,34.729368],[135.095887,34.729227],[135.096062,34.72896],[135.096237,34.728677],[135.096649,34.728352],[135.096812,34.728244],[135.096912,34.728402],[135.096887,34.728694],[135.096962,34.729243],[135.097161,34.729835],[135.098086,34.731843],[135.098099,34.732235],[135.097924,34.732493],[135.097486,34.73286],[135.097186,34.733276],[135.096824,34.733885],[135.096874,34.734418],[135.097111,34.735409],[135.097424,34.736309],[135.097711,34.736559],[135.098311,34.736876],[135.098636,34.737376],[135.098799,34.737818],[135.098874,34.738093],[135.098574,34.738201],[135.096811,34.739259],[135.095661,34.739526],[135.094549,34.739867],[135.093749,34.740309],[135.093787,34.740584],[135.094774,34.741892],[135.095649,34.742242],[135.095499,34.742375],[135.095161,34.742959],[135.095111,34.743683],[135.094699,34.743717],[135.093974,34.744208],[135.093449,34.744758],[135.093262,34.745192],[135.093349,34.745283],[135.093549,34.745983],[135.093274,34.747341],[135.092999,34.748333],[135.092737,34.748816],[135.092199,34.749199],[135.091712,34.749749],[135.091562,34.750091],[135.090924,34.752249],[135.090612,34.753124],[135.090549,34.753241],[135.090449,34.753457],[135.090424,34.753666],[135.090512,34.753932],[135.090537,34.754249],[135.090512,34.754291],[135.090062,34.754449],[135.089012,34.754682],[135.088549,34.75484],[135.088274,34.754999],[135.088049,34.755224],[135.087862,34.755924],[135.087837,34.756332],[135.087862,34.756765],[135.087812,34.757148],[135.087749,34.757232],[135.086837,34.75769],[135.08665,34.757848],[135.086237,34.758982],[135.0861,34.759248],[135.085987,34.75934],[135.0858,34.759407],[135.085437,34.759456],[135.084937,34.759431],[135.083887,34.759323],[135.083437,34.75919],[135.083162,34.759032],[135.082987,34.758673],[135.08285,34.758515],[135.082575,34.758473],[135.0823,34.75854],[135.082075,34.758657],[135.081862,34.758698],[135.081525,34.758632],[135.081275,34.758432],[135.081,34.75814],[135.080825,34.758073],[135.0806,34.758048],[135.080363,34.758182],[135.079363,34.75934],[135.07895,34.759723],[135.078675,34.76004],[135.07835,34.760806],[135.078238,34.761281],[135.0778,34.762031],[135.07755,34.762506],[135.077525,34.762956],[135.07755,34.763381],[135.077513,34.764623],[135.0774,34.764872],[135.07695,34.764872],[135.076538,34.764831],[135.075563,34.764831],[135.074763,34.764772],[135.073426,34.764614],[135.072713,34.764414],[135.070651,34.763948],[135.070076,34.763656],[135.068901,34.763139],[135.068463,34.762898],[135.067601,34.762581],[135.067101,34.762514],[135.066464,34.762606],[135.066051,34.762698],[135.065251,34.763023],[135.064851,34.763023],[135.064214,34.762956],[135.063551,34.763206],[135.063226,34.763389],[135.062976,34.763706],[135.062726,34.763814],[135.062476,34.763839],[135.062139,34.763956],[135.061902,34.764089],[135.062176,34.764206],[135.062364,34.764339],[135.062451,34.764497],[135.062676,34.764672],[135.063264,34.765106],[135.063651,34.765172],[135.064064,34.765189],[135.064426,34.765281],[135.064589,34.765372],[135.064726,34.765664],[135.065064,34.766181],[135.065064,34.766431],[135.065014,34.766722],[135.065014,34.767039],[135.065101,34.767264],[135.065376,34.767397],[135.065826,34.767489],[135.066214,34.767689],[135.066764,34.767839],[135.068101,34.76768],[135.069426,34.767447],[135.069651,34.767472],[135.070513,34.768097],[135.070738,34.768397],[135.070876,34.768705],[135.070988,34.768847],[135.071213,34.768914],[135.071713,34.768955],[135.072126,34.769064],[135.072426,34.769289],[135.072813,34.769447],[135.07365,34.769672],[135.074375,34.770189],[135.074988,34.770589],[135.0756,34.77088],[135.076238,34.770989],[135.077463,34.77108],[135.0779,34.771055],[135.078287,34.771164],[135.078312,34.771372],[135.078212,34.771797],[135.07775,34.772997],[135.077588,34.773713],[135.0777,34.773988],[135.07795,34.774147],[135.078612,34.774213],[135.078975,34.774321],[135.079387,34.774521],[135.079525,34.774655],[135.081087,34.776455],[135.081287,34.776771],[135.081512,34.777046],[135.08165,34.777379],[135.081675,34.777763],[135.082375,34.778146],[135.08265,34.778396],[135.083124,34.778638],[135.083487,34.778638],[135.083737,34.778588],[135.084012,34.778613],[135.085099,34.778996],[135.086174,34.779196],[135.086312,34.779146],[135.086974,34.778629],[135.087199,34.778713],[135.087449,34.778763],[135.087562,34.778713],[135.087587,34.778671],[135.087812,34.778554],[135.088424,34.778529],[135.088674,34.778713],[135.088749,34.778713],[135.090474,34.779129],[135.091411,34.778904],[135.091774,34.778854],[135.091886,34.778813],[135.092411,34.778379],[135.092749,34.778271],[135.093024,34.778271],[135.093436,34.778404],[135.093799,34.778554],[135.094748,34.778713],[135.094273,34.779163],[135.093886,34.780004],[135.093561,34.780338],[135.093014,34.781423],[135.092786,34.781746],[135.092761,34.781987],[135.092824,34.782529],[135.093299,34.783187],[135.093299,34.783504],[135.093224,34.784021],[135.093111,34.78422],[135.092836,34.784404],[135.092749,34.784537],[135.092536,34.785512],[135.092561,34.785604],[135.093011,34.785737],[135.093536,34.785962],[135.093898,34.78627],[135.094123,34.786387],[135.094898,34.786204],[135.095423,34.786179],[135.095836,34.786312],[135.09998,34.788268],[135.106919,34.791504],[135.112085,34.793296],[135.117063,34.795301],[135.120318,34.796215],[135.125495,34.79584],[135.129385,34.796268],[135.132201,34.796856],[135.136815,34.796856],[135.142783,34.796561],[135.1486,34.795561],[135.150579,34.795889],[135.154422,34.796526],[135.158162,34.796526],[135.161615,34.797197],[135.163509,34.798036],[135.164373,34.798922],[135.164796,34.802275],[135.164796,34.809601],[135.16557,34.81824],[135.164932,34.826189],[135.164538,34.831256],[135.163102,34.833758],[135.159487,34.83627],[135.15858,34.837861],[135.15858,34.841611],[135.15858,34.85022],[135.15858,34.854516],[135.159676,34.857713],[135.159676,34.862181],[135.160133,34.866873],[135.160821,34.871225],[135.160821,34.878205],[135.161409,34.880185],[135.16336,34.881546],[135.166549,34.883031],[135.167044,34.884145],[135.167044,34.885599],[135.166292,34.889037],[135.165329,34.889129],[135.164942,34.889196],[135.164567,34.889304],[135.163192,34.890045],[135.162917,34.89027],[135.162454,34.890812],[135.162117,34.891328],[135.161842,34.89162],[135.161355,34.892003],[135.16108,34.89227],[135.160592,34.892928],[135.160005,34.893445],[135.15968,34.893645],[135.159405,34.893911],[135.15933,34.894161],[135.159355,34.89477],[135.159542,34.895445],[135.159567,34.895786],[135.159542,34.896394],[135.159342,34.896978],[135.159317,34.897569],[135.159342,34.897744],[135.159317,34.898128],[135.159267,34.898336],[135.159017,34.898469],[135.158655,34.898552],[135.157867,34.898669],[135.15773,34.898761],[135.157705,34.898961],[135.15778,34.899569],[135.157805,34.900061],[135.157667,34.900336],[135.15748,34.900585],[135.156792,34.900852],[135.15628,34.901302],[135.156355,34.90211],[135.156305,34.902385],[135.15633,34.902635],[135.15663,34.903177],[135.156705,34.903468],[135.156705,34.903827],[135.156842,34.904102],[135.157142,34.904368],[135.15723,34.904527],[135.157167,34.90471],[135.157167,34.905027],[135.15728,34.905568],[135.15728,34.906127],[135.157167,34.906602],[135.157005,34.906893],[135.156617,34.907318],[135.156967,34.907951],[135.157005,34.908201],[135.156967,34.908493],[135.156867,34.908835],[135.156667,34.90906],[135.15643,34.90926],[135.156092,34.909351],[135.15588,34.909435],[135.15538,34.910384],[135.15533,34.910651],[135.155355,34.910884],[135.155492,34.911176],[135.15568,34.911376],[135.155767,34.911784],[135.15563,34.912034],[135.155492,34.912168],[135.155242,34.912276],[135.154942,34.912343],[135.154555,34.912393],[135.152892,34.912634],[135.15258,34.912634],[135.152142,34.912492],[135.15173,34.913576],[135.151542,34.913917],[135.151317,34.914117],[135.151105,34.914226],[135.150667,34.914384],[135.150555,34.914475],[135.150467,34.915217],[135.15028,34.91565],[135.150192,34.915917],[135.15023,34.916259],[135.15033,34.91655],[135.15053,34.916842],[135.150792,34.917117],[135.15118,34.917384],[135.151892,34.917859],[135.152142,34.918359],[135.152355,34.918425],[135.152767,34.918675],[135.152955,34.9189],[135.153142,34.919467],[135.153092,34.919559],[135.152355,34.919667],[135.152105,34.919775],[135.151955,34.919892],[135.151655,34.920375],[135.151617,34.920859],[135.151505,34.921134],[135.151455,34.921384],[135.151517,34.92155],[135.151442,34.921742],[135.151317,34.921925],[135.151255,34.922208],[135.151292,34.92255],[135.152005,34.92355],[135.152455,34.923833],[135.152805,34.924267],[135.152955,34.924608],[135.152942,34.924958],[135.152642,34.925792],[135.152255,34.926175],[135.151592,34.926692],[135.15133,34.926958],[135.151167,34.927467],[135.15098,34.927742],[135.150767,34.928125],[135.15043,34.928658],[135.15028,34.929041],[135.149993,34.929383],[135.149618,34.929608],[135.149305,34.929841],[135.149168,34.930108],[135.149043,34.931349],[135.148855,34.931766],[135.148218,34.932516],[135.148018,34.932866],[135.147993,34.932991],[135.14813,34.933616],[135.148018,34.933849],[135.147768,34.934166],[135.14768,34.934566],[135.14768,34.934982],[135.147743,34.935449],[135.147693,34.936416],[135.14773,34.936882],[135.14783,34.937291],[135.14803,34.937649],[135.148193,34.938657],[135.148105,34.938882],[135.14753,34.939449],[135.147455,34.939757],[135.147468,34.940132],[135.14753,34.940424],[135.147518,34.940765],[135.147305,34.941182],[135.14703,34.941573],[135.146743,34.94184],[135.146355,34.942007],[135.146243,34.942098],[135.145843,34.942723],[135.145668,34.942832],[135.145405,34.942848],[135.145105,34.942807],[135.14458,34.942915],[135.144218,34.942823],[135.14348,34.942673],[135.14328,34.942573],[135.142918,34.942515],[135.142693,34.942406],[135.14233,34.942348],[135.14198,34.942373],[135.141643,34.942215],[135.141468,34.941948],[135.141143,34.94169],[135.140206,34.94139],[135.140181,34.941156],[135.140318,34.940523],[135.140531,34.940232],[135.140556,34.940107],[135.140506,34.939607],[135.140568,34.939315],[135.140556,34.939032],[135.140331,34.938923],[135.139581,34.93889],[135.139256,34.938815],[135.138806,34.938548],[135.138368,34.938457],[135.138093,34.938465],[135.137943,34.93859],[135.137681,34.938665],[135.136918,34.938223],[135.135881,34.938015],[135.134768,34.937848],[135.134181,34.937556],[135.133531,34.937365],[135.132581,34.936973],[135.132044,34.936448],[135.131056,34.935765],[135.130644,34.935598],[135.129606,34.935065],[135.129419,34.934998],[135.129031,34.934915],[135.128669,34.934956],[135.127869,34.934531],[135.127219,34.934498],[135.126794,34.934448],[135.126369,34.934248],[135.124457,34.933231],[135.124307,34.932756],[135.123869,34.932281],[135.123782,34.931998],[135.123619,34.931731],[135.123357,34.931631],[135.123219,34.93144],[135.122744,34.931156],[135.122632,34.930648],[135.122457,34.930348],[135.122231,34.930088],[135.122157,34.929973],[135.121982,34.929856],[135.121907,34.929656],[135.121732,34.929323],[135.121482,34.929215],[135.121382,34.929231],[135.121019,34.92924],[135.120669,34.929306],[135.119932,34.929356],[135.119594,34.929315],[135.118944,34.92929],[135.118469,34.929098],[135.118194,34.928915],[135.117944,34.928806],[135.118057,34.928773],[135.11612,34.928639],[135.115845,34.928681],[135.115045,34.928439],[135.113807,34.928131],[135.112932,34.927981],[135.112607,34.927981],[135.112307,34.928048],[135.111407,34.929156],[135.110895,34.929498],[135.110408,34.929656],[135.109083,34.929798],[135.108708,34.929781],[135.108383,34.929806],[135.10772,34.929764],[135.107533,34.929714],[135.107445,34.929806],[135.106995,34.930889],[135.106908,34.931181],[135.106508,34.932039],[135.105046,34.935822],[135.104633,34.936589],[135.104446,34.936814],[135.104096,34.937081],[135.103821,34.937464],[135.103721,34.937806],[135.103746,34.938181],[135.103833,34.938472],[135.104346,34.939506],[135.104371,34.939597],[135.104258,34.939914],[135.103833,34.940431],[135.103233,34.940947],[135.103021,34.941172],[135.102771,34.941672],[135.102696,34.941989],[135.102621,34.942597],[135.102459,34.943247],[135.102246,34.943805],[135.102221,34.944014],[135.102246,34.944239],[135.102234,34.944614],[135.102096,34.944864],[135.102184,34.94538],[135.102159,34.945964],[135.102321,34.946214],[135.102571,34.946255],[135.102821,34.94623],[135.103146,34.946139],[135.103696,34.946314],[135.103646,34.946722],[135.103546,34.947189],[135.103658,34.947639],[135.103433,34.947822],[135.102996,34.947955],[135.102484,34.948189],[135.101771,34.94828],[135.101371,34.948688],[135.101009,34.948938],[135.100796,34.94898],[135.100271,34.948963],[135.099346,34.949213],[135.098959,34.949263],[135.098659,34.949238],[135.097859,34.949113],[135.097159,34.94923],[135.096772,34.949322],[135.096284,34.949505],[135.096147,34.949522],[135.096309,34.94988],[135.096284,34.950397],[135.095997,34.951005],[135.095534,34.95153],[135.095072,34.951955],[135.094909,34.95218],[135.094747,34.952763],[135.094622,34.95308],[135.094322,34.953555],[135.093859,34.95403],[135.093722,34.954096],[135.093784,34.954296],[135.093734,34.954596],[135.093647,34.954771],[135.093547,34.95513],[135.093172,34.955963],[135.092897,34.95633],[135.09266,34.956713],[135.092572,34.957071],[135.092672,34.957896],[135.09271,34.958979],[135.092684,34.959896],[135.092772,34.960504],[135.093022,34.960904],[135.093159,34.961246],[135.093172,34.961779],[135.093047,34.963221],[135.092922,34.964004],[135.093547,34.963512],[135.093822,34.963354],[135.094847,34.962854],[135.095472,34.962421],[135.096097,34.961679],[135.096696,34.960863],[135.096884,34.960663],[135.096996,34.960613],[135.097321,34.960279],[135.097646,34.959713],[135.097884,34.959354],[135.098209,34.958988],[135.098621,34.958763],[135.099021,34.958579],[135.099496,34.958446],[135.099871,34.958263],[135.100284,34.95813],[135.101109,34.95808],[135.101383,34.958255],[135.101596,34.958655],[135.101771,34.958813],[135.102008,34.958838],[135.102258,34.958946],[135.102671,34.959055],[135.103008,34.959238],[135.103521,34.959413],[135.103971,34.959655],[135.104458,34.95983],[135.104983,34.960188],[135.105808,34.960563],[135.106795,34.960921],[135.107133,34.961071],[135.10732,34.961121],[135.10862,34.961604],[135.108833,34.961646],[135.10922,34.961913],[135.109358,34.962254],[135.10972,34.962613],[135.110132,34.962788],[135.110357,34.962804],[135.110732,34.962763],[135.111032,34.962763],[135.112057,34.963179],[135.113045,34.963463],[135.11357,34.963754],[135.11362,34.963871],[135.113595,34.964296],[135.113795,34.964429],[135.114482,34.964713],[135.114757,34.964763],[135.115169,34.964713],[135.115844,34.964504],[135.116069,34.964329],[135.116357,34.963446],[135.116657,34.962704],[135.116819,34.962596],[135.117219,34.962454],[135.118094,34.962246],[135.118394,34.962138],[135.118594,34.96198],[135.118782,34.96173],[135.119044,34.961121],[135.119282,34.960555],[135.119457,34.960688],[135.119482,34.96078],[135.119694,34.960555],[135.120157,34.96033],[135.120569,34.959988],[135.121344,34.958705],[135.121594,34.958363],[135.121994,34.957913],[135.122082,34.957622],[135.121969,34.95713],[135.121907,34.95708],[135.121819,34.956813],[135.121757,34.956205],[135.121644,34.955872],[135.121669,34.955755],[135.121782,34.955622],[135.122107,34.955422],[135.122231,34.955402],[135.123132,34.955047],[135.123494,34.954963],[135.123956,34.955072],[135.125231,34.955655],[135.125756,34.955805],[135.126744,34.955897],[135.127006,34.955997],[135.127219,34.956297],[135.127394,34.956663],[135.127631,34.957005],[135.128381,34.957397],[135.128606,34.957463],[135.128706,34.957463],[135.129094,34.957563],[135.129406,34.957838],[135.129606,34.958213],[135.130118,34.959463],[135.130368,34.959796],[135.130831,34.960046],[135.131018,34.96043],[135.131018,34.960805],[135.131156,34.961038],[135.131418,34.961313],[135.131706,34.961738],[135.131693,34.961896],[135.131356,34.962205],[135.131518,34.962363],[135.131868,34.962588],[135.132343,34.963155],[135.132556,34.96363],[135.133256,34.964646],[135.133718,34.964871],[135.134618,34.965179],[135.13493,34.965346],[135.135218,34.965563],[135.135568,34.965696],[135.135855,34.965946],[135.13618,34.966388],[135.13618,34.966788],[135.136255,34.967079],[135.136405,34.967229],[135.136955,34.967388],[135.13738,34.967813],[135.137618,34.967871],[135.138043,34.967879],[135.138455,34.968063],[135.138793,34.968671],[135.139143,34.969013],[135.13958,34.969513],[135.139918,34.970221],[135.13993,34.971046],[135.139892,34.971513],[135.139942,34.971863],[135.140642,34.972587],[135.140817,34.973187],[135.140767,34.973887],[135.141055,34.974304],[135.14123,34.974971],[135.141242,34.975204],[135.140717,34.975629],[135.140367,34.976004],[135.14008,34.976404],[135.139855,34.976804],[135.139655,34.977362],[135.13948,34.97767],[135.13913,34.977962],[135.138442,34.978429],[135.13833,34.978587],[135.138317,34.978687],[135.138667,34.979145],[135.138967,34.979445],[135.13918,34.979837],[135.139267,34.980295],[135.13928,34.980837],[135.139392,34.98107],[135.139605,34.981403],[135.139767,34.981878],[135.139792,34.982262],[135.139717,34.982687],[135.139192,34.983745],[135.139167,34.983953],[135.139242,34.985336],[135.13908,34.985678],[135.138992,34.986086],[135.13898,34.986545],[135.13903,34.986703],[135.13918,34.987528],[135.139355,34.987836],[135.139567,34.988128],[135.139617,34.988519],[135.139505,34.989894],[135.139542,34.989911],[135.139517,34.989944],[135.14008,34.990203],[135.14058,34.990503],[135.14093,34.990769],[135.141405,34.991453],[135.141892,34.991769],[135.142605,34.991944],[135.143092,34.992111],[135.143442,34.992319],[135.144979,34.992336],[135.145604,34.992386],[135.145942,34.992295],[135.146117,34.99202],[135.146629,34.991861],[135.147604,34.991445],[135.147979,34.991387],[135.148329,34.991295],[135.148604,34.99082],[135.148767,34.990403],[135.149217,34.990012],[135.149616,34.989745],[135.149816,34.989487],[135.149841,34.989054],[135.149991,34.988737],[135.150491,34.988495],[135.150891,34.988479],[135.151466,34.988637],[135.152016,34.988829],[135.152166,34.988854],[135.152704,34.98877],[135.153591,34.988721],[135.154066,34.988771],[135.155603,34.989079],[135.156053,34.989046],[135.156153,34.989004],[135.156403,34.988787],[135.156578,34.988454],[135.156753,34.988262],[135.157141,34.988046],[135.157341,34.987846],[135.157628,34.987713],[135.157891,34.987763],[135.158191,34.987879],[135.158441,34.987871],[135.158866,34.987946],[135.160266,34.988554],[135.160716,34.988838],[135.161091,34.989204],[135.161303,34.989563],[135.16139,34.990596],[135.161753,34.990913],[135.161865,34.990954],[135.162215,34.991213],[135.162615,34.991654],[135.163315,34.992604],[135.163965,34.993379],[135.16419,34.995162],[135.164115,34.995562],[135.16444,34.996196],[135.164428,34.996995],[135.164565,34.997279],[135.16464,34.997562],[135.164453,34.99797],[135.16444,34.998287],[135.164515,34.998695],[135.164978,34.999637],[135.165253,35.000087],[135.16599,35.000403],[135.16619,35.000662],[135.166265,35.001037],[135.166365,35.00117],[135.166877,35.001045],[135.16774,35.000687],[135.167777,35.000628],[135.16779,35.000145],[135.167965,34.999787],[135.16869,34.998678],[135.169027,34.998104],[135.169877,34.99592],[135.17009,34.995504],[135.170165,34.99542],[135.170315,34.995437],[135.17139,34.995804],[135.172552,34.99612],[135.173089,34.995912],[135.173502,34.99592],[135.173764,34.996045],[135.174139,34.996295],[135.175064,34.996554],[135.175477,34.997112],[135.175889,34.997337],[135.176377,34.997537],[135.176702,34.997728],[135.176952,34.998003],[135.177077,34.998228],[135.176952,34.998545],[135.176602,34.99887],[135.175852,34.999362],[135.175727,34.999595],[135.175627,34.999912],[135.174927,35.00067],[135.174839,35.000828],[135.174764,35.00117],[135.174827,35.001453],[135.175027,35.001561],[135.175164,35.00172],[135.175139,35.001953],[135.175177,35.002236],[135.175314,35.002536],[135.175414,35.00297],[135.175339,35.00322],[135.175264,35.003378],[135.175202,35.004211],[135.175364,35.005186],[135.175339,35.005519],[135.175289,35.005678],[135.175227,35.006469],[135.175127,35.006761],[135.175039,35.007344],[135.175101,35.007619],[135.175289,35.007819],[135.175426,35.008136],[135.175451,35.008519],[135.175426,35.008877],[135.175476,35.009102],[135.175564,35.009152],[135.175676,35.009127],[135.176276,35.008836],[135.176614,35.008694],[135.177051,35.008652],[135.177601,35.008744],[135.177839,35.008811],[135.178339,35.008877],[135.178701,35.008827],[135.179026,35.008719],[135.179214,35.008719],[135.179326,35.008827],[135.179351,35.009102],[135.179763,35.009461],[135.179826,35.009644],[135.179738,35.009819],[135.179763,35.010002],[135.180076,35.010319],[135.180926,35.010811],[135.181176,35.010902],[135.181913,35.010677],[135.182463,35.010652],[135.183088,35.010677],[135.183226,35.010786],[135.183401,35.011536],[135.183613,35.01196],[135.184325,35.012902],[135.1848,35.01356],[135.184963,35.013694],[135.1854,35.013735],[135.186063,35.013985],[135.186338,35.014169],[135.1865,35.014369],[135.186888,35.01446],[135.187388,35.014502],[135.187788,35.014477],[135.188262,35.014369],[135.188812,35.014302],[135.188862,35.015202],[135.18925,35.01606],[135.189525,35.016369],[135.189887,35.01666],[135.190237,35.016818],[135.190712,35.016935],[135.191449,35.017027],[135.191724,35.017227],[135.192324,35.017877],[135.192462,35.018152],[135.192662,35.018418],[135.192937,35.018668],[135.193049,35.018843],[135.193012,35.019118],[135.193049,35.019502],[135.193674,35.020627],[135.194062,35.021168],[135.194287,35.021551],[135.194699,35.022068],[135.194699,35.02216],[135.194561,35.022451],[135.194586,35.022701],[135.194774,35.023035],[135.195499,35.023851],[135.195686,35.02416],[135.195711,35.02441],[135.195549,35.024684],[135.195111,35.025334],[135.195111,35.025584],[135.195199,35.025918],[135.195411,35.026168],[135.195911,35.026526],[135.196349,35.026751],[135.196649,35.027001],[135.196874,35.027268],[135.197011,35.027268],[135.197699,35.027068],[135.198024,35.027068],[135.198361,35.027226],[135.198686,35.027493],[135.199011,35.027651],[135.199261,35.027609],[135.199599,35.027334],[135.199761,35.027018],[135.200036,35.026143],[135.200248,35.025851],[135.200586,35.025734],[135.200886,35.025759],[135.201461,35.026159],[135.201736,35.026076],[135.202561,35.025443],[135.202811,35.025309],[135.203048,35.025376],[135.203598,35.025893],[135.203936,35.026051],[135.204286,35.026159],[135.204598,35.026318],[135.204923,35.026676],[135.205036,35.026726],[135.205448,35.026701],[135.205861,35.026726],[135.206548,35.026876],[135.207035,35.027059],[135.207423,35.027126],[135.207723,35.027126],[135.208223,35.026876],[135.209648,35.026268],[135.210035,35.026176],[135.21036,35.026268],[135.21121,35.026993],[135.211623,35.027076],[135.211985,35.027101],[135.212285,35.027209],[135.212648,35.027576],[135.212947,35.027684],[135.213472,35.027576],[135.213885,35.027526],[135.214135,35.027618],[135.214597,35.028809],[135.21476,35.029667],[135.21496,35.029801],[135.21531,35.029892],[135.215835,35.030092],[135.215947,35.030317],[135.216035,35.030634],[135.21611,35.030751],[135.216472,35.031059],[135.216747,35.031401],[135.21696,35.031809],[135.217022,35.032275],[135.218535,35.033767],[135.218722,35.034009],[135.218722,35.034259],[135.218422,35.034775],[135.218647,35.035092],[135.219472,35.035209],[135.220272,35.035292],[135.220459,35.03525],[135.220597,35.035092],[135.220684,35.03455],[135.220672,35.034125],[135.220809,35.033692],[135.220922,35.033134],[135.221084,35.032634],[135.221334,35.0323],[135.222047,35.031534],[135.222459,35.030517],[135.222872,35.030176],[135.223309,35.030134],[135.224734,35.030067],[135.225209,35.029976],[135.225647,35.029726],[135.226059,35.029434],[135.226409,35.029051],[135.226859,35.028484],[135.227022,35.028351],[135.227097,35.028326],[135.227509,35.028417],[135.227897,35.028601],[135.228234,35.028709],[135.228559,35.028709],[135.228947,35.028576],[135.229322,35.028509],[135.229684,35.028576],[135.230046,35.028684],[135.230459,35.028659],[135.230896,35.028484],[135.231446,35.028301],[135.231859,35.028234],[135.232184,35.028276],[135.232371,35.028367],[135.232546,35.028501],[135.233171,35.028659],[135.233584,35.028792],[135.233971,35.028884],[135.235071,35.028726],[135.235296,35.028726],[135.235434,35.028842],[135.235534,35.029084],[135.235621,35.029426],[135.235646,35.029742],[135.235509,35.029901],[135.235184,35.030059],[135.234934,35.030351],[135.234959,35.030526],[135.235509,35.030642],[135.235734,35.030976],[135.235759,35.032259],[135.235896,35.032559],[135.236171,35.032917],[135.236371,35.0333],[135.236483,35.033634],[135.236483,35.03395],[135.236321,35.034242],[135.236346,35.03445],[135.236871,35.035009],[135.237446,35.036],[135.237771,35.036408],[135.238458,35.036875],[135.238958,35.0371],[135.239046,35.0371],[135.239146,35.037017],[135.239283,35.036742],[135.239371,35.036408],[135.239996,35.035617],[135.240358,35.035275],[135.241233,35.034692],[135.241646,35.034442],[135.242008,35.034284],[135.242145,35.0344],[135.242333,35.034825],[135.242608,35.035092],[135.242883,35.035209],[135.243708,35.034892],[135.24362,35.034392],[135.243708,35.0341],[135.243795,35.033992],[135.243895,35.033634],[135.24392,35.033267],[135.24412,35.032867],[135.244395,35.032567],[135.245133,35.032234],[135.245158,35.032025],[135.245083,35.031717],[135.245083,35.031534],[135.245183,35.031017],[135.24507,35.030726],[135.244795,35.030476],[135.244583,35.030209],[135.24442,35.029826],[135.244308,35.029234],[135.244583,35.029142],[135.24502,35.029059],[135.24532,35.028917],[135.24562,35.028717],[135.246258,35.028467],[135.246945,35.028267],[135.247158,35.028242],[135.247218,35.028165],[135.247308,35.028167],[135.248745,35.027376],[135.249345,35.026968],[135.249895,35.026718],[135.250307,35.026451],[135.250582,35.026226],[135.250857,35.025934],[135.251157,35.025684],[135.252007,35.025234],[135.252032,35.025143],[135.251845,35.024984],[135.25152,35.024801],[135.251132,35.024668],[135.24992,35.02411],[135.249645,35.023835],[135.249345,35.02366],[135.248795,35.023293],[135.248683,35.023093],[135.248795,35.022935],[135.249295,35.022826],[135.251545,35.022685],[135.251982,35.022593],[135.252945,35.022101],[135.253407,35.021801],[135.253682,35.021468],[135.25377,35.02111],[135.25382,35.020568],[135.25427,35.018852],[135.25467,35.018402],[135.254945,35.017993],[135.254845,35.017135],[135.254807,35.016619],[135.254595,35.015944],[135.25437,35.015677],[135.25407,35.01556],[135.253858,35.01556],[135.253745,35.01561],[135.253058,35.015769],[135.25272,35.015744],[135.252308,35.015785],[135.251845,35.016169],[135.251845,35.016035],[135.25162,35.015769],[135.25157,35.015544],[135.251733,35.015202],[135.252508,35.013919],[135.252858,35.013694],[135.253383,35.013644],[135.253633,35.013469],[135.253658,35.013377],[135.25412,35.013327],[135.254233,35.013219],[135.254233,35.013019],[135.254183,35.012944],[135.254345,35.012611],[135.25437,35.012427],[135.25467,35.012094],[135.254895,35.011552],[135.25542,35.011461],[135.25547,35.011411],[135.25572,35.011369],[135.256732,35.011369],[135.25737,35.011211],[135.257695,35.011252],[135.25822,35.011277],[135.258857,35.011052],[135.259295,35.010936],[135.259732,35.010961],[135.26022,35.011094],[135.261457,35.011611],[135.261657,35.011661],[135.261957,35.011794],[135.262144,35.012111],[135.262694,35.012644],[135.263169,35.012944],[135.263769,35.013094],[135.264182,35.013252],[135.264594,35.013461],[135.265144,35.013594],[135.265744,35.013661],[135.266244,35.013844],[135.266769,35.014177],[135.267181,35.01436],[135.267506,35.014402],[135.268281,35.014744],[135.269018,35.014785],[135.269731,35.014694],[135.270418,35.014536],[135.270856,35.014536],[135.270993,35.014602],[135.271356,35.014669],[135.271493,35.014669],[135.272593,35.014352],[135.273743,35.014444],[135.27388,35.014419],[135.274205,35.014152],[135.27423,35.014036],[135.274505,35.013902],[135.27608,35.013852],[135.276493,35.013944],[135.276817,35.014169],[135.27723,35.014394],[135.277755,35.014527],[135.27833,35.014594],[135.279017,35.014869],[135.279317,35.015044],[135.27943,35.015069],[135.280942,35.014794],[135.281604,35.014752],[135.282779,35.01491],[135.283254,35.015085],[135.283629,35.01531],[135.283742,35.015427],[135.284179,35.015585],[135.285116,35.015852],[135.285229,35.015827],[135.285391,35.015744],[135.285666,35.015444],[135.285854,35.01506],[135.286516,35.01421],[135.286841,35.01396],[135.287479,35.013844],[135.287666,35.013686],[135.288141,35.012361],[135.287804,35.011527],[135.287916,35.011527],[135.288379,35.011611],[135.288854,35.011861],[135.289616,35.012336],[135.290166,35.012719],[135.290691,35.012944],[135.291291,35.013052],[135.292366,35.013186],[135.293829,35.013552],[135.294591,35.013594],[135.296354,35.013185],[135.297091,35.013094],[135.299241,35.013185],[135.300028,35.013027],[135.300803,35.012685],[135.301241,35.012552],[135.301766,35.012619],[135.302291,35.012885],[135.302528,35.012794],[135.302978,35.01271],[135.303278,35.01271],[135.303553,35.012594],[135.303803,35.01241],[135.304078,35.012344],[135.304628,35.012319],[135.304866,35.012252],[135.305116,35.012027],[135.305303,35.011694],[135.305503,35.011552],[135.305916,35.011602],[135.306053,35.011577],[135.306241,35.011352],[135.306403,35.011036],[135.306903,35.010611],[135.307228,35.010161],[135.307641,35.009844],[135.308416,35.009594],[135.308966,35.009636],[135.309103,35.009686],[135.309341,35.009844],[135.309566,35.010244],[135.309728,35.010469],[135.310116,35.010586],[135.310416,35.010561],[135.310528,35.010627],[135.310553,35.011127],[135.310616,35.011194],[135.31089,35.011369],[135.311078,35.011419],[135.312178,35.011327],[135.313603,35.011344],[135.314128,35.011411],[135.314453,35.011636],[135.31454,35.011936],[135.314515,35.012269],[135.314428,35.012611],[135.314453,35.012944],[135.314353,35.013235],[135.314128,35.013644],[135.314103,35.01396],[135.314265,35.01421],[135.315177,35.014819],[135.315452,35.01511],[135.31564,35.015852],[135.315915,35.015944],[135.316052,35.015877],[135.316652,35.015444],[135.316877,35.015352],[135.318002,35.015127],[135.318477,35.014994],[135.31899,35.014677],[135.319789,35.014477],[135.320089,35.014361],[135.320364,35.014386],[135.320702,35.014452],[135.321327,35.014136],[135.321552,35.014069],[135.321652,35.014111],[135.321789,35.014561],[135.322427,35.015152],[135.322614,35.015486],[135.322977,35.015827],[135.323339,35.016069],[135.323389,35.016319],[135.322789,35.017044],[135.321939,35.017719],[135.321714,35.018169],[135.321502,35.018552],[135.321327,35.018977],[135.321227,35.020268],[135.321439,35.02051],[135.321639,35.020668],[135.321689,35.020943],[135.321614,35.021235],[135.321477,35.021477],[135.321164,35.021685],[135.321114,35.021793],[135.321177,35.022093],[135.321552,35.02261],[135.322301,35.023035],[135.322489,35.02326],[135.322514,35.023618],[135.322464,35.024051],[135.322576,35.024451],[135.322789,35.024676],[135.323064,35.024676],[135.323451,35.024568],[135.323839,35.02441],[135.324201,35.024385],[135.324689,35.024426],[135.325076,35.02441],[135.325401,35.024268],[135.325601,35.02391],[135.325901,35.02366],[135.326226,35.023527],[135.326614,35.023527],[135.327551,35.023327],[135.327626,35.023502],[135.327713,35.023868],[135.327326,35.024585],[135.327326,35.024835],[135.327438,35.024943],[135.328513,35.024876],[135.328976,35.024943],[135.329988,35.025301],[135.330213,35.025551],[135.330513,35.025751],[135.330713,35.025801],[135.331201,35.025818],[135.331863,35.025935],[135.332225,35.025935],[135.3325,35.025776],[135.3328,35.025526],[135.3331,35.025485],[135.3337,35.025485],[135.334588,35.02541],[135.3353,35.02546],[135.336013,35.025543],[135.336675,35.025727],[135.337575,35.025635],[135.338212,35.02561],[135.338837,35.02566],[135.339837,35.02586],[135.339562,35.02676],[135.339012,35.02796],[135.3383,35.029193],[135.338212,35.029535],[135.338237,35.029918],[135.338162,35.030318],[135.3378,35.030776],[135.337362,35.031176],[135.336975,35.031609],[135.336737,35.031993],[135.33665,35.032393],[135.336512,35.032734],[135.335413,35.033317],[135.33525,35.033434],[135.33435,35.034134],[135.3341,35.034542],[135.333963,35.034851],[135.3338,35.035034],[135.333463,35.035167],[135.333088,35.035192],[135.332675,35.035151],[135.332088,35.034926],[135.331438,35.034584],[135.33105,35.034476],[135.330825,35.034517],[135.33075,35.034584],[135.330475,35.035017],[135.330225,35.035259],[135.330863,35.035625],[135.331488,35.036092],[135.332563,35.037109],[135.332863,35.037625],[135.333338,35.038484],[135.3335,35.038867],[135.333687,35.039583],[135.333887,35.039767],[135.33435,35.0399],[135.33465,35.040033],[135.335312,35.040442],[135.336087,35.040733],[135.336437,35.040933],[135.336612,35.041342],[135.336612,35.041475],[135.336437,35.04195],[135.336637,35.042125],[135.3371,35.04235],[135.3376,35.042533],[135.33795,35.042733],[135.338062,35.043025],[135.338037,35.043617],[135.338924,35.0437],[135.339249,35.043658],[135.339437,35.043142],[135.339737,35.042892],[135.339824,35.042867],[135.340012,35.042933],[135.340324,35.043142],[135.340649,35.04325],[135.341174,35.043117],[135.341562,35.043075],[135.341999,35.043208],[135.342549,35.043608],[135.342799,35.043975],[135.343124,35.044625],[135.343449,35.044783],[135.343861,35.044916],[135.344249,35.044941],[135.344749,35.0448],[135.345049,35.044758],[135.345274,35.0448],[135.345574,35.044958],[135.345761,35.044983],[135.346536,35.0448],[135.346949,35.044917],[135.348161,35.0455],[135.348711,35.045858],[135.349036,35.0462],[135.349173,35.046508],[135.349086,35.046825],[135.349061,35.047208],[135.349173,35.047458],[135.349473,35.04775],[135.349511,35.047816],[135.349448,35.048091],[135.349586,35.048383],[135.349861,35.048608],[135.350023,35.048875],[135.349973,35.049441],[135.349836,35.049866],[135.349486,35.050633],[135.349423,35.050908],[135.349736,35.051108],[135.350148,35.051241],[135.350661,35.051283],[135.35171,35.051333],[135.352998,35.051216],[135.35426,35.051058],[135.354735,35.050941],[135.355523,35.0504],[135.356185,35.050225],[135.356848,35.050083],[135.357622,35.050016],[135.358135,35.050066],[135.358797,35.050175],[135.359347,35.050175],[135.359547,35.050133],[135.359897,35.04995],[135.360335,35.049591],[135.36086,35.049],[135.361935,35.04765],[135.362035,35.047375],[135.361985,35.047067],[135.361685,35.046525],[135.362722,35.04645],[135.363272,35.046317],[135.363822,35.046067],[135.364347,35.04575],[135.364972,35.045458],[135.365447,35.045167],[135.365822,35.044784],[135.366209,35.044692],[135.366572,35.044559],[135.366784,35.044284],[135.366922,35.044217],[135.367609,35.044017],[135.367997,35.044217],[135.368659,35.044375],[135.369071,35.044534],[135.369459,35.044784],[135.369946,35.045025],[135.370559,35.045209],[135.371221,35.045317],[135.371771,35.0453],[135.372207,35.045207],[135.372546,35.045167],[135.373909,35.044742],[135.374313,35.044631],[135.376033,35.044159],[135.376321,35.044],[135.376446,35.043742],[135.376483,35.043134],[135.376583,35.042826],[135.377258,35.042084],[135.377558,35.041692],[135.378183,35.040584],[135.378546,35.040242],[135.380058,35.039234],[135.380221,35.038951],[135.380521,35.037534],[135.380671,35.037059],[135.380733,35.036659],[135.380633,35.036318],[135.380433,35.036043],[135.380133,35.035768],[135.379983,35.035485],[135.380046,35.03511],[135.380608,35.034243],[135.380808,35.03336],[135.381021,35.032968],[135.381833,35.032118],[135.382083,35.031685],[135.382183,35.030977],[135.382158,35.030968],[135.382146,35.03071],[135.381896,35.030018],[135.381983,35.029668],[135.382158,35.029235],[135.382221,35.028744],[135.382096,35.02726],[135.381958,35.026535],[135.381833,35.026227],[135.381421,35.025944],[135.380696,35.025552],[135.380208,35.025377],[135.379996,35.025252],[135.379858,35.024961],[135.379733,35.024561],[135.379521,35.024211],[135.379396,35.023869],[135.379646,35.023486],[135.379896,35.023319],[135.380146,35.023086],[135.380246,35.022486],[135.380083,35.022144],[135.379771,35.021861],[135.379059,35.021494],[135.378821,35.021403],[135.378284,35.021094],[135.377809,35.020653],[135.377759,35.020353],[135.378184,35.018953],[135.378196,35.01867],[135.378009,35.018203],[135.378034,35.017953],[135.378246,35.017686],[135.378571,35.017386],[135.378684,35.01717],[135.378659,35.016861],[135.378771,35.016353],[135.379084,35.01607],[135.379384,35.015437],[135.379634,35.015428],[135.380109,35.015478],[135.380221,35.015453],[135.380446,35.015253],[135.380621,35.014912],[135.380733,35.01417],[135.380871,35.01377],[135.381371,35.012962],[135.381558,35.012537],[135.381646,35.011004],[135.381608,35.010512],[135.381633,35.010304],[135.381871,35.010212],[135.382246,35.01012],[135.382496,35.010137],[135.383296,35.010354],[135.384383,35.010379],[135.384783,35.010562],[135.385408,35.011112],[135.385771,35.01122],[135.388133,35.011329],[135.389183,35.011395],[135.389558,35.01107],[135.390395,35.010195],[135.39092,35.009846],[135.39152,35.009579],[135.392408,35.009296],[135.393295,35.008937],[135.393845,35.008779],[135.394132,35.008746],[135.39502,35.009012],[135.395307,35.009129],[135.395882,35.009429],[135.39627,35.009696],[135.396657,35.010262],[135.396932,35.01047],[135.397332,35.010679],[135.397607,35.01077],[135.398432,35.009921],[135.398807,35.009587],[135.399057,35.009221],[135.399157,35.008829],[135.399307,35.008546],[135.400132,35.008246],[135.400644,35.008021],[135.400844,35.007871],[135.401332,35.007613],[135.401869,35.007588],[135.402057,35.007463],[135.402269,35.007221],[135.402532,35.007029],[135.403394,35.006671],[135.403469,35.006696],[135.403906,35.007063],[135.405006,35.007838],[135.406331,35.008813],[135.407294,35.009579],[135.407694,35.009996],[135.407756,35.010271],[135.407844,35.010387],[135.408244,35.010762],[135.408781,35.011112],[135.409543,35.011487],[135.409818,35.011537],[135.410331,35.010971],[135.410668,35.010729],[135.411356,35.010354],[135.411556,35.010096],[135.411656,35.009713],[135.411843,35.009496],[135.411956,35.009429],[135.413006,35.009121],[135.413406,35.008946],[135.413768,35.008621],[135.414355,35.007921],[135.414655,35.007504],[135.414893,35.006805],[135.415493,35.006488],[135.415993,35.00613],[135.416293,35.005963],[135.416568,35.005671],[135.416805,35.005205],[135.417843,35.003547],[135.418042,35.003222],[135.41793,35.003055],[135.418142,35.00283],[135.418642,35.002647],[135.420705,35.00213],[135.42133,35.002039],[135.422455,35.002014],[135.422842,35.002039],[135.423004,35.00208],[135.423429,35.00228],[135.424142,35.002755],[135.424592,35.003222],[135.425767,35.003938],[135.425892,35.003972],[135.426404,35.004022],[135.427192,35.004247],[135.427854,35.004513],[135.428066,35.00473],[135.428341,35.005172],[135.428654,35.005405],[135.430166,35.00623],[135.431841,35.007055],[135.433416,35.007863],[135.433953,35.008013],[135.434628,35.007971],[135.434903,35.008005],[135.435216,35.008188],[135.435628,35.008313],[135.436116,35.008363],[135.436453,35.008296],[135.436691,35.008196],[135.43754,35.008163],[135.437865,35.008046],[135.43834,35.007713],[135.438865,35.007513],[135.439015,35.00748],[135.439303,35.00753],[135.439728,35.007713],[135.43999,35.007738],[135.44104,35.007421],[135.441465,35.007197],[135.442115,35.006655],[135.442428,35.006263],[135.442765,35.005747],[135.443065,35.005722],[135.44349,35.005747],[135.443902,35.005705],[135.444265,35.005555],[135.444665,35.005347],[135.44514,35.005188],[135.445715,35.005063],[135.446177,35.005038],[135.446365,35.005097],[135.446715,35.005297],[135.446977,35.00528],[135.447565,35.004938],[135.448165,35.004672],[135.448639,35.004389],[135.449102,35.004055],[135.450052,35.003222],[135.450152,35.002747],[135.450352,35.002547],[135.451477,35.00203],[135.451802,35.001756],[135.451964,35.001514],[135.452352,35.002047],[135.452552,35.002205],[135.454502,35.001731],[135.454801,35.001914],[135.455101,35.002164],[135.455301,35.002231],[135.456614,35.001756],[135.457251,35.001481],[135.457626,35.001414],[135.459414,35.001506],[135.459826,35.001481],[135.460214,35.001272],[135.461126,35.000489],[135.461701,35.000039],[135.462363,34.999631],[135.463376,34.998864],[135.463676,34.998681],[135.464588,34.998656],[135.464776,34.998523],[135.465076,34.998073],[135.465851,34.997439],[135.466426,34.997123],[135.467226,34.997123],[135.46755,34.997056],[135.467963,34.996806],[135.468463,34.996156],[135.468763,34.995948],[135.469263,34.995748],[135.469975,34.995273],[135.470325,34.99509],[135.47055,34.995115],[135.470688,34.995073],[135.4709,34.994773],[135.471175,34.99469],[135.472313,34.994731],[135.472688,34.99464],[135.473513,34.99464],[135.47465,34.994706],[135.4752,34.994681],[135.476675,34.994206]]],"type":"Polygon"},"properties":{"id":"K05","pref":"兵庫県,大阪府","name":"摂津","number":12,"id_url":"K05.html","yomi":"せっつ"},"type":"Feature"}]}