{"type":"FeatureCollection","features":[{"type":"Feature","properties":{"number":4,"name":"加賀","yomi":"かが","id_url":"K36.html","id":"K36","pref":"石川県"},"geometry":{"coordinates":[[[136.707943,36.76194],[136.713315,36.759671],[136.72085,36.757633],[136.731577,36.755329],[136.736808,36.754532],[136.744899,36.753333],[136.748422,36.751774],[136.751492,36.748958],[136.754511,36.746042],[136.758034,36.743829],[136.760901,36.742409],[136.764682,36.740287],[136.767153,36.738512],[136.768109,36.737679],[136.769475,36.736735],[136.7705,36.735752],[136.773042,36.73018],[136.776327,36.725213],[136.780263,36.721771],[136.784609,36.719559],[136.789624,36.717547],[136.789999,36.717347],[136.790611,36.717106],[136.791574,36.716631],[136.792086,36.715931],[136.792424,36.715664],[136.793261,36.715598],[136.793323,36.715581],[136.793548,36.715239],[136.793973,36.714315],[136.793898,36.713815],[136.794036,36.713748],[136.794348,36.713681],[136.794936,36.713373],[136.795386,36.713331],[136.795898,36.713173],[136.796373,36.71284],[136.796598,36.712723],[136.796886,36.712407],[136.797223,36.712115],[136.797586,36.71164],[136.797761,36.711257],[136.797898,36.711082],[136.797848,36.711057],[136.798548,36.710199],[136.798811,36.70984],[136.799798,36.709507],[136.801148,36.708974],[136.801873,36.708749],[136.802948,36.708599],[136.803873,36.708557],[136.804048,36.707899],[136.80436,36.707433],[136.804723,36.706958],[136.805485,36.706149],[136.806898,36.705025],[136.807773,36.704508],[136.80831,36.704283],[136.808985,36.704133],[136.80966,36.704017],[136.810585,36.703958],[136.811622,36.703508],[136.812685,36.703383],[136.813847,36.702009],[136.814222,36.701509],[136.814584,36.701109],[136.815547,36.700476],[136.815659,36.700276],[136.815359,36.699801],[136.814822,36.699092],[136.814409,36.698734],[136.81396,36.698801],[136.813735,36.698792],[136.813135,36.696851],[136.813047,36.696284],[136.812685,36.695734],[136.81216,36.695234],[136.811497,36.694459],[136.811247,36.693984],[136.811222,36.69331],[136.811785,36.692568],[136.812322,36.692001],[136.811772,36.691343],[136.81136,36.690502],[136.81116,36.689602],[136.811085,36.688785],[136.810985,36.688152],[136.810397,36.687402],[136.810035,36.686994],[136.809947,36.686719],[136.81006,36.686452],[136.810685,36.685435],[136.810972,36.685052],[136.811422,36.684786],[136.812097,36.684652],[136.814572,36.684502],[136.81501,36.684644],[136.816272,36.685461],[136.816922,36.685561],[136.817197,36.685536],[136.817734,36.685336],[136.818684,36.684644],[136.819247,36.684328],[136.820122,36.684153],[136.820572,36.683953],[136.820659,36.683886],[136.821171,36.682578],[136.821396,36.682103],[136.821546,36.681945],[136.822109,36.681586],[136.822584,36.68107],[136.822584,36.680728],[136.822471,36.68057],[136.821584,36.679703],[136.821509,36.679228],[136.821759,36.678395],[136.821771,36.677828],[136.821709,36.677645],[136.821434,36.677129],[136.821072,36.676854],[136.820734,36.676445],[136.820609,36.675787],[136.820559,36.675062],[136.820609,36.674704],[136.820809,36.674404],[136.821122,36.674162],[136.821572,36.674004],[136.822384,36.673987],[136.822746,36.673896],[136.822884,36.673721],[136.823071,36.672521],[136.823184,36.672388],[136.823721,36.670738],[136.823784,36.670288],[136.823759,36.669713],[136.823796,36.669655],[136.823771,36.669196],[136.823497,36.668946],[136.822509,36.668271],[136.821959,36.667971],[136.821484,36.667771],[136.820722,36.667588],[136.819972,36.667563],[136.818935,36.667696],[136.818822,36.667671],[136.81851,36.667513],[136.818372,36.667171],[136.817872,36.666313],[136.817535,36.665388],[136.817085,36.664955],[136.816585,36.664547],[136.815885,36.663705],[136.815772,36.663305],[136.815972,36.662847],[136.81646,36.662222],[136.816485,36.661947],[136.816322,36.661589],[136.815947,36.661222],[136.815423,36.660905],[136.814973,36.660497],[136.814673,36.659955],[136.814273,36.659414],[136.814085,36.65923],[136.81391,36.659205],[136.813635,36.659272],[136.81316,36.659314],[136.812685,36.659222],[136.812398,36.658997],[136.811923,36.658814],[136.811473,36.658789],[136.811285,36.658722],[136.810448,36.658064],[136.810336,36.657814],[136.810311,36.657389],[136.810061,36.656956],[136.809223,36.655756],[136.808298,36.654672],[136.807398,36.653897],[136.807261,36.653106],[136.807298,36.652864],[136.807636,36.651939],[136.807886,36.651689],[136.808673,36.651806],[136.809173,36.651739],[136.809436,36.651648],[136.809461,36.651489],[136.809323,36.651198],[136.808536,36.650606],[136.808398,36.650473],[136.808011,36.64929],[136.807848,36.648481],[136.807398,36.647707],[136.807036,36.64739],[136.806611,36.647232],[136.805911,36.64719],[136.805136,36.647248],[136.804374,36.647456],[136.803899,36.647656],[136.803386,36.647606],[136.802499,36.647315],[136.802161,36.647156],[136.801712,36.647015],[136.801074,36.646698],[136.800624,36.64629],[136.800424,36.646015],[136.800287,36.645473],[136.799674,36.644432],[136.799762,36.643873],[136.799899,36.643507],[136.799737,36.642199],[136.799937,36.641857],[136.799974,36.641299],[136.799774,36.640232],[136.799724,36.639507],[136.799749,36.639057],[136.800087,36.638541],[136.800149,36.638224],[136.800299,36.636508],[136.799424,36.635849],[136.799012,36.635641],[136.798537,36.635533],[136.798,36.635508],[136.797725,36.635441],[136.797612,36.635349],[136.797612,36.635141],[136.797775,36.634741],[136.797725,36.634399],[136.79745,36.63395],[136.797087,36.633541],[136.796912,36.633425],[136.7961,36.633216],[136.79555,36.633016],[136.7951,36.632766],[136.794825,36.632516],[136.794788,36.632383],[136.794913,36.631725],[136.79485,36.631566],[136.794513,36.631183],[136.7941,36.631],[136.793625,36.630883],[136.79325,36.630925],[136.792325,36.631358],[136.791888,36.631308],[136.791188,36.631016],[136.790238,36.630533],[136.788801,36.629925],[136.788026,36.629783],[136.786001,36.629575],[136.785339,36.628875],[136.784976,36.628575],[136.784226,36.627441],[136.784251,36.626975],[136.784876,36.626067],[136.784989,36.625825],[136.784789,36.625417],[136.784126,36.624484],[136.784126,36.624192],[136.784289,36.623384],[136.784376,36.622859],[136.784377,36.622367],[136.784302,36.621892],[136.784389,36.621234],[136.784277,36.620759],[136.784139,36.620376],[136.784364,36.620017],[136.784614,36.619717],[136.784589,36.619359],[136.783952,36.618609],[136.783927,36.618209],[136.783977,36.617668],[136.783727,36.617393],[136.783339,36.617276],[136.783164,36.617118],[136.783089,36.616759],[136.783289,36.616468],[136.783539,36.616285],[136.783289,36.615493],[136.783452,36.614993],[136.783852,36.614568],[136.784777,36.613918],[136.785727,36.613577],[136.785852,36.613377],[136.785602,36.61281],[136.785652,36.612094],[136.785682,36.611696],[136.785664,36.610935],[136.785802,36.610419],[136.786202,36.609519],[136.786177,36.609019],[136.786227,36.608661],[136.786739,36.608436],[136.787376,36.608028],[136.787601,36.607711],[136.787664,36.607103],[136.787976,36.606744],[136.788564,36.606453],[136.789014,36.606111],[136.789289,36.605636],[136.789514,36.60537],[136.790026,36.604961],[136.790726,36.60422],[136.790926,36.603795],[136.790926,36.603412],[136.790839,36.60307],[136.790151,36.602595],[136.789726,36.602437],[136.788801,36.602412],[136.788526,36.602295],[136.788501,36.602045],[136.788726,36.601662],[136.788889,36.601462],[136.789114,36.601079],[136.789289,36.60042],[136.789264,36.600195],[136.789064,36.599562],[136.789014,36.59902],[136.789064,36.598521],[136.789214,36.598029],[136.789414,36.597779],[136.789526,36.597512],[136.789214,36.597054],[136.788689,36.596104],[136.788602,36.595813],[136.788552,36.594438],[136.788577,36.594163],[136.788364,36.592988],[136.788452,36.592713],[136.788789,36.592563],[136.789426,36.592446],[136.789901,36.592313],[136.790189,36.59198],[136.790251,36.591438],[136.790076,36.591138],[136.790251,36.591097],[136.790726,36.591055],[136.791951,36.590713],[136.792514,36.590538],[136.792826,36.590197],[136.793476,36.589997],[136.794089,36.589955],[136.794226,36.589755],[136.794014,36.588964],[136.794039,36.588647],[136.794176,36.588305],[136.794489,36.587856],[136.794689,36.587497],[136.794689,36.587131],[136.794576,36.586406],[136.794601,36.586389],[136.794589,36.586347],[136.795026,36.585614],[136.795276,36.585089],[136.795351,36.584423],[136.795239,36.583323],[136.795026,36.582748],[136.794701,36.582215],[136.794189,36.581806],[136.793664,36.581298],[136.793239,36.580698],[136.793064,36.58024],[136.793114,36.579948],[136.793301,36.57949],[136.793439,36.57879],[136.793939,36.576874],[136.794014,36.575749],[136.793801,36.575266],[136.793476,36.575099],[136.792889,36.574057],[136.792864,36.573583],[136.792664,36.573099],[136.791752,36.571824],[136.791352,36.571166],[136.791127,36.57055],[136.791002,36.56995],[136.791089,36.569491],[136.791514,36.56905],[136.792027,36.568858],[136.792289,36.568708],[136.792564,36.568375],[136.792714,36.568258],[136.793539,36.5686],[136.794464,36.568642],[136.795389,36.568775],[136.796239,36.568833],[136.796789,36.56895],[136.797076,36.569158],[136.797276,36.569458],[136.797576,36.569625],[136.798351,36.569875],[136.799151,36.569942],[136.799863,36.569833],[136.800501,36.5697],[136.801363,36.569475],[136.802001,36.569025],[136.802438,36.568809],[136.802551,36.568642],[136.802551,36.568317],[136.802663,36.567717],[136.802763,36.567542],[136.803126,36.567076],[136.8035,36.566709],[136.804288,36.566401],[136.804975,36.566051],[136.805213,36.565709],[136.805388,36.565184],[136.806063,36.564584],[136.806863,36.563451],[136.807488,36.56241],[136.807613,36.562268],[136.80785,36.562077],[136.808187,36.56201],[136.8086,36.561993],[136.809575,36.561452],[136.81025,36.561252],[136.810487,36.561227],[136.811062,36.561085],[136.811575,36.560752],[136.811775,36.56056],[136.811825,36.56006],[136.812112,36.559311],[136.81255,36.558652],[136.813599,36.557411],[136.814074,36.556903],[136.814924,36.556236],[136.815399,36.555878],[136.815512,36.555745],[136.815787,36.554703],[136.815999,36.554203],[136.816299,36.553687],[136.817137,36.552737],[136.817199,36.552354],[136.817149,36.551904],[136.816849,36.551237],[136.81665,36.550704],[136.8166,36.550271],[136.816712,36.548696],[136.816662,36.548154],[136.816587,36.547929],[136.816237,36.547488],[136.8158,36.547121],[136.815388,36.546571],[136.814975,36.545663],[136.814625,36.544688],[136.814213,36.544122],[136.81415,36.543605],[136.813113,36.541739],[136.812688,36.540747],[136.812576,36.540106],[136.812663,36.538872],[136.812776,36.538456],[136.812776,36.538264],[136.812664,36.537873],[136.812301,36.537498],[136.811951,36.537264],[136.811714,36.536406],[136.811589,36.536115],[136.810776,36.534698],[136.810377,36.533673],[136.809702,36.53299],[136.808902,36.53234],[136.808527,36.531881],[136.808289,36.531373],[136.808252,36.531206],[136.807589,36.530331],[136.807527,36.53019],[136.807502,36.529065],[136.807389,36.52849],[136.806352,36.527515],[136.805777,36.526323],[136.80549,36.525415],[136.805277,36.52499],[136.804402,36.52459],[136.804302,36.52444],[136.804102,36.523515],[136.804052,36.522915],[136.803877,36.52249],[136.80319,36.522032],[136.80244,36.521265],[136.80189,36.520865],[136.80134,36.520648],[136.800865,36.520698],[136.800415,36.520832],[136.800065,36.52099],[136.799803,36.521048],[136.799778,36.520532],[136.799965,36.518673],[136.799915,36.518265],[136.799503,36.517807],[136.799253,36.517398],[136.799115,36.516748],[136.799165,36.51624],[136.799265,36.515849],[136.799215,36.515649],[136.798178,36.51394],[136.797703,36.513407],[136.797203,36.51299],[136.79694,36.51284],[136.796128,36.512874],[136.796328,36.512399],[136.79634,36.512065],[136.796053,36.511582],[136.795378,36.511182],[136.795065,36.510957],[136.795003,36.510632],[136.795028,36.510107],[136.794778,36.509349],[136.794728,36.508857],[136.794815,36.508274],[136.794953,36.507899],[136.795465,36.507549],[136.795903,36.507283],[136.796178,36.507024],[136.796215,36.506641],[136.796078,36.506166],[136.795565,36.505608],[136.79564,36.504975],[136.795928,36.504433],[136.796165,36.504133],[136.796278,36.503883],[136.796315,36.503366],[136.796253,36.503066],[136.79629,36.503016],[136.79634,36.502566],[136.796815,36.50225],[136.796903,36.502117],[136.796878,36.501667],[136.796578,36.5009],[136.796515,36.500333],[136.796041,36.498734],[136.796041,36.497817],[136.795778,36.497592],[136.795303,36.497409],[136.794741,36.497317],[136.794066,36.497092],[136.793891,36.496984],[136.794541,36.496625],[136.795066,36.496059],[136.795328,36.495451],[136.795566,36.494592],[136.795616,36.494009],[136.795728,36.493542],[136.797178,36.492751],[136.797816,36.492326],[136.798203,36.491943],[136.798816,36.490968],[136.798841,36.490793],[136.799053,36.490343],[136.799253,36.490251],[136.799778,36.490384],[136.80029,36.490568],[136.80084,36.490584],[136.801515,36.490651],[136.802515,36.490293],[136.802553,36.490226],[136.802315,36.489143],[136.802365,36.488626],[136.80254,36.488226],[136.802565,36.488043],[136.80254,36.48786],[136.80224,36.487368],[136.801915,36.486652],[136.80189,36.48611],[136.80224,36.485743],[136.802715,36.48541],[136.802853,36.485185],[136.802765,36.484868],[136.802415,36.484619],[136.801765,36.484327],[136.801615,36.483969],[136.801415,36.483719],[136.800441,36.483519],[136.800028,36.483252],[136.799766,36.482935],[136.799503,36.482152],[136.799441,36.481494],[136.799316,36.481019],[136.798966,36.480569],[136.798491,36.480194],[136.798316,36.479944],[136.798253,36.479652],[136.797791,36.478911],[136.797516,36.477942],[136.797491,36.477853],[136.797216,36.477336],[136.796929,36.477061],[136.796629,36.476278],[136.796479,36.476053],[136.795804,36.475328],[136.795566,36.474903],[136.795479,36.47427],[136.795329,36.473645],[136.795329,36.473286],[136.795766,36.473012],[136.796154,36.472878],[136.796216,36.472678],[136.795829,36.472137],[136.795741,36.471778],[136.795791,36.471437],[136.796029,36.471053],[136.796416,36.470562],[136.796679,36.470045],[136.797141,36.469587],[136.797879,36.469137],[136.798316,36.468712],[136.798316,36.468446],[136.798254,36.468287],[136.798016,36.467946],[136.796454,36.466196],[136.796129,36.465763],[136.796191,36.465496],[136.796429,36.465088],[136.796429,36.465004],[136.796129,36.464779],[136.795166,36.464213],[136.794892,36.463988],[136.794867,36.463896],[136.795067,36.463788],[136.795891,36.463513],[136.796304,36.463446],[136.796741,36.463313],[136.797654,36.462388],[136.798329,36.46178],[136.798329,36.461647],[136.797716,36.461038],[136.796654,36.46023],[136.794879,36.45913],[136.794679,36.459063],[136.793642,36.458472],[136.793267,36.45818],[136.792942,36.457714],[136.791992,36.456855],[136.791354,36.456364],[136.789555,36.454897],[136.78893,36.454289],[136.78828,36.452989],[136.78823,36.452831],[136.788455,36.451256],[136.78918,36.448915],[136.789417,36.448398],[136.789855,36.447698],[136.790292,36.447273],[136.790767,36.446957],[136.791917,36.446482],[136.792467,36.446282],[136.793092,36.446124],[136.794354,36.445965],[136.795117,36.445757],[136.795554,36.445599],[136.795729,36.445582],[136.796466,36.445374],[136.796704,36.445124],[136.796729,36.445041],[136.796641,36.444366],[136.796254,36.444049],[136.795879,36.443891],[136.795554,36.443574],[136.795104,36.443282],[136.794667,36.443057],[136.794229,36.442724],[136.792404,36.441932],[136.790929,36.441191],[136.790629,36.441016],[136.789867,36.440316],[136.789455,36.440024],[136.788755,36.439616],[136.78828,36.439574],[136.787017,36.439549],[136.786842,36.439466],[136.786367,36.438583],[136.786042,36.438158],[136.785517,36.4378],[136.785005,36.437391],[136.78463,36.437016],[136.783593,36.436358],[136.783268,36.436091],[136.78213,36.434783],[136.78168,36.434425],[136.781218,36.434108],[136.780893,36.433642],[136.780618,36.433058],[136.780243,36.432533],[136.779293,36.431642],[136.778731,36.431209],[136.778268,36.430917],[136.778181,36.4309],[136.777881,36.4309],[136.777593,36.431192],[136.777143,36.431484],[136.776443,36.431642],[136.775831,36.431733],[136.775331,36.431958],[136.774893,36.432208],[136.774656,36.43245],[136.774306,36.432725],[136.774006,36.432792],[136.773593,36.432675],[136.772444,36.432225],[136.771769,36.43205],[136.771156,36.431783],[136.769569,36.430792],[136.769294,36.430475],[136.769094,36.429533],[136.768681,36.428767],[136.768706,36.42845],[136.768906,36.427975],[136.769081,36.427367],[136.769144,36.426492],[136.769056,36.425776],[136.768544,36.424109],[136.768344,36.423501],[136.768432,36.423409],[136.769019,36.423251],[136.769669,36.423209],[136.770281,36.423093],[136.770894,36.422776],[136.771194,36.422759],[136.771344,36.422309],[136.771456,36.421026],[136.771631,36.420351],[136.771331,36.41976],[136.771356,36.419743],[136.771394,36.419168],[136.771231,36.418768],[136.770794,36.418251],[136.770294,36.417868],[136.770182,36.41766],[136.770157,36.417351],[136.769932,36.416826],[136.769719,36.415635],[136.769682,36.415302],[136.769719,36.41521],[136.769932,36.414893],[136.770507,36.414418],[136.770919,36.414143],[136.771331,36.41401],[136.771881,36.413985],[136.772744,36.41401],[136.774056,36.414277],[136.774494,36.414435],[136.775269,36.414344],[136.776694,36.414594],[136.777306,36.41466],[136.777793,36.414635],[136.778656,36.41441],[136.778931,36.414435],[136.779481,36.413552],[136.780193,36.413036],[136.780381,36.412827],[136.780493,36.412377],[136.780768,36.412044],[136.781293,36.411677],[136.781981,36.411278],[136.782443,36.410869],[136.783018,36.410278],[136.783293,36.409878],[136.783568,36.409561],[136.783843,36.409403],[136.784231,36.409311],[136.784593,36.40942],[136.784943,36.409603],[136.78538,36.409645],[136.785993,36.409261],[136.787168,36.40787],[136.789393,36.405879],[136.790693,36.404637],[136.791105,36.404304],[136.79198,36.403696],[136.792392,36.403287],[136.79308,36.402071],[136.79338,36.401821],[136.794842,36.401413],[136.795142,36.401254],[136.79528,36.400921],[136.79533,36.400288],[136.795505,36.399746],[136.79558,36.39923],[136.795392,36.398171],[136.795605,36.397263],[136.79558,36.39693],[136.79563,36.396522],[136.795742,36.396122],[136.795855,36.395663],[136.795792,36.39533],[136.795555,36.395038],[136.795305,36.394605],[136.795467,36.394247],[136.79698,36.393205],[136.797205,36.392939],[136.797255,36.392331],[136.797192,36.391814],[136.796867,36.391181],[136.796917,36.390547],[136.797192,36.389939],[136.797505,36.388814],[136.79783,36.387031],[136.79788,36.386406],[136.797855,36.385931],[136.79763,36.385548],[136.796942,36.384965],[136.796642,36.384648],[136.796555,36.384398],[136.796592,36.384356],[136.796967,36.38429],[136.797605,36.38424],[136.79813,36.384131],[136.798617,36.383923],[136.798955,36.383673],[136.799167,36.383382],[136.799392,36.382365],[136.799604,36.38194],[136.800292,36.381149],[136.800467,36.380815],[136.800492,36.38034],[136.800379,36.37969],[136.800404,36.379149],[136.800629,36.377774],[136.800679,36.376824],[136.800592,36.376241],[136.800429,36.375649],[136.800379,36.375183],[136.800429,36.374658],[136.800379,36.374049],[136.800067,36.372908],[136.800042,36.372141],[136.80013,36.370475],[136.800342,36.369858],[136.800979,36.368958],[136.801529,36.368417],[136.802704,36.367492],[136.803254,36.367158],[136.803529,36.366884],[136.803692,36.3665],[136.803804,36.366075],[136.803667,36.365242],[136.803942,36.364992],[136.804354,36.3647],[136.805479,36.363801],[136.806279,36.363484],[136.806466,36.363301],[136.806416,36.363009],[136.806241,36.362601],[136.806329,36.361859],[136.806604,36.361343],[136.806966,36.360976],[136.807129,36.360684],[136.807366,36.359876],[136.807766,36.359073],[136.807704,36.358435],[136.807355,36.357968],[136.806704,36.357376],[136.806467,36.356901],[136.806154,36.35611],[136.805804,36.355435],[136.805692,36.355418],[136.804817,36.355502],[136.804429,36.355485],[136.803417,36.354902],[136.80273,36.354602],[136.80228,36.354535],[136.80198,36.35436],[136.801217,36.353027],[136.800967,36.352868],[136.80028,36.352785],[136.799568,36.35256],[136.799093,36.352535],[136.798605,36.35231],[136.79783,36.352377],[136.797205,36.35231],[136.79668,36.352202],[136.796293,36.351927],[136.795906,36.35141],[136.795693,36.350985],[136.795656,36.350669],[136.795218,36.349744],[136.794781,36.34961],[136.794418,36.349452],[136.794143,36.349202],[136.793656,36.349027],[136.793318,36.34871],[136.792169,36.348435],[136.791844,36.348302],[136.791406,36.34826],[136.790956,36.34826],[136.790581,36.348077],[136.790081,36.34806],[136.789531,36.348169],[136.789119,36.34831],[136.788269,36.348694],[136.787882,36.348777],[136.787494,36.348735],[136.786869,36.348035],[136.786619,36.347702],[136.786482,36.347185],[136.786432,36.346727],[136.786319,36.346394],[136.785632,36.34576],[136.785382,36.345402],[136.785132,36.344594],[136.784807,36.344211],[136.784645,36.343894],[136.784467,36.342592],[136.78437,36.342111],[136.784857,36.342069],[136.785545,36.341819],[136.78577,36.341528],[136.785957,36.341011],[136.78587,36.340628],[136.785957,36.340311],[136.785982,36.339945],[136.785795,36.33957],[136.785245,36.339111],[136.785182,36.338936],[136.785382,36.338662],[136.785432,36.337587],[136.785495,36.337287],[136.785895,36.33642],[136.78597,36.336029],[136.785945,36.335729],[136.785732,36.335237],[136.785932,36.334954],[136.78632,36.33467],[136.78672,36.334246],[136.78677,36.333912],[136.78677,36.333562],[136.78652,36.333096],[136.78627,36.332712],[136.78567,36.331313],[136.785545,36.331138],[136.785183,36.330779],[136.784233,36.330371],[136.783633,36.330171],[136.783558,36.330113],[136.783433,36.329621],[136.783483,36.329454],[136.78387,36.328879],[136.78417,36.328621],[136.784645,36.328338],[136.785008,36.328055],[136.785645,36.32778],[136.785808,36.327621],[136.78622,36.327088],[136.786595,36.326747],[136.787333,36.326205],[136.788133,36.325538],[136.788808,36.324864],[136.789133,36.324547],[136.789332,36.324264],[136.789682,36.323689],[136.79012,36.322564],[136.790233,36.322072],[136.790233,36.321672],[136.79012,36.321289],[136.78987,36.320972],[136.789595,36.320681],[136.78937,36.320506],[136.789245,36.320206],[136.78937,36.319556],[136.789595,36.318923],[136.78987,36.318356],[136.78997,36.317773],[136.79017,36.31709],[136.79062,36.31594],[136.79062,36.31584],[136.790445,36.315506],[136.790308,36.314707],[136.790095,36.31434],[136.789658,36.313965],[136.789195,36.313682],[136.788821,36.31329],[136.788483,36.312557],[136.788408,36.31219],[136.788833,36.31034],[136.789446,36.309849],[136.789521,36.309782],[136.789696,36.309365],[136.789871,36.308232],[136.789996,36.308016],[136.790271,36.306799],[136.790383,36.306266],[136.790396,36.305366],[136.790546,36.304924],[136.790808,36.304516],[136.790996,36.304008],[136.791083,36.303516],[136.791096,36.303149],[136.790758,36.302358],[136.790671,36.302033],[136.790946,36.301158],[136.791096,36.300733],[136.791296,36.300366],[136.791583,36.300208],[136.791933,36.2999],[136.792371,36.299041],[136.792308,36.298983],[136.792358,36.298825],[136.792284,36.298541],[136.792346,36.29835],[136.792721,36.298091],[136.793471,36.297283],[136.793721,36.296817],[136.793971,36.295942],[136.794459,36.295225],[136.795221,36.294383],[136.795321,36.293717],[136.795359,36.293025],[136.795471,36.292667],[136.795659,36.292392],[136.796158,36.292234],[136.796821,36.292092],[136.798446,36.291192],[136.799083,36.290917],[136.800108,36.290617],[136.800683,36.290384],[136.801083,36.290093],[136.80152,36.289601],[136.801833,36.289093],[136.802483,36.28816],[136.802583,36.287143],[136.802745,36.286751],[136.802883,36.286635],[136.803808,36.286102],[136.804133,36.285868],[136.80452,36.28511],[136.80557,36.284693],[136.805845,36.284485],[136.80607,36.283919],[136.806045,36.283452],[136.80592,36.282994],[136.80597,36.282344],[136.806032,36.281802],[136.805982,36.281227],[136.805845,36.280761],[136.805632,36.280444],[136.80557,36.279169],[136.805508,36.278628],[136.805545,36.277686],[136.805733,36.27727],[136.80587,36.276695],[136.80592,36.276161],[136.806033,36.275711],[136.806507,36.275445],[136.807407,36.275162],[136.808657,36.274595],[136.809957,36.273812],[136.81022,36.273562],[136.810732,36.273403],[136.810957,36.273395],[136.811294,36.273229],[136.811794,36.272604],[136.813307,36.271129],[136.814107,36.270462],[136.814482,36.270037],[136.814669,36.269537],[136.814919,36.269096],[136.815069,36.268596],[136.815032,36.267821],[136.814794,36.266954],[136.814644,36.266588],[136.814619,36.266346],[136.814682,36.266254],[136.814982,36.266163],[136.815669,36.266063],[136.817407,36.265621],[136.818181,36.265621],[136.819106,36.265763],[136.819606,36.265771],[136.820719,36.265571],[136.822331,36.266321],[136.822956,36.266288],[136.824481,36.266105],[136.824981,36.265946],[136.825331,36.265763],[136.825793,36.26568],[136.826855,36.265655],[136.82773,36.265447],[136.828205,36.265438],[136.828655,36.265613],[136.82908,36.265872],[136.829967,36.266013],[136.830417,36.266147],[136.831567,36.266138],[136.832855,36.265972],[136.833392,36.26588],[136.833717,36.265772],[136.833754,36.265688],[136.83353,36.265163],[136.833555,36.264872],[136.83373,36.264555],[136.834017,36.26423],[136.834479,36.263547],[136.835179,36.263089],[136.835392,36.262705],[136.835629,36.262189],[136.835979,36.261772],[136.836229,36.261547],[136.837117,36.261156],[136.837792,36.260706],[136.838354,36.260597],[136.839604,36.260839],[136.840004,36.260781],[136.841004,36.260323],[136.841591,36.259706],[136.841891,36.259548],[136.843379,36.259739],[136.843691,36.259739],[136.844054,36.259489],[136.844591,36.258814],[136.844629,36.25854],[136.844316,36.258031],[136.844191,36.257423],[136.844241,36.256756],[136.844341,36.256348],[136.844379,36.255923],[136.844741,36.255273],[136.844741,36.255023],[136.844666,36.25469],[136.844766,36.254357],[136.845191,36.253748],[136.845541,36.253382],[136.845779,36.253324],[136.846679,36.253274],[136.846854,36.253199],[136.846966,36.253099],[136.847072,36.252982],[136.847354,36.252757],[136.847604,36.25264],[136.848628,36.252357],[136.849691,36.252157],[136.850591,36.251916],[136.851003,36.251691],[136.851116,36.251357],[136.851066,36.250974],[136.850816,36.250474],[136.850741,36.250091],[136.850853,36.249591],[136.851191,36.249208],[136.851703,36.248291],[136.851816,36.248199],[136.851953,36.247949],[136.851928,36.247616],[136.852016,36.24725],[136.852016,36.246916],[136.851853,36.246775],[136.851553,36.246641],[136.851103,36.246683],[136.850578,36.246816],[136.850041,36.246875],[136.849516,36.246766],[136.848266,36.246283],[136.847854,36.246033],[136.847579,36.245733],[136.847054,36.244333],[136.846979,36.24415],[136.846866,36.24365],[136.846954,36.243333],[136.846879,36.242408],[136.846629,36.242117],[136.846416,36.241258],[136.846166,36.2408],[136.845779,36.240258],[136.845566,36.239875],[136.845091,36.239642],[136.844704,36.239325],[136.844491,36.238959],[136.844291,36.238534],[136.844166,36.238084],[136.844029,36.237309],[136.843866,36.236817],[136.843754,36.236675],[136.843279,36.2364],[136.842791,36.236059],[136.842204,36.235292],[136.842041,36.234751],[136.841879,36.234409],[136.840492,36.233701],[136.840167,36.233334],[136.839779,36.232676],[136.839867,36.232276],[136.840267,36.231801],[136.840454,36.231642],[136.840404,36.231417],[136.839604,36.230601],[136.839217,36.230301],[136.838304,36.229893],[136.837642,36.229343],[136.837329,36.228959],[136.836479,36.227468],[136.836079,36.226468],[136.835917,36.226176],[136.835554,36.225943],[136.834942,36.225651],[136.834392,36.225418],[136.833967,36.225301],[136.833667,36.225051],[136.83323,36.22446],[136.832842,36.224118],[136.83248,36.223643],[136.832405,36.223327],[136.832492,36.222518],[136.832417,36.22166],[136.832417,36.221094],[136.832292,36.220102],[136.83183,36.219127],[136.83163,36.218586],[136.831642,36.218111],[136.831692,36.217953],[136.831692,36.217728],[136.831617,36.217453],[136.83153,36.217344],[136.830817,36.216703],[136.83018,36.216403],[136.827655,36.215445],[136.827081,36.215078],[136.826718,36.214736],[136.826418,36.214128],[136.825918,36.213553],[136.825481,36.213262],[136.825031,36.21312],[136.824506,36.21287],[136.823619,36.212595],[136.823206,36.212345],[136.822344,36.211595],[136.821382,36.210887],[136.820907,36.210429],[136.820832,36.210254],[136.820757,36.20957],[136.820644,36.209304],[136.820394,36.208937],[136.820119,36.208329],[136.820019,36.207404],[136.819857,36.207062],[136.819632,36.206746],[136.819532,36.206496],[136.819844,36.205571],[136.820157,36.204921],[136.820319,36.204671],[136.820769,36.204205],[136.821832,36.203421],[136.822619,36.202947],[136.822844,36.20263],[136.822906,36.202297],[136.822856,36.20193],[136.822194,36.201097],[136.821444,36.200414],[136.821194,36.200272],[136.820669,36.200314],[136.820082,36.200472],[136.819019,36.200988],[136.818607,36.201138],[136.817994,36.20093],[136.817245,36.200588],[136.81647,36.200113],[136.81602,36.199947],[136.815557,36.19963],[136.814257,36.198472],[136.81307,36.197764],[136.812982,36.197739],[136.812595,36.19733],[136.812095,36.197105],[136.811108,36.196555],[136.81072,36.196172],[136.810558,36.195714],[136.810333,36.195397],[136.809458,36.194264],[136.80932,36.193922],[136.809245,36.193381],[136.808995,36.193039],[136.808633,36.192856],[136.808045,36.192698],[136.807431,36.192369],[136.80722,36.192198],[136.80692,36.191739],[136.806133,36.189773],[136.805746,36.189481],[136.805558,36.18909],[136.805171,36.188865],[136.804558,36.188681],[136.803858,36.188406],[136.803283,36.188106],[136.802446,36.187582],[136.802308,36.187448],[136.802121,36.187082],[136.802071,36.18654],[136.802133,36.186023],[136.802046,36.185665],[136.801833,36.18539],[136.801671,36.185274],[136.800971,36.18464],[136.800696,36.184349],[136.800484,36.18394],[136.800159,36.183074],[136.799971,36.182016],[136.799646,36.181132],[136.799671,36.180932],[136.799846,36.180416],[136.800109,36.179941],[136.800221,36.179808],[136.800296,36.179558],[136.800421,36.178316],[136.800346,36.177208],[136.800184,36.176733],[136.800021,36.176441],[136.799771,36.176191],[136.799584,36.175917],[136.799459,36.174792],[136.798834,36.173475],[136.798609,36.172684],[136.798509,36.172525],[136.798396,36.172459],[136.798034,36.172317],[136.797371,36.171725],[136.796984,36.171459],[136.796484,36.171292],[136.796234,36.171267],[136.795509,36.171109],[136.794234,36.1709],[136.793122,36.170617],[136.792485,36.170409],[136.791297,36.169884],[136.791185,36.169792],[136.790947,36.169442],[136.790547,36.169101],[136.789647,36.168509],[136.78871,36.167776],[136.78781,36.166868],[136.78716,36.166368],[136.78676,36.166184],[136.786135,36.166026],[136.78466,36.165901],[136.78391,36.166051],[136.783236,36.166476],[136.781973,36.166759],[136.781373,36.166784],[136.780023,36.166726],[136.778536,36.166584],[136.777536,36.166526],[136.777086,36.166301],[136.775949,36.165301],[136.774674,36.164568],[136.774199,36.164385],[136.773449,36.164201],[136.772599,36.164101],[136.771974,36.164076],[136.771399,36.164009],[136.771,36.163893],[136.7708,36.163801],[136.770375,36.163726],[136.770075,36.163726],[136.769825,36.163818],[136.769675,36.163926],[136.769538,36.164053],[136.769312,36.164168],[136.768437,36.164234],[136.768255,36.164151],[136.768081,36.164058],[136.767887,36.163918],[136.7671,36.163026],[136.766775,36.162909],[136.76645,36.162709],[136.76635,36.162435],[136.766325,36.162076],[136.765938,36.16106],[136.766013,36.160693],[136.766225,36.160426],[136.7666,36.160318],[136.767125,36.160052],[136.767787,36.159493],[136.768212,36.159043],[136.768587,36.158843],[136.769012,36.15871],[136.7695,36.15871],[136.77025,36.158744],[136.77115,36.158702],[136.771575,36.158594],[136.771849,36.158369],[136.772237,36.158035],[136.772587,36.157944],[136.772962,36.157794],[136.773362,36.157452],[136.773462,36.157294],[136.773412,36.157227],[136.772899,36.157019],[136.772774,36.156927],[136.772374,36.156452],[136.772024,36.155686],[136.771862,36.155394],[136.771837,36.154986],[136.772462,36.154361],[136.773174,36.153303],[136.773437,36.152786],[136.773562,36.15227],[136.773574,36.151136],[136.773699,36.150828],[136.773987,36.150578],[136.774487,36.150445],[136.774787,36.150403],[136.775537,36.150136],[136.775837,36.14987],[136.776349,36.14922],[136.776474,36.148903],[136.776412,36.148587],[136.776087,36.148245],[136.775562,36.147812],[136.775537,36.147795],[136.775712,36.14752],[136.775824,36.14682],[136.775849,36.146579],[136.775799,36.146279],[136.775787,36.145804],[136.775862,36.14547],[136.775837,36.144904],[136.776024,36.144437],[136.775999,36.143979],[136.776024,36.143937],[136.777062,36.143512],[136.777337,36.143429],[136.777812,36.142954],[136.777962,36.142712],[136.778237,36.142529],[136.778699,36.142421],[136.779074,36.142354],[136.779424,36.142221],[136.779824,36.142179],[136.780374,36.142187],[136.780524,36.142004],[136.780711,36.141671],[136.780736,36.141554],[136.780236,36.140421],[136.779874,36.139813],[136.779799,36.139588],[136.779874,36.139071],[136.779862,36.137713],[136.779999,36.137038],[136.779774,36.136521],[136.779637,36.13593],[136.779637,36.135838],[136.779837,36.135505],[136.779999,36.13483],[136.779949,36.134238],[136.779674,36.133813],[136.779499,36.133697],[136.779074,36.133513],[136.778837,36.133288],[136.778712,36.132747],[136.778487,36.132405],[136.777987,36.132222],[136.777662,36.131988],[136.777337,36.13163],[136.777375,36.131272],[136.777475,36.131063],[136.777875,36.130755],[136.778137,36.130414],[136.778487,36.129472],[136.778312,36.12933],[136.777412,36.129305],[136.777087,36.129164],[136.776512,36.128847],[136.7762,36.128572],[136.7756,36.128205],[136.775125,36.127689],[136.774613,36.126897],[136.774163,36.126464],[136.773763,36.126305],[136.773138,36.12623],[136.772738,36.12623],[136.772563,36.12618],[136.772313,36.125772],[136.772238,36.125497],[136.771913,36.125022],[136.771576,36.124706],[136.771101,36.124181],[136.770801,36.123706],[136.770613,36.123281],[136.770588,36.122914],[136.770301,36.121381],[136.770288,36.120098],[136.770188,36.119623],[136.769876,36.118806],[136.769701,36.118489],[136.769501,36.117989],[136.769564,36.117631],[136.769739,36.117223],[136.770426,36.116331],[136.770476,36.116148],[136.770376,36.115565],[136.769639,36.113956],[136.769176,36.113565],[136.768976,36.11314],[136.768826,36.112481],[136.768789,36.112073],[136.768639,36.111848],[136.768289,36.111731],[136.767964,36.111506],[136.767714,36.111123],[136.767139,36.110598],[136.766977,36.110148],[136.767027,36.109807],[136.766977,36.109423],[136.766864,36.109198],[136.765664,36.10774],[136.765402,36.107265],[136.765327,36.106707],[136.765352,36.106432],[136.765265,36.105957],[136.76499,36.105665],[136.764615,36.105524],[136.763765,36.105365],[136.76364,36.10534],[136.76274,36.104749],[136.76214,36.10429],[136.760578,36.103174],[136.760078,36.102782],[136.759366,36.101874],[136.758716,36.10099],[136.758203,36.10049],[136.757228,36.099874],[136.756653,36.099624],[136.756228,36.099149],[136.756166,36.098632],[136.755991,36.098149],[136.755766,36.097724],[136.755753,36.097116],[136.755978,36.096258],[136.756116,36.095649],[136.756316,36.095224],[136.756278,36.0947],[136.755954,36.093841],[136.755566,36.093141],[136.755304,36.092125],[136.754404,36.090783],[136.754241,36.090425],[136.754116,36.089408],[136.754179,36.089],[136.754654,36.088125],[136.754741,36.0877],[136.754766,36.087134],[136.754704,36.086776],[136.754416,36.086451],[136.754329,36.086417],[136.754266,36.086326],[136.753941,36.085967],[136.753279,36.085609],[136.753166,36.085542],[136.752979,36.085467],[136.752067,36.085926],[136.751467,36.086059],[136.750854,36.086084],[136.750529,36.086125],[136.750117,36.086059],[136.749729,36.085834],[136.749042,36.085542],[136.74838,36.085409],[136.747917,36.085409],[136.747505,36.085475],[136.747039,36.085469],[136.747017,36.085367],[136.745542,36.085084],[136.745168,36.084925],[136.744793,36.084675],[136.744468,36.084376],[136.74408,36.083901],[136.743405,36.082859],[136.74308,36.082542],[136.74288,36.082517],[136.742605,36.082609],[136.74218,36.082509],[136.741043,36.081734],[136.739943,36.081368],[136.739618,36.081168],[136.739243,36.080668],[136.738893,36.080326],[136.738518,36.080251],[136.738168,36.080343],[136.737918,36.080293],[136.737418,36.080109],[136.736744,36.080151],[136.735256,36.080568],[136.734806,36.080634],[136.734381,36.080493],[136.734006,36.080451],[136.733581,36.080468],[136.733007,36.080326],[136.732257,36.080301],[136.731807,36.080526],[136.730944,36.081084],[136.730744,36.081284],[136.730394,36.081367],[136.729994,36.081342],[136.729507,36.081434],[136.729107,36.081584],[136.728757,36.081559],[136.728232,36.081309],[136.727657,36.081151],[136.727007,36.081076],[136.726657,36.081184],[136.726132,36.081526],[136.725695,36.081809],[136.724995,36.082167],[136.72447,36.082209],[136.72382,36.081976],[136.72327,36.081909],[136.722745,36.081926],[136.722245,36.081992],[136.721383,36.081959],[136.720733,36.082025],[136.719983,36.082175],[136.719908,36.082175],[136.719008,36.081809],[136.718108,36.081559],[136.717483,36.081534],[136.716171,36.081767],[136.715496,36.08185],[136.714671,36.081759],[136.713684,36.080892],[136.713509,36.0808],[136.713059,36.0808],[136.711497,36.081017],[136.711097,36.080942],[136.710922,36.080717],[136.710822,36.080425],[136.710622,36.0802],[136.710359,36.079967],[136.709335,36.079442],[136.708935,36.079284],[136.70836,36.079259],[136.707585,36.07925],[136.707247,36.079342],[136.707047,36.079425],[136.706147,36.078951],[136.70576,36.078626],[136.70521,36.077901],[136.703885,36.077334],[136.70296,36.076851],[136.70246,36.076642],[136.70236,36.076576],[136.702048,36.076209],[136.701748,36.075176],[136.701598,36.075018],[136.70066,36.074376],[136.700185,36.074193],[136.69986,36.074009],[136.69951,36.073893],[136.69876,36.073776],[136.698161,36.073709],[136.697636,36.073593],[136.697261,36.073568],[136.697148,36.073584],[136.696348,36.074009],[136.696298,36.074051],[136.695998,36.074209],[136.695773,36.074276],[136.695423,36.074184],[136.694824,36.073701],[136.694199,36.073426],[136.693824,36.073043],[136.693486,36.072434],[136.693311,36.072184],[136.692761,36.071909],[136.692361,36.071526],[136.692286,36.071501],[136.691537,36.071876],[136.691024,36.072168],[136.690724,36.072643],[136.690399,36.072976],[136.689962,36.073109],[136.689537,36.073126],[136.689237,36.073059],[136.688812,36.072759],[136.688362,36.072601],[136.687587,36.072417],[136.687037,36.072184],[136.686587,36.072092],[136.685913,36.072042],[136.68555,36.071634],[136.68515,36.071317],[136.68435,36.071126],[136.683975,36.071151],[136.683625,36.071209],[136.682938,36.071251],[136.682238,36.071026],[136.681713,36.070976],[136.681438,36.070976],[136.681038,36.071126],[136.680838,36.071167],[136.680339,36.070917],[136.678789,36.070501],[136.678039,36.070184],[136.677964,36.070134],[136.677764,36.069867],[136.677702,36.069526],[136.677702,36.069026],[136.677552,36.068734],[136.677127,36.068351],[136.676652,36.068076],[136.676152,36.067867],[136.675927,36.067842],[136.675077,36.067834],[136.674777,36.067609],[136.674265,36.067159],[136.67409,36.067084],[136.674115,36.067109],[136.673727,36.067401],[136.673577,36.067576],[136.673027,36.067959],[136.672015,36.068426],[136.67159,36.068667],[136.671115,36.069142],[136.670878,36.069275],[136.670553,36.069317],[136.670478,36.069292],[136.669216,36.068067],[136.668616,36.067701],[136.668416,36.067701],[136.667291,36.067984],[136.666654,36.068159],[136.665904,36.067867],[136.665029,36.067859],[136.664704,36.067742],[136.663954,36.067534],[136.663429,36.067484],[136.662604,36.067459],[136.662129,36.0675],[136.66178,36.067859],[136.661217,36.068084],[136.660692,36.068192],[136.659717,36.068475],[136.659442,36.068725],[136.658805,36.0689],[136.65868,36.069208],[136.658405,36.069617],[136.65843,36.069683],[136.658743,36.070342],[136.658818,36.070683],[136.658655,36.071425],[136.658305,36.072325],[136.658043,36.072683],[136.657993,36.073066],[136.657918,36.073383],[136.657555,36.073875],[136.657505,36.074483],[136.65748,36.074574],[136.657118,36.074974],[136.656668,36.075133],[136.656318,36.075216],[136.656068,36.075374],[136.655743,36.075441],[136.655443,36.075549],[136.655368,36.075616],[136.655381,36.075758],[136.655306,36.076066],[136.655131,36.076249],[136.655031,36.076408],[136.655056,36.076658],[136.654768,36.077666],[136.654918,36.078074],[136.655405,36.078691],[136.656255,36.079482],[136.65633,36.079866],[136.656318,36.08034],[136.656243,36.080657],[136.656118,36.080899],[136.656393,36.081307],[136.65668,36.08199],[136.656918,36.08289],[136.657043,36.083207],[136.656818,36.083998],[136.656805,36.084182],[136.656755,36.084423],[136.65658,36.084582],[136.656255,36.084715],[136.655455,36.085007],[136.654693,36.085198],[136.654368,36.085382],[136.653705,36.085981],[136.653406,36.08619],[136.653156,36.086406],[136.653231,36.086448],[136.65328,36.086998],[136.653243,36.087131],[136.653031,36.087431],[136.652881,36.087981],[136.652681,36.088439],[136.652481,36.088764],[136.652056,36.089064],[136.651693,36.089264],[136.651468,36.089723],[136.651443,36.090148],[136.651681,36.091206],[136.651605,36.091589],[136.651343,36.092031],[136.650993,36.092322],[136.650468,36.092522],[136.649868,36.092705],[136.648681,36.093147],[136.647918,36.093464],[136.646431,36.094255],[136.645844,36.094438],[136.645419,36.094713],[136.644794,36.095455],[136.644519,36.095947],[136.644156,36.096438],[136.643469,36.097055],[136.642956,36.097288],[136.642469,36.097421],[136.642306,36.097555],[136.642231,36.097688],[136.642006,36.097946],[136.641656,36.098088],[136.640981,36.098196],[136.640857,36.098238],[136.640594,36.098554],[136.640419,36.098671],[136.639669,36.098979],[136.639194,36.099013],[136.638707,36.098904],[136.638032,36.098696],[136.637744,36.098621],[136.637419,36.098354],[136.636707,36.098296],[136.636182,36.098304],[136.63582,36.098429],[136.635095,36.098954],[136.634195,36.099013],[136.633857,36.098979],[136.63297,36.099187],[136.632295,36.099279],[136.631708,36.099712],[136.631258,36.100429],[136.630783,36.100896],[136.62992,36.101337],[136.629558,36.101662],[136.62937,36.101962],[136.62932,36.102145],[136.629408,36.102579],[136.628683,36.102679],[136.628333,36.102795],[136.627458,36.10342],[136.62712,36.103728],[136.626795,36.103828],[136.62587,36.103845],[136.62542,36.103928],[136.62502,36.104145],[136.624733,36.104395],[136.624533,36.104653],[136.624383,36.104787],[136.623796,36.105028],[136.623296,36.105361],[136.622958,36.105536],[136.622783,36.105736],[136.622646,36.105986],[136.622358,36.106295],[136.622067,36.10639],[136.622033,36.10632],[136.620908,36.106553],[136.619858,36.106636],[136.618471,36.106461],[136.618083,36.106594],[136.617409,36.106619],[136.617234,36.106778],[136.617121,36.107044],[136.616884,36.107319],[136.616471,36.107569],[136.615771,36.107794],[136.615184,36.107902],[136.614796,36.108019],[136.614596,36.108261],[136.614271,36.108827],[136.613959,36.109594],[136.613521,36.110177],[136.613246,36.110744],[136.613259,36.111193],[136.613196,36.11146],[136.613134,36.111527],[136.612871,36.111527],[136.612434,36.111485],[136.612021,36.111485],[136.611784,36.111643],[136.611634,36.111868],[136.611609,36.11216],[136.611459,36.112452],[136.611234,36.112701],[136.611346,36.112951],[136.611609,36.113176],[136.611696,36.113176],[136.611971,36.113268],[136.612259,36.113668],[136.612671,36.114526],[136.612671,36.114635],[136.612471,36.115309],[136.612421,36.115676],[136.612296,36.116326],[136.612158,36.116709],[136.611946,36.116867],[136.611208,36.116867],[136.610921,36.117092],[136.610221,36.117676],[136.610046,36.117992],[136.609771,36.118334],[136.609596,36.118442],[136.609096,36.118575],[136.608421,36.118667],[136.608109,36.118917],[136.608021,36.1193],[136.607959,36.119392],[136.607659,36.119567],[136.607046,36.11975],[136.606484,36.119933],[136.605784,36.120317],[136.605521,36.120583],[136.605496,36.120967],[136.605521,36.121033],[136.605559,36.12135],[136.605434,36.121508],[136.605084,36.121575],[136.604609,36.121933],[136.604234,36.122158],[136.604146,36.122408],[136.604171,36.1227],[136.604359,36.123216],[136.604359,36.123533],[136.604534,36.123808],[136.604621,36.124191],[136.604621,36.124641],[136.604446,36.124908],[136.604246,36.125107],[136.604071,36.125382],[136.603709,36.125582],[136.602859,36.126624],[136.602896,36.127074],[136.602983,36.127407],[136.603246,36.127674],[136.603246,36.127882],[136.602958,36.128107],[136.602721,36.128357],[136.602483,36.128665],[136.602221,36.12889],[136.602108,36.12894],[136.601846,36.129232],[136.601408,36.129615],[136.601083,36.129773],[136.600583,36.130132],[136.600146,36.130357],[136.599821,36.130473],[136.599321,36.130423],[136.599171,36.130448],[136.598784,36.130581],[136.598196,36.130698],[136.597559,36.130723],[136.597234,36.130656],[136.596821,36.130698],[136.596584,36.130973],[136.596346,36.13144],[136.595796,36.131889],[136.595409,36.131956],[136.595059,36.131889],[136.594121,36.131514],[136.593559,36.131423],[136.592997,36.131423],[136.592347,36.131306],[136.591672,36.131106],[136.590947,36.130998],[136.590584,36.131014],[136.590172,36.131239],[136.589684,36.131581],[136.589234,36.132006],[136.588709,36.132389],[136.588559,36.132456],[136.587422,36.132481],[136.587334,36.132506],[136.587184,36.132639],[136.586772,36.132889],[136.586797,36.133072],[136.587097,36.133722],[136.586947,36.134197],[136.586659,36.134239],[136.586134,36.134439],[136.585684,36.13478],[136.585334,36.135139],[136.584922,36.135864],[136.584722,36.135997],[136.582197,36.136222],[136.58111,36.136497],[136.580672,36.136763],[136.580397,36.137147],[136.580135,36.137647],[136.579822,36.138005],[136.579372,36.138388],[136.578822,36.138788],[136.578122,36.139471],[136.577885,36.140005],[136.57776,36.140388],[136.57736,36.141313],[136.57701,36.141696],[136.57656,36.142079],[136.576297,36.142238],[136.575685,36.142263],[136.575185,36.142238],[136.574685,36.142279],[136.57436,36.142488],[136.574035,36.142871],[136.573772,36.142979],[136.572597,36.143162],[136.572272,36.143296],[136.57201,36.143546],[136.571398,36.143387],[136.57101,36.143387],[136.570898,36.143412],[136.568785,36.144471],[136.568285,36.144471],[136.567548,36.144221],[136.565598,36.144045],[136.564786,36.144337],[136.563661,36.144562],[136.563161,36.144612],[136.563048,36.144679],[136.562986,36.145012],[136.563111,36.145712],[136.562936,36.146137],[136.562673,36.146545],[136.562523,36.146703],[136.562111,36.147312],[136.562236,36.147762],[136.562061,36.148411],[136.561848,36.148911],[136.561323,36.14997],[136.560973,36.150419],[136.560473,36.151294],[136.560448,36.151928],[136.560273,36.152602],[136.560073,36.152986],[136.559948,36.153077],[136.559573,36.153094],[136.559448,36.153077],[136.559098,36.153119],[136.558686,36.153236],[136.558336,36.153236],[136.557861,36.152919],[136.557861,36.152869],[136.557773,36.152802],[136.557273,36.152786],[136.556811,36.152986],[136.556223,36.153027],[136.555398,36.152944],[136.555123,36.152986],[136.554536,36.153144],[136.554273,36.153327],[136.553773,36.153844],[136.553373,36.154044],[136.552511,36.154294],[136.552161,36.154744],[136.551811,36.154927],[136.551461,36.154785],[136.550836,36.154635],[136.549836,36.154585],[136.549199,36.154518],[136.548336,36.154202],[136.548011,36.153977],[136.547311,36.15326],[136.547186,36.153169],[136.546661,36.152944],[136.546424,36.152902],[136.545687,36.152877],[136.544899,36.152944],[136.543924,36.153102],[136.541812,36.153643],[136.541462,36.153668],[136.540512,36.153402],[136.538449,36.152543],[136.538425,36.152277],[136.53845,36.151918],[136.538125,36.151402],[136.5378,36.150544],[136.537512,36.150277],[136.536775,36.150227],[136.535712,36.14996],[136.535275,36.14976],[136.53465,36.149694],[136.533975,36.149535],[136.534012,36.149444],[136.533862,36.148702],[136.53315,36.148119],[136.53285,36.147602],[136.53265,36.147511],[136.532213,36.147552],[136.5318,36.147511],[136.531238,36.147286],[136.530913,36.147352],[136.530738,36.147552],[136.530625,36.148069],[136.53045,36.14841],[136.529888,36.148952],[136.52945,36.148885],[136.5291,36.148769],[136.527888,36.148685],[136.527325,36.148544],[136.526863,36.148302],[136.526688,36.148144],[136.526563,36.148319],[136.525925,36.148977],[136.5256,36.149269],[136.525363,36.149785],[136.525013,36.150035],[136.52445,36.150302],[136.523188,36.150685],[136.521925,36.151202],[136.521513,36.15141],[136.521488,36.15136],[136.520425,36.15076],[136.520038,36.15046],[136.519625,36.150285],[136.5191,36.150152],[136.518601,36.149835],[136.518488,36.14981],[136.518076,36.14981],[136.517538,36.149702],[136.517188,36.149452],[136.516926,36.149185],[136.516101,36.148893],[136.515213,36.14851],[136.514276,36.148327],[136.513276,36.147569],[136.512501,36.146869],[136.512214,36.146552],[136.511951,36.146394],[136.511951,36.146352],[136.511176,36.146235],[136.510476,36.146285],[136.509689,36.146394],[136.508801,36.146644],[136.507064,36.146627],[136.506452,36.146577],[136.505714,36.146577],[136.505452,36.146669],[136.505327,36.14676],[136.503952,36.148535],[136.503864,36.149302],[136.503752,36.149527],[136.503452,36.149668],[136.50169,36.149752],[136.50149,36.149826],[136.500815,36.149935],[136.50014,36.149935],[136.49949,36.149868],[136.497578,36.149801],[136.49719,36.149693],[136.497079,36.14969],[136.497053,36.14966],[136.496703,36.149885],[136.49659,36.149926],[136.496203,36.150443],[136.495915,36.150985],[136.495241,36.151951],[136.494891,36.152859],[136.494866,36.153443],[136.494191,36.155084],[136.493491,36.156076],[136.493166,36.156367],[136.492491,36.156817],[136.492228,36.157359],[136.491966,36.158034],[136.491766,36.158326],[136.491703,36.158376],[136.490991,36.158601],[136.490404,36.158709],[136.489679,36.158892],[136.488229,36.159142],[136.487729,36.159076],[136.487229,36.158867],[136.486817,36.158576],[136.486642,36.158126],[136.486554,36.157792],[136.486254,36.157567],[136.485205,36.157276],[136.484142,36.157209],[136.483492,36.156892],[136.483143,36.156626],[136.482643,36.155809],[136.48193,36.155001],[136.481543,36.154618],[136.48098,36.154126],[136.479068,36.152751],[136.477981,36.152076],[136.477506,36.15181],[136.477306,36.15161],[136.477156,36.151176],[136.477269,36.150951],[136.477269,36.150635],[136.476656,36.150143],[136.476206,36.149735],[136.475819,36.149126],[136.475681,36.14866],[136.475469,36.148301],[136.474969,36.14776],[136.474382,36.146793],[136.474057,36.146585],[136.473707,36.146676],[136.473294,36.14686],[136.472707,36.146743],[136.47217,36.146676],[136.471557,36.146476],[136.471107,36.14616],[136.470645,36.145893],[136.470232,36.145485],[136.46972,36.144768],[136.468545,36.14326],[136.468345,36.14306],[136.46802,36.142627],[136.46772,36.14231],[136.46757,36.142202],[136.46637,36.141869],[136.466283,36.141819],[136.465958,36.141302],[136.465333,36.140586],[136.465208,36.140044],[136.464771,36.139411],[136.464558,36.138803],[136.464508,36.138245],[136.464208,36.137545],[136.463621,36.137611],[136.462671,36.13712],[136.461321,36.136553],[136.460821,36.136603],[136.460384,36.136762],[136.459909,36.136828],[136.458797,36.136803],[136.458172,36.136695],[136.457409,36.136645],[136.456797,36.13627],[136.456672,36.13622],[136.456297,36.136353],[136.455297,36.13717],[136.454297,36.137661],[136.453385,36.138003],[136.45271,36.138228],[136.452272,36.138161],[136.452072,36.138161],[136.45166,36.138228],[136.451572,36.138294],[136.45121,36.138794],[136.450535,36.139378],[136.449722,36.140028],[136.448835,36.140619],[136.448548,36.140752],[136.448423,36.140727],[136.448073,36.140569],[136.447923,36.140461],[136.446835,36.140011],[136.446285,36.139919],[136.44596,36.139919],[136.445898,36.139944],[136.44546,36.139877],[136.445073,36.139586],[136.444573,36.139336],[136.444135,36.139202],[136.443248,36.138702],[136.44286,36.138527],[136.442485,36.138302],[136.442098,36.138011],[136.442098,36.137786],[136.44201,36.137494],[136.44171,36.137286],[136.441036,36.137219],[136.440686,36.137244],[136.440386,36.137311],[136.439923,36.137811],[136.439486,36.138169],[136.439398,36.138619],[136.438923,36.139769],[136.438574,36.140102],[136.438674,36.141252],[136.438586,36.141752],[136.438349,36.142018],[136.437849,36.142285],[136.435374,36.142827],[136.434849,36.14276],[136.434374,36.142835],[136.434374,36.142852],[136.433912,36.14301],[136.433437,36.143127],[136.431937,36.143351],[136.431675,36.14346],[136.431175,36.144318],[136.430887,36.144743],[136.430325,36.145268],[136.429775,36.146009],[136.429562,36.146184],[136.428275,36.146909],[136.427862,36.147226],[136.427512,36.148284],[136.42675,36.149276],[136.426687,36.149317],[136.426637,36.149609],[136.426812,36.150717],[136.426762,36.151117],[136.426462,36.151542],[136.426287,36.1517],[136.4255,36.152833],[136.424962,36.153283],[136.4247,36.153617],[136.424562,36.154183],[136.424387,36.154475],[136.423737,36.1547],[136.422975,36.154808],[136.422412,36.154833],[136.421887,36.154741],[136.420712,36.154725],[136.420412,36.154766],[136.41985,36.154899],[136.419237,36.155374],[136.418887,36.155508],[136.41845,36.155491],[136.417825,36.155649],[136.417387,36.155599],[136.416912,36.155491],[136.4163,36.155624],[136.415913,36.155824],[136.415238,36.156416],[136.414825,36.156524],[136.414325,36.156574],[136.4141,36.156749],[136.414013,36.157091],[136.413863,36.157424],[136.413513,36.157949],[136.413275,36.158532],[136.413163,36.159007],[136.412925,36.159524],[136.41255,36.159749],[136.41205,36.159907],[136.411575,36.160132],[136.4114,36.160357],[136.411338,36.16069],[136.411613,36.161098],[136.4119,36.161365],[136.411987,36.162223],[136.412112,36.162557],[136.412287,36.162807],[136.412237,36.16409],[136.412287,36.16434],[136.412562,36.164606],[136.412762,36.164898],[136.412912,36.165598],[136.413175,36.166231],[136.4133,36.166765],[136.412887,36.167914],[136.412624,36.168364],[136.412062,36.168906],[136.411799,36.169264],[136.411687,36.169764],[136.411012,36.169948],[136.410437,36.170039],[136.409974,36.170531],[136.409599,36.171297],[136.409474,36.171772],[136.409474,36.172172],[136.409287,36.172205],[136.4076,36.171747],[136.406612,36.171289],[136.405837,36.170647],[136.405262,36.170364],[136.40455,36.170297],[136.403725,36.170347],[136.401313,36.17058],[136.400451,36.170622],[136.397701,36.17058],[136.397113,36.170489],[136.396438,36.170255],[136.396126,36.170097],[136.395851,36.169797],[136.394889,36.169097],[136.394301,36.168805],[136.393389,36.168464],[136.392064,36.16813],[136.390864,36.167614],[136.390389,36.167456],[136.389952,36.167414],[136.389302,36.167564],[136.388827,36.167639],[136.387502,36.167547],[136.386565,36.167297],[136.385952,36.167589],[136.385915,36.167639],[136.385602,36.167772],[136.38504,36.167864],[136.384865,36.167864],[136.38424,36.168022],[136.38374,36.168272],[136.383328,36.168405],[136.382928,36.168447],[136.382365,36.16843],[136.381215,36.168739],[136.38069,36.168764],[136.379428,36.168205],[136.379016,36.168364],[136.378603,36.168605],[136.376928,36.169213],[136.376453,36.169305],[136.375866,36.169372],[136.375454,36.169488],[136.374841,36.169738],[136.374704,36.169763],[136.374729,36.169813],[136.374291,36.17003],[136.373854,36.17013],[136.372929,36.170088],[136.372466,36.170013],[136.372091,36.169859],[136.368792,36.169763],[136.368142,36.169238],[136.367942,36.16908],[136.367692,36.169013],[136.367317,36.168763],[136.36698,36.167547],[136.36703,36.167522],[136.36673,36.167022],[136.365967,36.16623],[136.36568,36.166072],[136.365167,36.16598],[136.36428,36.165972],[136.363905,36.16603],[136.36343,36.16608],[136.36263,36.16603],[136.362105,36.165905],[136.360543,36.16563],[136.359731,36.165397],[136.359081,36.165364],[136.358493,36.165364],[136.358018,36.165455],[136.357618,36.165697],[136.357043,36.166189],[136.356756,36.166572],[136.356156,36.16728],[136.355493,36.16838],[136.354931,36.168963],[136.354106,36.169297],[136.353681,36.169363],[136.353068,36.169422],[136.351969,36.169355],[136.351294,36.169388],[136.350944,36.169563],[136.350744,36.169763],[136.350631,36.169805],[136.350381,36.170013],[136.350244,36.17008],[136.348819,36.170546],[136.348406,36.170771],[136.347794,36.171405],[136.346981,36.171896],[136.346231,36.172279],[136.345456,36.172479],[136.344256,36.172846],[136.343919,36.173113],[136.343644,36.173496],[136.342556,36.174396],[136.342081,36.174846],[136.342019,36.175162],[136.341744,36.175704],[136.341694,36.175904],[136.341544,36.177079],[136.341356,36.177354],[136.340881,36.178187],[136.340519,36.179112],[136.340119,36.179537],[136.339569,36.17992],[136.339344,36.180212],[136.339281,36.180578],[136.339319,36.181003],[136.339206,36.181478],[136.338869,36.181953],[136.338706,36.182111],[136.337531,36.183728],[136.337169,36.184044],[136.336019,36.184477],[136.335606,36.185036],[136.335631,36.185444],[136.335744,36.185894],[136.335744,36.186394],[136.335969,36.187027],[136.336044,36.187135],[136.336656,36.188402],[136.336794,36.188835],[136.336744,36.189152],[136.336606,36.189535],[136.336631,36.18996],[136.336931,36.190818],[136.336906,36.191293],[136.336681,36.191943],[136.336406,36.192576],[136.336094,36.194185],[136.335931,36.194609],[136.335569,36.194809],[136.334481,36.194876],[136.334144,36.194918],[136.333444,36.195101],[136.332856,36.195443],[136.332219,36.196701],[136.332244,36.197292],[136.332331,36.197784],[136.332331,36.198284],[136.332244,36.198776],[136.331969,36.19975],[136.331706,36.200225],[136.331381,36.200675],[136.331181,36.20085],[136.330681,36.201142],[136.329894,36.201434],[136.329419,36.2018],[136.329319,36.201958],[136.329119,36.202858],[136.329031,36.20295],[136.328894,36.203267],[136.328756,36.204258],[136.328531,36.205408],[136.328381,36.206466],[136.328331,36.2076],[136.328131,36.208391],[136.327856,36.208724],[136.327906,36.209333],[136.327719,36.209766],[136.327881,36.210216],[136.328106,36.210374],[136.328219,36.210399],[136.328406,36.210649],[136.328656,36.211458],[136.328906,36.211932],[136.329581,36.212791],[136.329856,36.213041],[136.329931,36.213174],[136.330044,36.213541],[136.329819,36.214082],[136.329744,36.214399],[136.329743,36.215182],[136.329931,36.215682],[136.330656,36.216565],[136.331018,36.216907],[136.331218,36.21724],[136.331218,36.217607],[136.330906,36.218507],[136.330431,36.218999],[136.330068,36.219565],[136.329843,36.220107],[136.329618,36.220448],[136.329143,36.220915],[136.328693,36.22144],[136.328943,36.22209],[136.328918,36.222698],[136.328831,36.223173],[136.328806,36.223715],[136.328856,36.224281],[136.328968,36.224556],[136.329418,36.224848],[136.329718,36.225256],[136.329893,36.225731],[136.330368,36.226656],[136.33073,36.227156],[136.331005,36.227423],[136.331193,36.227698],[136.33148,36.228239],[136.331668,36.228506],[136.33173,36.228648],[136.331868,36.228939],[136.332055,36.229206],[136.33223,36.229348],[136.33223,36.229664],[136.332055,36.229864],[136.331943,36.229931],[136.331443,36.229973],[136.331005,36.229906],[136.329518,36.229997],[136.328431,36.230331],[136.327843,36.230672],[136.327656,36.230964],[136.327231,36.231772],[136.326931,36.23213],[136.326568,36.232272],[136.326093,36.232247],[136.325531,36.232105],[136.324943,36.23193],[136.324006,36.231697],[136.323381,36.23163],[136.322856,36.231722],[136.322581,36.23183],[136.321969,36.232572],[136.321656,36.232797],[136.321094,36.232914],[136.320619,36.233047],[136.319869,36.233472],[136.319819,36.233563],[136.319369,36.233588],[136.319056,36.23363],[136.318694,36.23388],[136.318556,36.234013],[136.318007,36.23428],[136.317444,36.234438],[136.316857,36.234796],[136.316519,36.235321],[136.316269,36.236221],[136.315957,36.237013],[136.315432,36.237796],[136.315457,36.238138],[136.315982,36.238863],[136.316657,36.239471],[136.317431,36.240471],[136.317606,36.240896],[136.317494,36.241279],[136.317344,36.242162],[136.317231,36.242454],[136.317206,36.242812],[136.317044,36.242954],[136.316732,36.243087],[136.316619,36.243195],[136.316169,36.244012],[136.315869,36.24437],[136.315507,36.244704],[136.315419,36.244845],[136.315307,36.245228],[136.315357,36.245612],[136.315307,36.245837],[136.315194,36.245903],[136.312994,36.246528],[136.312519,36.246528],[136.312407,36.246437],[136.311957,36.24637],[136.311345,36.246412],[136.310757,36.246528],[136.310345,36.246861],[136.310145,36.246953],[136.30962,36.246978],[136.308895,36.246745],[136.308645,36.246728],[136.30842,36.246861],[136.308307,36.24722],[136.308082,36.247561],[136.306383,36.249094],[136.306158,36.249403],[136.305283,36.250169],[136.304508,36.250986],[136.304083,36.251661],[136.303945,36.252002],[136.303695,36.252452],[136.303208,36.253085],[136.30317,36.253602],[136.303483,36.254235],[136.303595,36.254869],[136.30332,36.255543],[136.303258,36.255835],[136.30312,36.256177],[136.30282,36.25651],[136.302608,36.256918],[136.301808,36.257868],[136.301396,36.258201],[136.301283,36.258251],[136.300846,36.258318],[136.300433,36.258268],[136.300021,36.25816],[136.299471,36.25796],[136.298921,36.25791],[136.298671,36.258043],[136.298396,36.258568],[136.298184,36.258768],[136.297821,36.258926],[136.296671,36.259059],[136.296209,36.259243],[136.295734,36.259943],[136.295184,36.260459],[136.294809,36.260709],[136.294221,36.260909],[136.293621,36.261067],[136.293071,36.261134],[136.292522,36.261117],[136.291372,36.260892],[136.290347,36.260643],[136.289197,36.260468],[136.288809,36.260559],[136.287959,36.261234],[136.287197,36.261484],[136.285872,36.261617],[136.28546,36.261709],[136.285072,36.262001],[136.285022,36.262292],[136.285209,36.262675],[136.285359,36.263484],[136.285247,36.263759],[136.284772,36.263825],[136.283922,36.263784],[136.283435,36.263917],[136.28321,36.264234],[136.28316,36.264567],[136.28316,36.265092],[136.283072,36.265558],[136.28291,36.265783],[136.282635,36.2659],[136.282335,36.265833],[136.281972,36.265583],[136.281622,36.265225],[136.281172,36.264867],[136.280572,36.264433],[136.280047,36.264367],[136.27956,36.264508],[136.279035,36.2648],[136.278347,36.26505],[136.277198,36.264842],[136.276723,36.264917],[136.276373,36.265158],[136.275848,36.266067],[136.275485,36.266175],[136.274973,36.26615],[136.274285,36.266041],[136.27371,36.265817],[136.273348,36.265592],[136.272798,36.265325],[136.272635,36.265325],[136.27216,36.265525],[136.271373,36.266158],[136.271123,36.266266],[136.270823,36.266091],[136.270436,36.265933],[136.270211,36.265933],[136.269886,36.266091],[136.269473,36.266341],[136.269086,36.266341],[136.268848,36.2662],[136.268736,36.265825],[136.268598,36.265166],[136.268511,36.264967],[136.268298,36.264742],[136.267848,36.264717],[136.267336,36.264833],[136.266886,36.264966],[136.266423,36.265533],[136.266098,36.265666],[136.265923,36.265916],[136.265961,36.266183],[136.266261,36.266633],[136.266561,36.266925],[136.266948,36.267374],[136.267386,36.268258],[136.267961,36.268958],[136.268211,36.269333],[136.268348,36.269699],[136.268298,36.269924],[136.267798,36.269966],[136.266948,36.269949],[136.266423,36.269791],[136.265898,36.269499],[136.265461,36.269316],[136.264936,36.269183],[136.263811,36.269024],[136.263186,36.268999],[136.262936,36.269157],[136.262961,36.269591],[136.263099,36.269949],[136.263374,36.270399],[136.263948,36.271141],[136.264011,36.271482],[136.263711,36.271732],[136.262436,36.272132],[136.262024,36.272357],[136.261399,36.272857],[136.261349,36.273149],[136.261511,36.273465],[136.261811,36.273665],[136.263211,36.274415],[136.263711,36.274723],[136.264036,36.27504],[136.264261,36.275515],[136.264198,36.275715],[136.264036,36.275782],[136.261974,36.276148],[136.261949,36.276173],[136.262036,36.276398],[136.262386,36.276707],[136.262661,36.277073],[136.263598,36.27759],[136.264173,36.277948],[136.264223,36.278065],[136.264061,36.27849],[136.263848,36.278673],[136.262586,36.279531],[136.262273,36.279573],[136.261861,36.279215],[136.261511,36.278806],[136.261099,36.278581],[136.260349,36.278265],[136.259974,36.277973],[136.259799,36.277931],[136.259449,36.27804],[136.258899,36.278565],[136.258349,36.278898],[136.257749,36.279148],[136.257199,36.279331],[136.256562,36.279423],[136.256174,36.279556],[136.256124,36.279806],[136.256287,36.280231],[136.257161,36.281631],[136.257386,36.282464],[136.257386,36.282848],[136.257224,36.283406],[136.256836,36.284447],[136.256699,36.284964],[136.256624,36.285506],[136.256586,36.286047],[136.256724,36.286564],[136.256924,36.287064],[136.257224,36.287597],[136.258049,36.288747],[136.258436,36.289222],[136.258486,36.289405],[136.258436,36.289447],[136.257474,36.289422],[136.257036,36.289447],[136.255936,36.28963],[136.255211,36.289897],[136.254999,36.290238],[136.254937,36.290488],[136.254474,36.290622],[136.254224,36.29058],[136.253924,36.290463],[136.253512,36.29058],[136.252249,36.291372],[136.252224,36.291413],[136.251887,36.291572],[136.251399,36.29173],[136.250849,36.291796],[136.2498,36.291821],[136.249525,36.291755],[136.249275,36.291821],[136.2489,36.291863],[136.24845,36.292163],[136.248125,36.29268],[136.247912,36.29293],[136.2475,36.293196],[136.247047,36.293312],[136.246562,36.293555],[136.245487,36.294154],[136.244775,36.294679],[136.2446,36.294746],[136.244187,36.295063],[136.244,36.295454],[136.244562,36.295763],[136.244325,36.296029],[136.244487,36.296321],[136.244687,36.296346],[136.244937,36.296321],[136.245187,36.296404],[136.2459,36.296829],[136.247025,36.297762],[136.247599,36.298021],[136.248012,36.298287],[136.248349,36.298562],[136.249337,36.299171],[136.249937,36.299712],[136.250412,36.299979],[136.250899,36.300112],[136.251674,36.300562],[136.252411,36.300945],[136.253186,36.30142],[136.254124,36.30187],[136.254773,36.302254],[136.255248,36.302704],[136.255636,36.303179],[136.256048,36.303404],[136.256648,36.303629],[136.257248,36.303937],[136.258323,36.304678],[136.258485,36.304753],[136.25906,36.305087],[136.259448,36.30547],[136.259535,36.305653],[136.259748,36.305945],[136.26071,36.306328],[136.261235,36.306662],[136.261647,36.307228],[136.262197,36.307695],[136.263185,36.30842],[136.264622,36.309478],[136.264784,36.309545],[136.265334,36.31002],[136.265772,36.310511],[136.266184,36.310869],[136.266597,36.311028],[136.267072,36.311436],[136.267447,36.311844],[136.268034,36.312178],[136.268446,36.312561],[136.268859,36.313011],[136.269509,36.313619],[136.270234,36.314494],[136.271108,36.315377],[136.271796,36.315619],[136.272183,36.315844],[136.272733,36.316227],[136.273196,36.316677],[136.273833,36.317536],[136.27457,36.318144],[136.274933,36.318552],[136.275395,36.318819],[136.27592,36.319385],[136.276858,36.320644],[136.27812,36.322085],[136.278782,36.323052],[136.27887,36.323527],[136.278807,36.323618],[136.27837,36.323952],[136.277957,36.324493],[136.278007,36.325285],[136.277957,36.325418],[136.277732,36.325485],[136.277732,36.325626],[136.277657,36.326143],[136.277732,36.32641],[136.277982,36.326701],[136.278807,36.327443],[136.27912,36.328168],[136.27917,36.328593],[136.279332,36.329293],[136.279557,36.329743],[136.280382,36.330643],[136.280595,36.331076],[136.281094,36.331659],[136.281369,36.332084],[136.281732,36.332292],[136.282794,36.332692],[136.283819,36.333259],[136.285007,36.334292],[136.285557,36.334676],[136.286406,36.335459],[136.287694,36.336384],[136.288506,36.3372],[136.289669,36.338833],[136.289981,36.339458],[136.290169,36.339742],[136.290731,36.340192],[136.291006,36.34055],[136.291281,36.341],[136.291406,36.341341],[136.291418,36.341875],[136.291393,36.342766],[136.291318,36.344049],[136.291393,36.344483],[136.291806,36.345549],[136.291893,36.345674],[136.292093,36.345799],[136.292281,36.345791],[136.292381,36.345758],[136.292531,36.345766],[136.292893,36.346099],[136.293291,36.346408],[136.293881,36.346749],[136.295005,36.347132],[136.295543,36.347441],[136.296193,36.347982],[136.29663,36.348457],[136.296693,36.348557],[136.29698,36.348682],[136.29698,36.348774],[136.296805,36.348916],[136.296905,36.349329],[136.297018,36.34964],[136.297118,36.349807],[136.297193,36.35029],[136.297268,36.35039],[136.29758,36.350465],[136.297868,36.35059],[136.298705,36.350815],[136.299267,36.351324],[136.299505,36.351582],[136.299555,36.351823],[136.299392,36.351965],[136.29933,36.352257],[136.299355,36.352448],[136.29943,36.352557],[136.299805,36.352407],[136.300492,36.351957],[136.30083,36.351807],[136.301467,36.351823],[136.301817,36.351882],[136.302017,36.351815],[136.302292,36.351624],[136.302792,36.351365],[136.30318,36.351274],[136.303604,36.351232],[136.304129,36.351265],[136.304592,36.351349],[136.305242,36.351515],[136.305817,36.351732],[136.306179,36.35194],[136.306329,36.352232],[136.306279,36.352582],[136.306329,36.352873],[136.306392,36.353023],[136.306615,36.353165],[136.307127,36.353157],[136.307679,36.35299],[136.308329,36.352657],[136.308492,36.352607],[136.308979,36.352557],[136.309666,36.352632],[136.311016,36.353073],[136.311541,36.353298],[136.311916,36.35364],[136.312141,36.353723],[136.312466,36.353748],[136.312791,36.353798],[136.313491,36.353382],[136.313747,36.353169],[136.314004,36.352898],[136.314229,36.35279],[136.314466,36.352807],[136.314603,36.353157],[136.316128,36.353307],[136.316028,36.353915],[136.316328,36.353973],[136.316428,36.353307],[136.318603,36.353615],[136.318541,36.354015],[136.319241,36.35409],[136.319715,36.354165],[136.320278,36.354348],[136.32094,36.354598],[136.321628,36.35499],[136.321965,36.355282],[136.322015,36.355498],[136.321778,36.356081],[136.32204,36.356398],[136.322403,36.35664],[136.322606,36.356726],[136.322762,36.356825],[136.32294,36.356798],[136.323115,36.356556],[136.323215,36.356148],[136.323303,36.356048],[136.323765,36.355948],[136.324652,36.356015],[136.325277,36.35614],[136.325727,36.356156],[136.326227,36.356223],[136.327365,36.356681],[136.328377,36.356981],[136.329115,36.35729],[136.32954,36.357556],[136.329864,36.357656],[136.330352,36.357748],[136.331027,36.357923],[136.331789,36.358215],[136.332264,36.358448],[136.333252,36.358648],[136.333752,36.358931],[136.334252,36.359164],[136.335039,36.359473],[136.336301,36.360064],[136.336939,36.360498],[136.337164,36.360689],[136.337676,36.360973],[136.338189,36.361181],[136.338601,36.361472],[136.339326,36.361906],[136.341451,36.362997],[136.343838,36.364089],[136.344988,36.36468],[136.34615,36.365339],[136.346888,36.365905],[136.347542,36.366491],[136.348212,36.366963],[136.349162,36.367371],[136.351137,36.368446],[136.352674,36.369338],[136.353387,36.369813],[136.353837,36.370046],[136.354162,36.370304],[136.354924,36.370812],[136.355536,36.371296],[136.356549,36.372021],[136.357174,36.372412],[136.357686,36.372787],[136.357811,36.372912],[136.358611,36.373512],[136.359686,36.374179],[136.361073,36.375137],[136.36291,36.376586],[136.36366,36.377178],[136.365673,36.378586],[136.366685,36.379519],[136.368185,36.380619],[136.372084,36.383735],[136.372672,36.38421],[136.373622,36.384843],[136.374459,36.385277],[136.374759,36.385477],[136.375459,36.386293],[136.375909,36.386685],[136.376546,36.387093],[136.377209,36.387634],[136.377683,36.387976],[136.378496,36.388634],[136.379108,36.389084],[136.380383,36.390376],[136.38072,36.390559],[136.381058,36.390667],[136.381395,36.390876],[136.381945,36.391376],[136.382445,36.391667],[136.383733,36.392667],[136.38437,36.393209],[136.385207,36.394183],[136.385345,36.3943],[136.38627,36.394708],[136.386732,36.394983],[136.387769,36.395708],[136.390419,36.39775],[136.392144,36.399399],[136.392644,36.399941],[136.393168,36.400416],[136.394643,36.401558],[136.395256,36.402099],[136.395656,36.402549],[136.39648,36.403257],[136.39693,36.403682],[136.397793,36.404207],[136.399105,36.405207],[136.400192,36.406132],[136.402229,36.407607],[136.402817,36.407948],[136.403592,36.408557],[136.405404,36.41019],[136.406016,36.41069],[136.408079,36.412573],[136.408741,36.413247],[136.409528,36.413731],[136.410478,36.414456],[136.410916,36.414839],[136.41239,36.416313],[136.413065,36.416697],[136.413804,36.417382],[136.41409,36.417763],[136.414853,36.418396],[136.415215,36.418646],[136.41609,36.419729],[136.416752,36.420288],[136.417065,36.420471],[136.417777,36.421113],[136.418052,36.422062],[136.418468,36.422775],[136.418852,36.423304],[136.419439,36.423762],[136.420264,36.424512],[136.421427,36.425445],[136.422289,36.426195],[136.422427,36.42627],[136.422876,36.426587],[136.425451,36.428795],[136.425701,36.429112],[136.426614,36.430095],[136.427388,36.430662],[136.427913,36.431228],[136.428751,36.432003],[136.428988,36.43232],[136.429126,36.432637],[136.429301,36.432753],[136.429626,36.432887],[136.429963,36.433186],[136.430263,36.43362],[136.430538,36.433936],[136.431824,36.435274],[136.43249,36.435836],[136.433038,36.436411],[136.4337,36.437344],[136.434088,36.437686],[136.434912,36.438528],[136.435062,36.438619],[136.435525,36.439078],[136.436085,36.439473],[136.4365,36.439778],[136.436937,36.440144],[136.438762,36.442527],[136.439462,36.443102],[136.439649,36.443194],[136.439987,36.443486],[136.440987,36.444644],[136.441762,36.445352],[136.442399,36.446052],[136.443537,36.44721],[136.443811,36.44776],[136.445049,36.448919],[136.445186,36.449127],[136.445661,36.449644],[136.446324,36.450194],[136.446774,36.45076],[136.447136,36.451327],[136.447799,36.451877],[136.448598,36.452893],[136.448823,36.453302],[136.449123,36.453602],[136.449423,36.453827],[136.449986,36.45471],[136.450286,36.455077],[136.451423,36.456052],[136.451886,36.456693],[136.452223,36.457235],[136.452973,36.45826],[136.453436,36.45876],[136.453798,36.459076],[136.45416,36.459526],[136.455185,36.460751],[136.45641,36.461826],[136.45671,36.462276],[136.456985,36.462826],[136.45726,36.463251],[136.457535,36.463526],[136.45826,36.464076],[136.46061,36.466601],[136.461172,36.467368],[136.462022,36.468751],[136.462685,36.469409],[136.462822,36.469593],[136.46366,36.470393],[136.464347,36.471276],[136.46496,36.471868],[136.466759,36.474001],[136.467397,36.474642],[136.467784,36.475092],[136.468534,36.476134],[136.469172,36.477201],[136.470197,36.478051],[136.471034,36.478867],[136.471609,36.479884],[136.472971,36.481209],[136.473221,36.481384],[136.474159,36.482633],[136.474708,36.483067],[136.475271,36.483817],[136.475708,36.484342],[136.476233,36.485383],[136.477258,36.486741],[136.477896,36.48765],[136.47867,36.488766],[136.478945,36.489374],[136.479908,36.490716],[136.480358,36.491058],[136.480508,36.491174],[136.48072,36.491399],[136.481433,36.492082],[136.481907,36.492582],[136.482382,36.492966],[136.482857,36.493449],[136.483182,36.493716],[136.484132,36.494316],[136.485382,36.495274],[136.485445,36.495357],[136.486332,36.495932],[136.487307,36.496615],[136.487944,36.497115],[136.489419,36.498615],[136.489757,36.498865],[136.490669,36.49969],[136.491669,36.500398],[136.492256,36.50094],[136.492369,36.501082],[136.492466,36.501203],[136.492669,36.501373],[136.493394,36.501923],[136.493644,36.50219],[136.494006,36.50274],[136.494256,36.503007],[136.494194,36.503057],[136.494181,36.50309],[136.494431,36.503298],[136.495531,36.50399],[136.496206,36.504582],[136.496481,36.505232],[136.496643,36.505357],[136.497017,36.505444],[136.497178,36.5055],[136.497381,36.505757],[136.497406,36.506098],[136.497331,36.50634],[136.497356,36.506456],[136.497493,36.506565],[136.497768,36.506565],[136.498418,36.50684],[136.498868,36.507157],[136.499381,36.507673],[136.499656,36.508057],[136.500038,36.508357],[136.500481,36.508573],[136.500567,36.508741],[136.500681,36.508932],[136.500731,36.509365],[136.500843,36.50954],[136.501368,36.509723],[136.501531,36.509856],[136.501606,36.510198],[136.501743,36.510423],[136.502431,36.510648],[136.502631,36.510873],[136.502743,36.511231],[136.502843,36.511498],[136.503318,36.511548],[136.503556,36.511656],[136.503805,36.511815],[136.504005,36.512106],[136.504243,36.512831],[136.504905,36.513306],[136.505018,36.513665],[136.505268,36.513931],[136.505593,36.514065],[136.50593,36.514656],[136.506368,36.514815],[136.50683,36.515148],[136.506943,36.51544],[136.50713,36.51569],[136.507605,36.515823],[136.50788,36.516073],[136.507955,36.516706],[136.50823,36.516881],[136.508592,36.516998],[136.509142,36.517223],[136.509417,36.517581],[136.50983,36.517989],[136.51008,36.518456],[136.510267,36.518598],[136.510655,36.518756],[136.510892,36.519139],[136.51093,36.519448],[136.511255,36.519656],[136.51178,36.519789],[136.51208,36.520039],[136.512242,36.520531],[136.512379,36.520781],[136.512629,36.520939],[136.513129,36.521114],[136.513404,36.521406],[136.513679,36.521972],[136.513842,36.522172],[136.514167,36.522289],[136.514554,36.522356],[136.514692,36.522489],[136.514854,36.522581],[136.515242,36.523122],[136.515292,36.523664],[136.515841,36.523956],[136.516004,36.524156],[136.516066,36.524472],[136.516179,36.524764],[136.516416,36.524947],[136.516829,36.525039],[136.517079,36.525239],[136.517579,36.526097],[136.517904,36.526339],[136.518316,36.526747],[136.518541,36.527155],[136.519028,36.527555],[136.519116,36.527847],[136.519394,36.528208],[136.519753,36.528455],[136.520103,36.528755],[136.520191,36.528864],[136.520257,36.529297],[136.520516,36.529514],[136.520816,36.529697],[136.521091,36.530172],[136.521528,36.53028],[136.522003,36.530572],[136.522116,36.530822],[136.522278,36.531022],[136.523078,36.531472],[136.523378,36.53193],[136.523378,36.532263],[136.523428,36.532397],[136.523653,36.532538],[136.52414,36.532688],[136.52439,36.532872],[136.524528,36.533163],[136.524553,36.533455],[136.524753,36.533596],[136.52519,36.533705],[136.525489,36.533769],[136.525715,36.533747],[136.525965,36.533813],[136.526065,36.533955],[136.52604,36.533997],[136.525726,36.533965],[136.525554,36.53403],[136.525878,36.534446],[136.526127,36.53488],[136.526515,36.535346],[136.526986,36.536176],[136.527277,36.536555],[136.527602,36.536854],[136.527902,36.537188],[136.52804,36.537638],[136.528265,36.537871],[136.528552,36.538063],[136.52889,36.538329],[136.529277,36.538663],[136.529602,36.539079],[136.529877,36.539438],[136.530277,36.539862],[136.530739,36.540221],[136.530952,36.540629],[136.531077,36.541037],[136.531364,36.541279],[136.531714,36.541346],[136.532002,36.541546],[136.532327,36.541762],[136.532514,36.542121],[136.532726,36.542204],[136.533239,36.542296],[136.533414,36.542471],[136.533526,36.542695],[136.533526,36.543079],[136.533651,36.543404],[136.533789,36.543462],[136.533964,36.543745],[136.534101,36.544204],[136.534351,36.54442],[136.534776,36.544537],[136.534951,36.544995],[136.535039,36.545378],[136.535439,36.545595],[136.536026,36.545912],[136.536176,36.546337],[136.536314,36.546812],[136.536676,36.547012],[136.537213,36.54722],[136.537701,36.54812],[136.538751,36.549062],[136.539076,36.549512],[136.539676,36.550012],[136.540201,36.550278],[136.541001,36.551087],[136.541526,36.551537],[136.542151,36.55217],[136.543013,36.552953],[136.543913,36.553803],[136.543938,36.55407],[136.543988,36.554328],[136.544063,36.554728],[136.544176,36.554978],[136.544388,36.55517],[136.544625,36.555245],[136.544725,36.555595],[136.544913,36.555936],[136.545413,36.556286],[136.545838,36.556478],[136.546013,36.556595],[136.5463,36.55682],[136.5464,36.55712],[136.546425,36.557553],[136.54675,36.557795],[136.547275,36.55797],[136.547713,36.558303],[136.54805,36.558628],[136.548413,36.559094],[136.54865,36.559586],[136.549038,36.559886],[136.549563,36.560111],[136.5497,36.560386],[136.549925,36.560861],[136.55115,36.561828],[136.551537,36.562236],[136.552275,36.563203],[136.553162,36.563878],[136.553512,36.564327],[136.553703,36.564564],[136.553937,36.564844],[136.554787,36.565927],[136.55525,36.566352],[136.555587,36.566536],[136.555862,36.566736],[136.556574,36.567477],[136.556824,36.567794],[136.556987,36.567977],[136.557762,36.569077],[136.558137,36.569502],[136.558499,36.569794],[136.559687,36.570877],[136.560099,36.571327],[136.560924,36.57236],[136.561361,36.573018],[136.561911,36.573402],[136.562324,36.573577],[136.562711,36.573827],[136.563061,36.57416],[136.563511,36.574951],[136.563836,36.575293],[136.564199,36.575585],[136.564636,36.576126],[136.565023,36.576501],[136.565573,36.576868],[136.567086,36.578193],[136.567336,36.578601],[136.567661,36.578868],[136.568735,36.579993],[136.568923,36.580309],[136.570773,36.581926],[136.571348,36.582559],[136.572585,36.584026],[136.573172,36.584634],[136.573685,36.585084],[136.57411,36.585667],[136.574572,36.586142],[136.57476,36.586384],[136.575249,36.58694],[136.575372,36.587242],[136.575384,36.587425],[136.575397,36.58765],[136.575409,36.587892],[136.575472,36.58805],[136.575634,36.588217],[136.575847,36.588425],[136.576159,36.5888],[136.576422,36.589183],[136.576572,36.589475],[136.576709,36.58965],[136.577047,36.589808],[136.577434,36.590017],[136.577697,36.590167],[136.577947,36.590342],[136.578059,36.590466],[136.578234,36.590666],[136.578459,36.591041],[136.578584,36.591158],[136.578758,36.591262],[136.578984,36.591466],[136.579234,36.591783],[136.579471,36.592041],[136.579671,36.592308],[136.579821,36.592491],[136.579896,36.5927],[136.579984,36.593058],[136.580021,36.59325],[136.580187,36.593508],[136.580409,36.593708],[136.580559,36.593841],[136.580684,36.594033],[136.581009,36.594333],[136.581259,36.594624],[136.581458,36.594924],[136.581646,36.595208],[136.581908,36.595699],[136.582171,36.596074],[136.582446,36.596282],[136.582808,36.596441],[136.583146,36.596607],[136.583308,36.596766],[136.583446,36.596949],[136.583558,36.597157],[136.583758,36.597524],[136.583896,36.597766],[136.584283,36.598024],[136.584483,36.598091],[136.584958,36.598366],[136.585258,36.598574],[136.585358,36.598649],[136.585408,36.598841],[136.585483,36.599066],[136.58567,36.59959],[136.585883,36.600032],[136.586133,36.600415],[136.586126,36.600593],[136.58607,36.600782],[136.586042,36.600984],[136.586058,36.601149],[136.586308,36.601415],[136.586337,36.601502],[136.586345,36.601607],[136.586295,36.601765],[136.586283,36.602007],[136.586262,36.602103],[136.58622,36.602165],[136.586045,36.60219],[136.58587,36.602232],[136.58592,36.602398],[136.586233,36.602932],[136.58677,36.603432],[136.587245,36.603823],[136.587945,36.604315],[136.588657,36.604781],[136.58952,36.605331],[136.589982,36.605656],[136.590057,36.605715],[136.591044,36.606456],[136.591994,36.607048],[136.592544,36.607481],[136.594056,36.608956],[136.595144,36.610206],[136.596069,36.611381],[136.596344,36.611614],[136.596631,36.611772],[136.597231,36.612272],[136.598281,36.613364],[136.599093,36.614314],[136.599343,36.614722],[136.599643,36.615039],[136.600143,36.615364],[136.601293,36.616497],[136.601368,36.616855],[136.601518,36.617388],[136.601768,36.617963],[136.602005,36.61823],[136.60233,36.617997],[136.602611,36.617841],[136.602918,36.617772],[136.603267,36.618288],[136.602743,36.61883],[136.60248,36.618988],[136.6025,36.619137],[136.60253,36.61928],[136.602605,36.61953],[136.60413,36.61988],[136.604455,36.619446],[136.604955,36.619905],[136.606817,36.621904],[136.607067,36.622313],[136.607142,36.622713],[136.606854,36.623071],[136.606829,36.623188],[136.607717,36.623838],[136.607729,36.624079],[136.607829,36.624412],[136.607904,36.624746],[136.607954,36.625096],[136.608029,36.625429],[136.603405,36.628079],[136.613304,36.638977],[136.617316,36.636636],[136.618553,36.637278],[136.619678,36.637911],[136.620701,36.638803],[136.622191,36.640027],[136.623153,36.641052],[136.623665,36.641902],[136.62424,36.642544],[136.62469,36.643185],[136.62694,36.645727],[136.62759,36.64661],[136.627953,36.646802],[136.628315,36.647127],[136.629065,36.648118],[136.629815,36.649385],[136.63019,36.649718],[136.630627,36.649985],[136.630965,36.65026],[136.631152,36.65061],[136.631315,36.651068],[136.63179,36.651701],[136.631952,36.652326],[136.63214,36.652526],[136.63284,36.652901],[136.63349,36.653643],[136.633952,36.654276],[136.634415,36.654692],[136.636115,36.657209],[136.63644,36.657576],[136.637027,36.658059],[136.63744,36.658484],[136.638314,36.65955],[136.638964,36.660542],[136.639177,36.661],[136.639639,36.661625],[136.641077,36.663333],[136.641564,36.663933],[136.642252,36.665],[136.642464,36.66525],[136.642952,36.665441],[136.643727,36.66605],[136.643779,36.666173],[136.643814,36.666308],[136.643789,36.666366],[136.643439,36.666666],[136.643239,36.666783],[136.643239,36.666825],[136.643364,36.666958],[136.643714,36.667141],[136.644314,36.667583],[136.644489,36.667866],[136.644614,36.668183],[136.644801,36.668491],[136.645076,36.668649],[136.645439,36.668924],[136.645826,36.669299],[136.646138,36.669559],[136.646465,36.669974],[136.64688,36.67038],[136.647393,36.671069],[136.647701,36.671507],[136.648039,36.672024],[136.648464,36.672557],[136.649101,36.673249],[136.649489,36.673566],[136.649776,36.673916],[136.650039,36.674457],[136.650223,36.674605],[136.650351,36.674724],[136.650955,36.67574],[136.651276,36.67629],[136.651651,36.676807],[136.651963,36.67739],[136.652638,36.678982],[136.653338,36.679715],[136.653913,36.680207],[136.654201,36.68059],[136.654226,36.680723],[136.654463,36.681173],[136.654713,36.681531],[136.655088,36.681906],[136.655351,36.682331],[136.655463,36.682598],[136.655776,36.68309],[136.656263,36.683565],[136.657176,36.684614],[136.657526,36.685148],[136.657588,36.685556],[136.657725,36.685823],[136.658725,36.686781],[136.659213,36.687289],[136.660375,36.688381],[136.660775,36.688872],[136.662325,36.691447],[136.663725,36.69333],[136.663987,36.69378],[136.664325,36.694197],[136.664812,36.694672],[136.665837,36.695713],[136.666924,36.697397],[136.667074,36.69778],[136.667449,36.698497],[136.668112,36.699413],[136.668349,36.699695],[136.668512,36.699905],[136.66862,36.700095],[136.668737,36.700305],[136.669287,36.701113],[136.669624,36.701659],[136.670013,36.702227],[136.670322,36.70273],[136.670861,36.703371],[136.671361,36.704446],[136.671899,36.705188],[136.672136,36.705679],[136.672399,36.706104],[136.673049,36.706771],[136.673673,36.707687],[136.673848,36.708112],[136.673948,36.708496],[136.674061,36.708721],[136.675061,36.709796],[136.675461,36.71037],[136.675836,36.71082],[136.676164,36.711385],[136.676635,36.712229],[136.677348,36.713129],[136.67761,36.713529],[136.678529,36.714788],[136.678985,36.715587],[136.679848,36.716662],[136.68016,36.717103],[136.680885,36.718495],[136.681122,36.719303],[136.68146,36.719795],[136.68191,36.720216],[136.682341,36.720819],[136.68301,36.721744],[136.683784,36.722653],[136.684072,36.723486],[136.684472,36.723936],[136.685109,36.724786],[136.685559,36.725569],[136.686009,36.726686],[136.686409,36.727402],[136.686896,36.727985],[136.688032,36.729457],[136.688277,36.729743],[136.688496,36.730019],[136.688871,36.730627],[136.689446,36.731702],[136.689822,36.732363],[136.690258,36.733176],[136.690908,36.733868],[136.691221,36.734343],[136.691546,36.734968],[136.692408,36.736126],[136.692783,36.736734],[136.693445,36.738076],[136.693845,36.738551],[136.694183,36.738859],[136.69462,36.739467],[136.695195,36.740517],[136.695507,36.741167],[136.696345,36.742709],[136.69672,36.743225],[136.69707,36.743609],[136.697645,36.74475],[136.697932,36.745175],[136.698244,36.745508],[136.698532,36.746],[136.698882,36.746741],[136.698944,36.74715],[136.699319,36.7478],[136.699982,36.748691],[136.700269,36.749274],[136.700789,36.750275],[136.701044,36.750733],[136.701569,36.751649],[136.701881,36.752099],[136.702969,36.753482],[136.703519,36.75454],[136.703906,36.755499],[136.704293,36.756132],[136.705043,36.756973],[136.706256,36.758948],[136.706918,36.760215],[136.707943,36.76194]]],"type":"Polygon"}}]}