{"type":"FeatureCollection","features":[{"geometry":{"type":"Polygon","coordinates":[[[134.878034,34.521539],[134.878372,34.52228],[134.878584,34.52253],[134.878809,34.522705],[134.879084,34.52318],[134.879309,34.523405],[134.879472,34.523722],[134.879609,34.524055],[134.879772,34.524213],[134.880209,34.524014],[134.880484,34.523989],[134.880759,34.524105],[134.880847,34.524197],[134.881147,34.524347],[134.881634,34.524555],[134.881697,34.524597],[134.882322,34.524797],[134.882709,34.524955],[134.883259,34.525388],[134.883509,34.525705],[134.883871,34.526263],[134.884171,34.526897],[134.884309,34.527322],[134.884521,34.527821],[134.885621,34.528471],[134.886421,34.528805],[134.887021,34.528896],[134.887846,34.528963],[134.888346,34.529055],[134.888783,34.529321],[134.889083,34.529638],[134.889496,34.52998],[134.889633,34.529346],[134.890521,34.529388],[134.890596,34.529305],[134.890933,34.529305],[134.893045,34.529413],[134.893258,34.529388],[134.893345,34.530021],[134.89362,34.529996],[134.89362,34.529363],[134.894195,34.529296],[134.89422,34.530063],[134.895495,34.530088],[134.895633,34.530313],[134.89577,34.530263],[134.895795,34.530196],[134.89577,34.529005],[134.896895,34.528955],[134.89747,34.529138],[134.897907,34.529388],[134.89807,34.529246],[134.898132,34.529163],[134.898295,34.529205],[134.899445,34.52968],[134.899745,34.529905],[134.900195,34.530371],[134.901507,34.531588],[134.90167,34.53168],[134.902007,34.531796],[134.902519,34.531905],[134.903019,34.532105],[134.903482,34.53238],[134.904369,34.53278],[134.904832,34.533055],[134.905519,34.533346],[134.905882,34.533613],[134.906432,34.533863],[134.906819,34.533838],[134.907356,34.533746],[134.908244,34.533746],[134.908569,34.533813],[134.909481,34.534263],[134.908869,34.534788],[134.908981,34.534854],[134.909419,34.534563],[134.910081,34.535029],[134.910331,34.534854],[134.910969,34.534896],[134.911456,34.534988],[134.912119,34.535279],[134.913431,34.536063],[134.913931,34.536604],[134.914181,34.536988],[134.914181,34.537146],[134.914256,34.537238],[134.914456,34.537238],[134.914618,34.537396],[134.914781,34.537729],[134.915118,34.537862],[134.915743,34.538629],[134.915806,34.538996],[134.916056,34.539079],[134.916156,34.539079],[134.916293,34.539237],[134.917205,34.540596],[134.917318,34.540887],[134.917318,34.541112],[134.917455,34.54122],[134.91753,34.541195],[134.91778,34.541404],[134.91808,34.541879],[134.919105,34.543429],[134.919243,34.543745],[134.919455,34.543995],[134.919705,34.544353],[134.919843,34.544687],[134.919868,34.545162],[134.91993,34.545253],[134.920093,34.545278],[134.92018,34.545228],[134.920393,34.545253],[134.92078,34.545453],[134.921242,34.545795],[134.922267,34.54672],[134.922592,34.546578],[134.923067,34.546645],[134.923442,34.546787],[134.924655,34.54737],[134.925405,34.547162],[134.92548,34.547162],[134.925917,34.547612],[134.926167,34.54757],[134.926392,34.547412],[134.926604,34.547362],[134.926642,34.547412],[134.926879,34.547662],[134.927292,34.547745],[134.927817,34.547795],[134.928254,34.547928],[134.928504,34.547903],[134.928804,34.547703],[134.929004,34.547612],[134.929329,34.547337],[134.929554,34.547253],[134.930067,34.54732],[134.931004,34.547295],[134.931417,34.547337],[134.931529,34.547403],[134.931554,34.54777],[134.931916,34.548012],[134.931854,34.548487],[134.932516,34.548911],[134.933204,34.548645],[134.932954,34.54837],[134.933129,34.548353],[134.933179,34.54837],[134.933566,34.548753],[134.935016,34.54957],[134.935766,34.550153],[134.936428,34.55092],[134.936591,34.551278],[134.936778,34.551611],[134.937191,34.552136],[134.937641,34.552378],[134.937878,34.552653],[134.938128,34.553011],[134.938191,34.553578],[134.938403,34.554111],[134.939016,34.554478],[134.939641,34.555327],[134.939591,34.555536],[134.939703,34.555552],[134.940003,34.555536],[134.940328,34.555919],[134.940391,34.556094],[134.940415,34.556411],[134.940528,34.556794],[134.940665,34.556994],[134.94174,34.557336],[134.942203,34.557652],[134.94289,34.558277],[134.943215,34.558527],[134.944178,34.55956],[134.944265,34.55956],[134.94399,34.559085],[134.944153,34.558927],[134.944378,34.558885],[134.944728,34.55891],[134.945115,34.559044],[134.945665,34.559335],[134.946715,34.56026],[134.94704,34.560619],[134.94699,34.560727],[134.947427,34.561094],[134.947765,34.561493],[134.948202,34.562127],[134.948365,34.56231],[134.949415,34.563793],[134.950015,34.565276],[134.95024,34.565618],[134.950539,34.565776],[134.950764,34.565751],[134.951114,34.565843],[134.951252,34.56591],[134.952027,34.566918],[134.952114,34.567126],[134.952114,34.567351],[134.952277,34.567484],[134.953039,34.568359],[134.953702,34.568968],[134.954427,34.569443],[134.954702,34.569784],[134.955002,34.569984],[134.955439,34.570343],[134.955739,34.570859],[134.956126,34.571717],[134.956401,34.571967],[134.956764,34.572192],[134.957039,34.572551],[134.957476,34.573517],[134.957914,34.573901],[134.958251,34.574059],[134.958601,34.574376],[134.959014,34.574775],[134.959514,34.575184],[134.959926,34.575359],[134.960339,34.575925],[134.960526,34.576334],[134.961226,34.57725],[134.961576,34.577792],[134.961913,34.578558],[134.961913,34.578742],[134.962213,34.578983],[134.963126,34.580042],[134.963701,34.580967],[134.963788,34.581308],[134.963751,34.581375],[134.963676,34.581733],[134.963751,34.582116],[134.963926,34.5825],[134.963976,34.582816],[134.964113,34.583016],[134.964688,34.583333],[134.965138,34.583916],[134.965438,34.584591],[134.965576,34.585541],[134.965688,34.585608],[134.965825,34.586124],[134.9661,34.586574],[134.966163,34.586591],[134.966263,34.586649],[134.966263,34.586716],[134.966825,34.587199],[134.9677,34.587683],[134.968125,34.587949],[134.969175,34.588974],[134.969588,34.589316],[134.97125,34.591774],[134.972237,34.59304],[134.972512,34.59379],[134.972887,34.594357],[134.973262,34.594724],[134.97375,34.59504],[134.973937,34.595132],[134.9744,34.595523],[134.975362,34.59709],[134.975649,34.597607],[134.975974,34.597882],[134.976437,34.598048],[134.977262,34.598273],[134.977724,34.598373],[134.978562,34.598715],[134.979162,34.599173],[134.979537,34.599515],[134.980212,34.59999],[134.980674,34.600248],[134.981087,34.600315],[134.981212,34.600356],[134.981112,34.600473],[134.981124,34.600573],[134.981299,34.600715],[134.981436,34.600831],[134.981549,34.600848],[134.981661,34.60074],[134.981749,34.600623],[134.981874,34.60069],[134.982074,34.600781],[134.982086,34.600981],[134.982461,34.60159],[134.983074,34.602773],[134.983361,34.603223],[134.983636,34.603431],[134.983911,34.603523],[134.984211,34.603706],[134.985436,34.604006],[134.986486,34.604489],[134.987223,34.604923],[134.987761,34.605289],[134.989123,34.605889],[134.990048,34.606189],[134.990673,34.606439],[134.991461,34.606814],[134.99211,34.607064],[134.992573,34.607206],[134.994973,34.607672],[134.995598,34.607839],[134.996298,34.607972],[134.99704,34.607957],[134.997797,34.607954],[134.999172,34.608464],[134.999522,34.608514],[135.000022,34.608547],[135.00041,34.608347],[135.000735,34.608422],[135.001847,34.608864],[135.001947,34.608864],[135.002222,34.608956],[135.002822,34.609031],[135.003285,34.608989],[135.003834,34.608731],[135.004584,34.608147],[135.005284,34.607498],[135.006097,34.606489],[135.007247,34.604648],[135.008522,34.602173],[135.009497,34.600915],[135.009972,34.600515],[135.010272,34.60054],[135.010484,34.600315],[135.010609,34.600024],[135.010472,34.599882],[135.010809,34.599324],[135.011859,34.596774],[135.012234,34.596082],[135.012847,34.595091],[135.013597,34.594124],[135.014021,34.593658],[135.014559,34.593908],[135.014871,34.593508],[135.015009,34.593416],[135.015096,34.593166],[135.015371,34.592874],[135.015534,34.592816],[135.015621,34.592699],[135.015784,34.592816],[135.016259,34.5921],[135.016434,34.591508],[135.017134,34.590633],[135.018371,34.589925],[135.018596,34.589833],[135.019359,34.589775],[135.019771,34.590008],[135.019821,34.590216],[135.019871,34.590216],[135.020034,34.590333],[135.020958,34.590775],[135.021283,34.590983],[135.021308,34.590908],[135.021671,34.590533],[135.021758,34.59035],[135.021321,34.590166],[135.021071,34.590025],[135.021158,34.589733],[135.021721,34.589333],[135.021971,34.588817],[135.022533,34.587983],[135.023071,34.588192],[135.023208,34.588125],[135.023433,34.588133],[135.023658,34.587925],[135.023271,34.58765],[135.022658,34.586917],[135.022746,34.586592],[135.022871,34.58535],[135.022796,34.584309],[135.022796,34.583859],[135.022946,34.582751],[135.023158,34.582342],[135.023358,34.581801],[135.023471,34.581284],[135.023658,34.580768],[135.023933,34.580809],[135.024208,34.581043],[135.025058,34.581043],[135.025821,34.576326],[135.025821,34.576076],[135.025496,34.57576],[135.025158,34.575327],[135.024896,34.574652],[135.024658,34.57386],[135.024408,34.573627],[135.023758,34.573285],[135.023508,34.572993],[135.023208,34.572452],[135.022883,34.571702],[135.022646,34.571252],[135.022258,34.570752],[135.021259,34.569094],[135.020071,34.567511],[135.018521,34.564928],[135.018109,34.564428],[135.017084,34.563544],[135.016372,34.562819],[135.016047,34.562428],[135.015747,34.562178],[135.015447,34.56182],[135.014984,34.561386],[135.013922,34.560278],[135.013109,34.55962],[135.012134,34.559003],[135.010872,34.558095],[135.009847,34.557187],[135.009622,34.557045],[135.009622,34.556887],[135.00941,34.556728],[135.008885,34.55657],[135.00851,34.556587],[135.007935,34.556428],[135.007547,34.556362],[135.00616,34.555404],[135.005947,34.555312],[135.005785,34.55502],[135.005673,34.55472],[135.005535,34.554679],[135.001848,34.550479],[134.999573,34.551871],[134.999323,34.551529],[134.998673,34.551187],[134.998836,34.551104],[134.998673,34.550696],[134.999036,34.550671],[134.999036,34.550537],[134.998648,34.550554],[134.998323,34.550146],[134.999936,34.549204],[135.000323,34.549754],[135.000923,34.549804],[135.001635,34.549754],[135.00191,34.549687],[135.002048,34.549537],[135.001935,34.549329],[135.001685,34.549196],[135.001011,34.549054],[134.999998,34.548371],[134.999586,34.547921],[134.999373,34.547604],[134.999211,34.547463],[134.999073,34.547446],[134.998861,34.547238],[134.998048,34.546238],[134.997386,34.545488],[134.99722,34.545433],[134.997186,34.545521],[134.996561,34.545546],[134.995811,34.545638],[134.995574,34.545521],[134.994961,34.545546],[134.994799,34.545371],[134.994574,34.544896],[134.994599,34.543946],[134.994799,34.543321],[134.994436,34.543296],[134.994136,34.542871],[134.993974,34.542796],[134.993911,34.542688],[134.994161,34.542505],[134.994074,34.542463],[134.994049,34.542213],[134.994161,34.541738],[134.994274,34.541472],[134.994549,34.541313],[134.994899,34.54138],[134.995011,34.541313],[134.994574,34.540705],[134.994374,34.54023],[134.994486,34.538655],[134.994399,34.537822],[134.994449,34.536739],[134.994511,34.536489],[134.994674,34.536447],[134.994761,34.53638],[134.994486,34.535864],[134.994036,34.535272],[134.993899,34.534981],[134.993874,34.534306],[134.993986,34.532981],[134.994086,34.532123],[134.994036,34.531623],[134.993762,34.530748],[134.993624,34.530115],[134.993374,34.52719],[134.993362,34.52674],[134.993537,34.52559],[134.993724,34.525098],[134.993749,34.525098],[134.993662,34.52489],[134.993524,34.524782],[134.993474,34.52449],[134.993524,34.524057],[134.993687,34.523857],[134.993724,34.523724],[134.993449,34.523382],[134.992699,34.522907],[134.992312,34.522599],[134.991899,34.521832],[134.991899,34.52174],[134.991874,34.52174],[134.991824,34.521557],[134.991849,34.521382],[134.991574,34.520907],[134.991349,34.520707],[134.991,34.520049],[134.990337,34.518966],[134.989887,34.518207],[134.989475,34.517733],[134.989262,34.517416],[134.989062,34.517058],[134.988987,34.516741],[134.98895,34.516224],[134.989037,34.515866],[134.988787,34.515549],[134.9884,34.515749],[134.987475,34.514533],[134.988125,34.5142],[134.987875,34.513883],[134.988012,34.513791],[134.98785,34.513633],[134.987187,34.51395],[134.986225,34.513],[134.98615,34.512866],[134.986013,34.512733],[134.986775,34.512191],[134.986363,34.511583],[134.985925,34.511767],[134.984638,34.511092],[134.983563,34.51035],[134.9826,34.509533],[134.982488,34.5094],[134.982163,34.508567],[134.981963,34.508409],[134.981713,34.5083],[134.981438,34.508092],[134.981201,34.507784],[134.980926,34.507267],[134.980751,34.507059],[134.980501,34.5065],[134.980338,34.506292],[134.979851,34.505217],[134.979788,34.504967],[134.979813,34.504267],[134.979626,34.503551],[134.979463,34.503301],[134.979326,34.503259],[134.978976,34.502809],[134.978638,34.502543],[134.978276,34.502359],[134.977789,34.501976],[134.977514,34.501434],[134.977239,34.501126],[134.975139,34.499276],[134.974476,34.498735],[134.974126,34.498335],[134.973852,34.497951],[134.973277,34.49741],[134.972689,34.497093],[134.972114,34.496868],[134.970577,34.496376],[134.970002,34.496151],[134.969252,34.495768],[134.968702,34.49541],[134.96824,34.495002],[134.967552,34.494193],[134.967215,34.493902],[134.966552,34.493635],[134.96554,34.493268],[134.964327,34.492752],[134.963827,34.492618],[134.963553,34.49246],[134.963365,34.492127],[134.963065,34.49201],[134.962865,34.491993],[134.962765,34.492085],[134.962428,34.49186],[134.962265,34.491427],[134.96139,34.49111],[134.96034,34.490594],[134.959978,34.490352],[134.95959,34.489835],[134.959453,34.489627],[134.959078,34.48931],[134.958603,34.488794],[134.958303,34.488369],[134.957891,34.487577],[134.957528,34.486794],[134.957453,34.486702],[134.956291,34.486119],[134.955966,34.485844],[134.955653,34.485536],[134.955416,34.484969],[134.955216,34.484561],[134.954941,34.484253],[134.954691,34.484003],[134.954528,34.483911],[134.954004,34.483553],[134.953654,34.483236],[134.952766,34.482244],[134.952466,34.481836],[134.951616,34.480869],[134.951366,34.480311],[134.951341,34.479878],[134.951416,34.479186],[134.951304,34.478911],[134.950504,34.478145],[134.949792,34.477245],[134.948829,34.475787],[134.947154,34.474004],[134.946792,34.47367],[134.945092,34.471145],[134.944842,34.470379],[134.94418,34.468896],[134.94363,34.467296],[134.943517,34.466754],[134.943155,34.466029],[134.942992,34.465829],[134.942355,34.465196],[134.942005,34.464796],[134.94033,34.463305],[134.93978,34.462946],[134.93923,34.462721],[134.93823,34.462113],[134.937793,34.461821],[134.937443,34.461505],[134.937193,34.461172],[134.936993,34.460747],[134.936897,34.460701],[134.936668,34.460722],[134.936031,34.460605],[134.935593,34.460363],[134.935518,34.46023],[134.935543,34.46018],[134.934693,34.459547],[134.934518,34.459663],[134.934331,34.45953],[134.93416,34.458991],[134.933943,34.458805],[134.932406,34.458088],[134.931631,34.457772],[134.931081,34.45748],[134.929356,34.456355],[134.928257,34.455705],[134.927644,34.455205],[134.926632,34.454289],[134.926607,34.454214],[134.926632,34.453831],[134.926407,34.453631],[134.926132,34.453656],[134.925832,34.453589],[134.925507,34.453339],[134.924757,34.452572],[134.924245,34.451947],[134.924045,34.451606],[134.924045,34.451472],[134.924182,34.451314],[134.924045,34.451247],[134.923582,34.451131],[134.92317,34.450972],[134.923007,34.450864],[134.922507,34.450206],[134.92237,34.449964],[134.922345,34.449781],[134.922557,34.449623],[134.922395,34.449448],[134.922207,34.449131],[134.922095,34.448656],[134.921982,34.448614],[134.921082,34.448564],[134.920607,34.448498],[134.920532,34.448456],[134.920995,34.447981],[134.920582,34.447689],[134.92022,34.448006],[134.919895,34.447939],[134.919208,34.447264],[134.91932,34.447106],[134.91687,34.445348],[134.916183,34.444715],[134.915858,34.44379],[134.915446,34.443323],[134.914758,34.443298],[134.914583,34.443073],[134.913933,34.442398],[134.913871,34.442215],[134.913071,34.441157],[134.912771,34.44089],[134.912583,34.440665],[134.912496,34.440232],[134.911758,34.439965],[134.911509,34.439782],[134.911209,34.439223],[134.910909,34.438932],[134.910709,34.43864],[134.910634,34.43819],[134.909909,34.43749],[134.909584,34.43704],[134.908984,34.436524],[134.908509,34.435774],[134.907909,34.435149],[134.907659,34.434632],[134.907272,34.434199],[134.908259,34.433366],[134.907822,34.432957],[134.906997,34.433482],[134.906859,34.433391],[134.906747,34.433482],[134.905822,34.432624],[134.905797,34.432399],[134.905709,34.432332],[134.905409,34.432282],[134.904934,34.431974],[134.904859,34.431832],[134.905134,34.431632],[134.904972,34.431474],[134.904609,34.431657],[134.904197,34.431224],[134.904472,34.431049],[134.904197,34.430799],[134.903897,34.430958],[134.903422,34.430533],[134.904772,34.429624],[134.904609,34.429399],[134.905047,34.429016],[134.908621,34.431424],[134.909034,34.431408],[134.911396,34.430049],[134.910621,34.429241],[134.909684,34.428208],[134.908122,34.426675],[134.906447,34.424958],[134.905709,34.424125],[134.905347,34.423792],[134.904847,34.423208],[134.90386,34.421925],[134.903072,34.420975],[134.89991,34.422558],[134.899547,34.422258],[134.89911,34.422033],[134.899135,34.421808],[134.89911,34.421225],[134.899023,34.420934],[134.89881,34.420775],[134.897735,34.420575],[134.896998,34.420509],[134.89636,34.42105],[134.89611,34.4208],[134.895835,34.420375],[134.895735,34.419992],[134.895673,34.419925],[134.89526,34.418817],[134.89511,34.418209],[134.894973,34.417084],[134.894985,34.416592],[134.895273,34.415876],[134.89536,34.414568],[134.895685,34.414593],[134.895698,34.414076],[134.895823,34.413576],[134.896035,34.413043],[134.89601,34.412685],[134.896085,34.412451],[134.896523,34.412026],[134.896723,34.412018],[134.89691,34.411935],[134.89706,34.411568],[134.896973,34.411368],[134.89811,34.410393],[134.89841,34.410685],[134.898498,34.410526],[134.898585,34.410193],[134.898935,34.409102],[134.898835,34.40896],[134.898573,34.408185],[134.898385,34.407852],[134.898198,34.407685],[134.898148,34.407677],[134.897973,34.406885],[134.89781,34.40646],[134.897511,34.405869],[134.897286,34.405527],[134.896986,34.404727],[134.896761,34.403461],[134.896348,34.402852],[134.895961,34.402427],[134.895761,34.402127],[134.895511,34.401569],[134.895111,34.400561],[134.894711,34.399019],[134.894636,34.398578],[134.894636,34.397703],[134.894761,34.396736],[134.894898,34.39637],[134.895223,34.395761],[134.895198,34.395428],[134.895036,34.395003],[134.894858,34.39447],[134.894908,34.393618],[134.895111,34.392462],[134.895261,34.39092],[134.895474,34.389945],[134.895511,34.389454],[134.895586,34.388804],[134.895736,34.386996],[134.895849,34.386387],[134.895949,34.385454],[134.896099,34.384896],[134.896599,34.38278],[134.896699,34.382463],[134.896974,34.382071],[134.896761,34.38168],[134.896711,34.38163],[134.896386,34.381821],[134.896061,34.38138],[134.895899,34.380913],[134.895836,34.380188],[134.896024,34.378863],[134.896249,34.377888],[134.896586,34.377014],[134.897136,34.376164],[134.897411,34.376039],[134.897949,34.375922],[134.898024,34.375472],[134.898136,34.374955],[134.898286,34.374706],[134.898136,34.374572],[134.897899,34.374672],[134.897824,34.374647],[134.897811,34.374406],[134.897324,34.374022],[134.897124,34.373747],[134.896999,34.373414],[134.897174,34.373231],[134.897299,34.372939],[134.897224,34.372456],[134.897361,34.371889],[134.897436,34.371789],[134.897461,34.371373],[134.897386,34.371139],[134.897574,34.370931],[134.897699,34.370406],[134.897724,34.370189],[134.897836,34.369748],[134.897986,34.368665],[134.897874,34.36744],[134.897611,34.367148],[134.897324,34.366948],[134.896699,34.366756],[134.896337,34.366756],[134.896037,34.366606],[134.895799,34.366265],[134.895512,34.365748],[134.895424,34.365448],[134.895324,34.364848],[134.895324,34.364232],[134.895387,34.363615],[134.895474,34.363232],[134.895599,34.363048],[134.895824,34.362965],[134.895899,34.36284],[134.895837,34.362674],[134.895862,34.362415],[134.896137,34.362015],[134.896099,34.36114],[134.895612,34.360249],[134.895487,34.359882],[134.895524,34.359599],[134.895449,34.359207],[134.895524,34.358624],[134.895662,34.358107],[134.895849,34.357716],[134.895924,34.357374],[134.895849,34.357024],[134.895799,34.356958],[134.895837,34.356724],[134.895799,34.356633],[134.895512,34.356299],[134.895212,34.356058],[134.895087,34.356008],[134.894762,34.355291],[134.894549,34.354658],[134.894512,34.354349],[134.894449,34.354291],[134.894049,34.354274],[134.893949,34.354183],[134.893762,34.3539],[134.893675,34.353875],[134.893862,34.353725],[134.893825,34.353583],[134.893725,34.353516],[134.893837,34.35245],[134.893877,34.352157],[134.894078,34.351679],[134.894325,34.351308],[134.894525,34.350983],[134.895437,34.349742],[134.896837,34.347742],[134.897624,34.346992],[134.897587,34.346942],[134.896924,34.346767],[134.896574,34.346034],[134.895237,34.345292],[134.895675,34.344351],[134.897237,34.345084],[134.898412,34.344042],[134.898812,34.344267],[134.897837,34.345201],[134.898049,34.345884],[134.898649,34.346201],[134.898699,34.346709],[134.899674,34.347225],[134.900987,34.346984],[134.900937,34.346817],[134.900362,34.346892],[134.898924,34.345834],[134.899074,34.345642],[134.899612,34.345067],[134.899749,34.344892],[134.900849,34.343792],[134.901412,34.343101],[134.901712,34.342826],[134.903124,34.341651],[134.903874,34.340993],[134.904111,34.340751],[134.904599,34.340668],[134.905274,34.340618],[134.905624,34.340693],[134.905889,34.340795],[134.906096,34.340825],[134.906249,34.34081],[134.906724,34.340676],[134.907074,34.340693],[134.907561,34.340801],[134.908311,34.34106],[134.909274,34.341276],[134.909798,34.341318],[134.910598,34.341218],[134.911373,34.341043],[134.912111,34.340626],[134.912336,34.34026],[134.912411,34.339951],[134.912523,34.339718],[134.913561,34.338743],[134.913748,34.338418],[134.913986,34.338102],[134.914523,34.337152],[134.914661,34.336785],[134.914636,34.336619],[134.914511,34.336577],[134.914486,34.336369],[134.914686,34.336394],[134.914686,34.336052],[134.914523,34.336035],[134.914261,34.335469],[134.914286,34.335402],[134.914148,34.335102],[134.914011,34.334969],[134.913936,34.334944],[134.913536,34.33431],[134.913373,34.334335],[134.913186,34.333885],[134.913236,34.333519],[134.913873,34.333052],[134.913573,34.332511],[134.913386,34.332436],[134.913336,34.332327],[134.913123,34.332144],[134.913073,34.331719],[134.913123,34.331669],[134.913336,34.331627],[134.913398,34.331402],[134.913861,34.331427],[134.913911,34.331294],[134.913398,34.331219],[134.913348,34.331061],[134.913136,34.330861],[134.913024,34.330861],[134.912911,34.330902],[134.912724,34.330836],[134.912836,34.330519],[134.913211,34.330569],[134.913574,34.329711],[134.914148,34.329853],[134.914261,34.329644],[134.914473,34.329669],[134.914386,34.329878],[134.914798,34.329853],[134.914411,34.330778],[134.914536,34.331186],[134.914211,34.331252],[134.914298,34.331427],[134.914598,34.331361],[134.915436,34.331552],[134.917823,34.323853],[134.917136,34.323595],[134.917173,34.323553],[134.917336,34.323512],[134.917798,34.323128],[134.918298,34.322345],[134.918373,34.322137],[134.918411,34.321662],[134.918461,34.321504],[134.918498,34.321195],[134.918473,34.321037],[134.918498,34.320854],[134.918473,34.320087],[134.918373,34.319954],[134.918398,34.319679],[134.918249,34.318887],[134.918111,34.318146],[134.918174,34.317487],[134.918349,34.317179],[134.918586,34.316838],[134.918899,34.316188],[134.919086,34.315896],[134.919124,34.315621],[134.919099,34.315079],[134.919214,34.314547],[134.91929,34.314289],[134.919411,34.314021],[134.919549,34.313646],[134.919636,34.313238],[134.919736,34.312921],[134.920624,34.312205],[134.920974,34.311688],[134.921823,34.310947],[134.922398,34.310322],[134.922811,34.309963],[134.923223,34.309555],[134.925198,34.308014],[134.926786,34.306714],[134.928123,34.305689],[134.928698,34.305281],[134.928948,34.305056],[134.930235,34.304414],[134.931048,34.304056],[134.931873,34.303764],[134.932798,34.303731],[134.933798,34.303639],[134.934647,34.303264],[134.935897,34.302931],[134.93631,34.302714],[134.93661,34.302348],[134.93771,34.301273],[134.93831,34.300831],[134.93951,34.30009],[134.942134,34.298682],[134.942784,34.298398],[134.942947,34.298482],[134.943084,34.298507],[134.943197,34.298307],[134.943284,34.297857],[134.943697,34.297565],[134.944422,34.295249],[134.943659,34.294907],[134.943534,34.294515],[134.943747,34.294449],[134.943884,34.293999],[134.945247,34.29349],[134.945759,34.291574],[134.946034,34.291599],[134.946197,34.290899],[134.946097,34.290699],[134.946584,34.290524],[134.946872,34.289374],[134.946784,34.288808],[134.947447,34.288091],[134.947784,34.287599],[134.947972,34.287074],[134.947922,34.286874],[134.948384,34.286766],[134.948409,34.286808],[134.948784,34.286966],[134.949071,34.285666],[134.948996,34.285416],[134.949209,34.285258],[134.949271,34.284783],[134.949134,34.284533],[134.948784,34.284266],[134.948134,34.284008],[134.948034,34.283808],[134.947984,34.283608],[134.947384,34.283216],[134.947472,34.283083],[134.947334,34.282633],[134.947422,34.282567],[134.947759,34.28135],[134.947647,34.281008],[134.947622,34.280667],[134.947684,34.2806],[134.947739,34.280553],[134.947784,34.280508],[134.948097,34.280108],[134.948497,34.279817],[134.948859,34.279642],[134.949396,34.279458],[134.949484,34.2793],[134.949347,34.2791],[134.948997,34.278875],[134.948734,34.278625],[134.948247,34.277967],[134.948359,34.277717],[134.948797,34.277042],[134.948772,34.276792],[134.948534,34.276275],[134.948622,34.276025],[134.948897,34.275642],[134.949234,34.274434],[134.949472,34.274367],[134.949609,34.274251],[134.949697,34.274117],[134.950459,34.273942],[134.950671,34.274009],[134.951459,34.273942],[134.952334,34.273842],[134.953009,34.273817],[134.953696,34.273867],[134.953696,34.273959],[134.953771,34.274076],[134.954309,34.274459],[134.954384,34.274884],[134.954496,34.275184],[134.953846,34.275334],[134.954084,34.275634],[134.954546,34.275451],[134.954596,34.275725],[134.954359,34.275925],[134.954046,34.276734],[134.953884,34.277025],[134.954009,34.277342],[134.954234,34.277392],[134.954583,34.277259],[134.954908,34.277009],[134.955433,34.276],[134.955546,34.275617],[134.955496,34.275234],[134.955121,34.274417],[134.954484,34.273401],[134.954409,34.273267],[134.954546,34.272726],[134.954496,34.272184],[134.954259,34.271434],[134.954184,34.271076],[134.954046,34.270826],[134.953809,34.270218],[134.953646,34.269626],[134.953271,34.268834],[134.953059,34.268585],[134.952846,34.268176],[134.952496,34.267385],[134.952309,34.267135],[134.951996,34.266818],[134.951671,34.266618],[134.951122,34.26641],[134.950147,34.266176],[134.949909,34.266043],[134.949309,34.265835],[134.948772,34.265693],[134.947172,34.264943],[134.946984,34.264668],[134.94636,34.264402],[134.946035,34.264327],[134.945685,34.264327],[134.945035,34.264168],[134.94316,34.263835],[134.94246,34.263743],[134.942397,34.263635],[134.942135,34.263402],[134.941922,34.26336],[134.941023,34.263577],[134.94026,34.263418],[134.938985,34.262977],[134.938748,34.262843],[134.938423,34.262752],[134.937848,34.262818],[134.937198,34.262702],[134.936248,34.262443],[134.935923,34.262193],[134.935573,34.262085],[134.935323,34.261835],[134.934623,34.26156],[134.934186,34.261444],[134.933811,34.261419],[134.933786,34.261352],[134.931186,34.26066],[134.930511,34.260385],[134.929586,34.26011],[134.926987,34.259052],[134.926099,34.258644],[134.925412,34.258394],[134.924799,34.258119],[134.923824,34.257844],[134.923112,34.257677],[134.922687,34.257494],[134.921837,34.257402],[134.921137,34.257194],[134.91975,34.25671],[134.918912,34.256594],[134.918262,34.256569],[134.917475,34.25641],[134.916612,34.256136],[134.915988,34.255969],[134.914525,34.255536],[134.913875,34.255444],[134.913225,34.255436],[134.912188,34.255386],[134.911488,34.255294],[134.908013,34.254661],[134.907226,34.254569],[134.906738,34.254477],[134.906276,34.254319],[134.905838,34.254111],[134.905388,34.253969],[134.904838,34.253852],[134.903276,34.253377],[134.902776,34.253294],[134.901414,34.252827],[134.900976,34.252777],[134.900464,34.253027],[134.900439,34.252736],[134.900314,34.252619],[134.898964,34.252352],[134.898002,34.252052],[134.896814,34.251244],[134.896164,34.250927],[134.895339,34.250561],[134.894427,34.250069],[134.893377,34.249344],[134.892352,34.248528],[134.89174,34.248211],[134.89064,34.247378],[134.889315,34.246678],[134.888915,34.246136],[134.888052,34.245753],[134.887327,34.245395],[134.886952,34.24532],[134.886815,34.24532],[134.88634,34.24512],[134.88534,34.244603],[134.88489,34.244328],[134.884215,34.244103],[134.883628,34.244011],[134.883028,34.243786],[134.882178,34.243403],[134.88169,34.243153],[134.88129,34.243037],[134.880828,34.242862],[134.879078,34.242003],[134.876128,34.241345],[134.874116,34.240504],[134.873841,34.240462],[134.873441,34.24062],[134.873329,34.240595],[134.873041,34.240237],[134.872604,34.240079],[134.872265,34.240009],[134.872141,34.239887],[134.871991,34.239862],[134.871329,34.239887],[134.871091,34.239929],[134.870954,34.239879],[134.870829,34.23977],[134.869754,34.239429],[134.868717,34.238995],[134.867954,34.238787],[134.867554,34.238745],[134.867054,34.238537],[134.866567,34.238287],[134.865442,34.237837],[134.865205,34.237654],[134.863667,34.236729],[134.863117,34.236454],[134.862505,34.236229],[134.861292,34.235546],[134.85993,34.234979],[134.859268,34.234796],[134.858505,34.234521],[134.85798,34.234429],[134.856568,34.234312],[134.855868,34.234129],[134.852506,34.232921],[134.850993,34.232488],[134.849481,34.231971],[134.847169,34.231238],[134.846031,34.230713],[134.845569,34.230421],[134.844669,34.22988],[134.842957,34.229063],[134.842357,34.22863],[134.841832,34.228363],[134.840707,34.22793],[134.839895,34.227521],[134.839345,34.227205],[134.83827,34.226497],[134.836532,34.225455],[134.835232,34.225047],[134.83352,34.224413],[134.833058,34.224205],[134.832645,34.223938],[134.832008,34.223347],[134.83152,34.222989],[134.830558,34.222464],[134.829958,34.22208],[134.829521,34.221697],[134.828683,34.220789],[134.828571,34.220405],[134.828433,34.220164],[134.827821,34.219639],[134.827183,34.219231],[134.826896,34.218981],[134.826608,34.218556],[134.826146,34.218147],[134.825483,34.217197],[134.825221,34.216456],[134.824796,34.215798],[134.823484,34.215098],[134.822734,34.214506],[134.821746,34.213873],[134.821409,34.213556],[134.821171,34.213289],[134.820821,34.213039],[134.820534,34.212748],[134.820309,34.212431],[134.819997,34.212065],[134.819147,34.21164],[134.818634,34.211323],[134.817884,34.210756],[134.816947,34.21014],[134.815772,34.209082],[134.815272,34.208407],[134.814985,34.207865],[134.814822,34.207748],[134.813247,34.207132],[134.81261,34.206957],[134.81166,34.206615],[134.810697,34.20609],[134.809948,34.205732],[134.808648,34.205207],[134.807198,34.204749],[134.805373,34.204448],[134.804786,34.20429],[134.803623,34.203857],[134.802873,34.203607],[134.802186,34.203315],[134.801636,34.202815],[134.800011,34.20094],[134.799786,34.20074],[134.799411,34.200624],[134.798949,34.200599],[134.798361,34.200532],[134.797374,34.200457],[134.797174,34.20039],[134.797111,34.200165],[134.797174,34.199557],[134.796999,34.199532],[134.796838,34.199516],[134.796599,34.199441],[134.796337,34.199332],[134.796049,34.199282],[134.796024,34.199307],[134.796137,34.199399],[134.796574,34.199599],[134.796949,34.199691],[134.796999,34.199897],[134.796999,34.20014],[134.796599,34.200124],[134.796536,34.200165],[134.796012,34.200099],[134.795924,34.199915],[134.795524,34.199824],[134.795199,34.199799],[134.795027,34.199836],[134.794274,34.19964],[134.793437,34.199499],[134.792937,34.199524],[134.792387,34.199607],[134.791537,34.199857],[134.790612,34.199899],[134.789225,34.199715],[134.7882,34.199482],[134.78745,34.199232],[134.787075,34.19914],[134.7862,34.19914],[134.785938,34.199182],[134.785013,34.19909],[134.784725,34.199132],[134.784463,34.199224],[134.783675,34.199399],[134.783213,34.19944],[134.782888,34.199424],[134.78225,34.199282],[134.7817,34.199282],[134.780651,34.199457],[134.780126,34.199615],[134.779688,34.199857],[134.779338,34.200132],[134.778651,34.200332],[134.777338,34.200548],[134.776838,34.200573],[134.776351,34.200548],[134.773889,34.200182],[134.773164,34.20004],[134.772351,34.199815],[134.769764,34.199215],[134.769239,34.19899],[134.768202,34.198673],[134.767589,34.198607],[134.767127,34.198715],[134.767014,34.198807],[134.766664,34.198848],[134.766314,34.198757],[134.766202,34.198665],[134.76524,34.198232],[134.764815,34.198007],[134.76434,34.197965],[134.763065,34.197757],[134.761852,34.197457],[134.760927,34.197165],[134.760253,34.196848],[134.75904,34.196457],[134.757678,34.196115],[134.75724,34.195957],[134.756928,34.195748],[134.756603,34.19539],[134.755628,34.194957],[134.755128,34.194665],[134.754841,34.194532],[134.753741,34.194323],[134.753278,34.194415],[134.753041,34.194415],[134.752228,34.19409],[134.751941,34.193915],[134.751591,34.19364],[134.750441,34.19334],[134.749829,34.193049],[134.749454,34.192932],[134.749041,34.192865],[134.748291,34.19284],[134.748179,34.192865],[134.747281,34.192747],[134.746654,34.192707],[134.746167,34.192773],[134.745867,34.192657],[134.745404,34.19254],[134.745129,34.192565],[134.744779,34.192423],[134.743917,34.191899],[134.743229,34.191649],[134.742504,34.19144],[134.741767,34.191115],[134.740492,34.190457],[134.739305,34.189924],[134.738842,34.189832],[134.737867,34.189832],[134.735655,34.18959],[134.735168,34.189382],[134.734818,34.189132],[134.734418,34.18899],[134.734055,34.188807],[134.73303,34.188965],[134.73243,34.18894],[134.731606,34.188865],[134.730656,34.188882],[134.729756,34.188965],[134.729406,34.189215],[134.729131,34.189207],[134.729018,34.18939],[134.729043,34.190049],[134.729131,34.190232],[134.729693,34.190957],[134.730281,34.191815],[134.730268,34.193081],[134.730431,34.194081],[134.730693,34.194581],[134.731368,34.195439],[134.731905,34.196573],[134.732305,34.197573],[134.73238,34.198231],[134.732368,34.199472],[134.732005,34.200531],[134.731768,34.200847],[134.73118,34.20168],[134.731155,34.201972],[134.73148,34.202547],[134.731605,34.203064],[134.73158,34.203514],[134.731218,34.204555],[134.730968,34.204963],[134.730343,34.205838],[134.730005,34.20633],[134.730843,34.206722],[134.73068,34.207038],[134.729693,34.20803],[134.72898,34.20868],[134.727868,34.20933],[134.727943,34.209513],[134.72698,34.210163],[134.725705,34.210963],[134.725068,34.211229],[134.722968,34.212037],[134.722756,34.212171],[134.722318,34.212621],[134.721956,34.212862],[134.721031,34.213446],[134.719606,34.214204],[134.719306,34.214429],[134.718968,34.214862],[134.717881,34.21542],[134.717256,34.21562],[134.716656,34.21577],[134.716469,34.215795],[134.715919,34.21597],[134.714719,34.216329],[134.714281,34.21637],[134.713681,34.21652],[134.712706,34.216653],[134.711856,34.216828],[134.711144,34.216845],[134.710544,34.216912],[134.710032,34.216912],[134.709019,34.216945],[134.708532,34.217012],[134.707907,34.217028],[134.706932,34.216978],[134.705982,34.21682],[134.704645,34.216745],[134.703857,34.216762],[134.703282,34.21682],[134.70307,34.21682],[134.70187,34.217087],[134.701682,34.217037],[134.701407,34.217128],[134.701045,34.21717],[134.700907,34.217536],[134.701232,34.217711],[134.701532,34.217986],[134.701607,34.218461],[134.701582,34.219003],[134.701445,34.21937],[134.701245,34.21937],[134.700832,34.219953],[134.700782,34.220269],[134.700557,34.220536],[134.70012,34.220944],[134.699895,34.221328],[134.699757,34.221803],[134.699707,34.222253],[134.699832,34.222661],[134.701095,34.224519],[134.701844,34.226285],[134.702294,34.22751],[134.702569,34.227969],[134.702944,34.228944],[134.703207,34.22926],[134.704107,34.230102],[134.704882,34.230627],[134.706244,34.231335],[134.706569,34.231702],[134.706869,34.232127],[134.706944,34.23231],[134.707019,34.23326],[134.707169,34.23396],[134.707394,34.234126],[134.707769,34.23401],[134.708044,34.234243],[134.708369,34.234626],[134.708531,34.234993],[134.708556,34.235351],[134.708606,34.235468],[134.708906,34.235826],[134.709093,34.236326],[134.709143,34.236868],[134.709268,34.237251],[134.709356,34.237343],[134.709656,34.237551],[134.709943,34.238001],[134.710131,34.238459],[134.710318,34.239184],[134.710556,34.239434],[134.710943,34.239593],[134.710693,34.240251],[134.711043,34.240292],[134.711318,34.239526],[134.714718,34.240476],[134.714868,34.241742],[134.715155,34.243217],[134.715543,34.243151],[134.715493,34.242517],[134.715543,34.242292],[134.715793,34.241909],[134.71593,34.241842],[134.716093,34.241842],[134.716368,34.242026],[134.716493,34.242517],[134.716743,34.243067],[134.717005,34.243042],[134.717718,34.243159],[134.717993,34.242984],[134.717993,34.242667],[134.718105,34.242417],[134.718193,34.242351],[134.71868,34.242192],[134.718893,34.242559],[134.71898,34.242584],[134.719218,34.242401],[134.719742,34.242384],[134.720067,34.241884],[134.720067,34.241817],[134.721455,34.241601],[134.721567,34.241734],[134.721517,34.241984],[134.721317,34.242326],[134.72123,34.242684],[134.721569,34.242704],[134.721555,34.242826],[134.72148,34.243142],[134.721255,34.243134],[134.721092,34.243609],[134.721167,34.243884],[134.72098,34.244067],[134.72078,34.244492],[134.720642,34.245125],[134.72053,34.245375],[134.72053,34.245617],[134.720717,34.245942],[134.72098,34.246934],[134.72138,34.247592],[134.721442,34.247975],[134.721155,34.248567],[134.72113,34.248792],[134.721217,34.248975],[134.721292,34.249042],[134.72148,34.249358],[134.72178,34.250083],[134.721767,34.250442],[134.72113,34.252133],[134.720267,34.252133],[134.720117,34.252716],[134.720742,34.252816],[134.720392,34.253291],[134.72018,34.253941],[134.720505,34.254166],[134.720617,34.254091],[134.720917,34.254299],[134.720917,34.254549],[134.721142,34.254699],[134.721517,34.254883],[134.721829,34.254974],[134.722204,34.255266],[134.722454,34.255516],[134.722317,34.255624],[134.721579,34.255174],[134.719305,34.256599],[134.719055,34.256441],[134.718805,34.256691],[134.718892,34.256707],[134.718992,34.256824],[134.718892,34.257024],[134.718505,34.257157],[134.717817,34.257049],[134.717517,34.256916],[134.717217,34.256891],[134.717067,34.256599],[134.717042,34.256058],[134.71693,34.256016],[134.71683,34.255699],[134.716717,34.255699],[134.716167,34.255966],[134.715367,34.255991],[134.715092,34.255966],[134.71498,34.255766],[134.713992,34.255516],[134.713368,34.255433],[134.712755,34.255383],[134.71218,34.255224],[134.712068,34.255158],[134.712268,34.254916],[134.71213,34.254824],[134.711905,34.254999],[134.711518,34.254758],[134.711193,34.254483],[134.710455,34.254016],[134.710043,34.253608],[134.709955,34.253449],[134.709955,34.253333],[134.709905,34.253291],[134.710268,34.252908],[134.709505,34.252541],[134.709618,34.252341],[134.709093,34.252108],[134.708256,34.251566],[134.708018,34.251358],[134.707956,34.251358],[134.707768,34.251533],[134.707581,34.251599],[134.707368,34.250741],[134.707018,34.250241],[134.706618,34.249883],[134.705793,34.249375],[134.705343,34.248991],[134.705918,34.248475],[134.705406,34.247975],[134.704443,34.247991],[134.704119,34.248216],[134.703494,34.2478],[134.703581,34.2474],[134.704069,34.247267],[134.704481,34.247217],[134.705081,34.24725],[134.705568,34.247183],[134.706093,34.247208],[134.706556,34.247117],[134.706881,34.2471],[134.707131,34.247008],[134.707156,34.246742],[134.707431,34.246308],[134.707518,34.246108],[134.707193,34.245333],[134.707256,34.244792],[134.706981,34.244592],[134.705943,34.244384],[134.705481,34.2442],[134.705056,34.243925],[134.704806,34.243559],[134.704406,34.243175],[134.703944,34.2429],[134.703644,34.2429],[134.703344,34.242825],[134.702994,34.242575],[134.702644,34.242234],[134.702244,34.241984],[134.701881,34.241684],[134.701431,34.241484],[134.701181,34.241459],[134.701131,34.241484],[134.700906,34.241859],[134.700519,34.243017],[134.700544,34.243034],[134.700156,34.243709],[134.700044,34.244208],[134.699844,34.244567],[134.699494,34.244842],[134.698569,34.245283],[134.697994,34.245508],[134.697357,34.245983],[134.696894,34.246225],[134.696569,34.246516],[134.696269,34.246966],[134.695632,34.247416],[134.694782,34.247933],[134.694244,34.248066],[134.693069,34.248083],[134.69127,34.248024],[134.690182,34.247725],[134.689395,34.247674],[134.68882,34.247716],[134.688232,34.247624],[134.687657,34.247483],[134.686945,34.247249],[134.685833,34.247016],[134.685183,34.247149],[134.684583,34.247641],[134.684333,34.247799],[134.683045,34.248133],[134.681633,34.248441],[134.681058,34.248599],[134.680571,34.248641],[134.679996,34.248499],[134.679621,34.248291],[134.679533,34.248199],[134.679108,34.247183],[134.678846,34.246816],[134.678433,34.246474],[134.678008,34.246199],[134.676621,34.245583],[134.676346,34.245516],[134.676183,34.245674],[134.675859,34.245741],[134.675259,34.245441],[134.674796,34.245099],[134.674421,34.244941],[134.674171,34.244933],[134.673759,34.245658],[134.673484,34.246016],[134.672996,34.246441],[134.672609,34.246716],[134.672259,34.246849],[134.671871,34.246891],[134.670996,34.246841],[134.670459,34.246724],[134.669509,34.246374],[134.669697,34.246291],[134.669697,34.246199],[134.669347,34.246041],[134.669297,34.246174],[134.669322,34.246199],[134.669297,34.246216],[134.668097,34.246141],[134.667659,34.246024],[134.667122,34.245749],[134.666434,34.245499],[134.665735,34.245091],[134.665435,34.244841],[134.66501,34.244133],[134.664872,34.244041],[134.664197,34.243858],[134.66376,34.243699],[134.662898,34.242949],[134.66246,34.242649],[134.66221,34.242741],[134.66186,34.242733],[134.661485,34.242549],[134.661048,34.241758],[134.660673,34.241466],[134.660398,34.241391],[134.660048,34.241366],[134.659423,34.241158],[134.658748,34.24125],[134.658523,34.24125],[134.658286,34.241333],[134.658198,34.2414],[134.658148,34.24145],[134.658111,34.241558],[134.658198,34.241808],[134.658573,34.242266],[134.658923,34.242541],[134.65936,34.243058],[134.660498,34.243541],[134.66171,34.243958],[134.662147,34.244233],[134.662772,34.244708],[134.663822,34.245282],[134.66431,34.245624],[134.664797,34.245874],[134.665585,34.246624],[134.666022,34.246832],[134.667047,34.247449],[134.667809,34.248174],[134.668459,34.248499],[134.670296,34.249049],[134.671709,34.249982],[134.671871,34.250057],[134.672084,34.250215],[134.672471,34.250782],[134.673059,34.251807],[134.673534,34.252865],[134.673696,34.253098],[134.673858,34.25319],[134.673833,34.25329],[134.673996,34.253498],[134.674358,34.253723],[134.674771,34.253923],[134.674983,34.254215],[134.675183,34.254732],[134.676058,34.254798],[134.676333,34.255257],[134.676246,34.25564],[134.676196,34.256557],[134.675396,34.257398],[134.675296,34.257415],[134.675096,34.25724],[134.674683,34.257373],[134.674271,34.25744],[134.673996,34.257306],[134.673783,34.257306],[134.673583,34.257465],[134.673671,34.257715],[134.673996,34.257915],[134.674471,34.258315],[134.674271,34.258906],[134.673508,34.259065],[134.673146,34.259289],[134.672621,34.259398],[134.672296,34.259631],[134.672246,34.259698],[134.672459,34.260281],[134.672409,34.261181],[134.672296,34.261314],[134.672046,34.261406],[134.671771,34.261389],[134.671671,34.261498],[134.671946,34.261906],[134.672246,34.261973],[134.672433,34.262147],[134.672596,34.262239],[134.672633,34.262647],[134.672571,34.263097],[134.672433,34.263639],[134.672471,34.263972],[134.672771,34.264197],[134.672958,34.265056],[134.672821,34.26573],[134.672683,34.26603],[134.672471,34.266322],[134.672271,34.266364],[134.671883,34.266655],[134.671833,34.267089],[134.671946,34.267647],[134.671833,34.267964],[134.671446,34.268555],[134.670959,34.268863],[134.670571,34.268847],[134.670134,34.26873],[134.669721,34.268663],[134.668371,34.268755],[134.668159,34.268963],[134.668396,34.269113],[134.668871,34.269138],[134.669396,34.269113],[134.669696,34.269405],[134.669834,34.269705],[134.669771,34.269972],[134.669534,34.270263],[134.669121,34.27063],[134.668434,34.271371],[134.668896,34.271821],[134.668409,34.272046],[134.668071,34.272113],[134.667684,34.271638],[134.666722,34.27153],[134.666534,34.27153],[134.666422,34.271413],[134.666172,34.271396],[134.665847,34.271421],[134.665047,34.271055],[134.663922,34.270855],[134.662472,34.270763],[134.661785,34.270855],[134.66066,34.27113],[134.660297,34.271263],[134.659998,34.271605],[134.659635,34.27183],[134.659423,34.272005],[134.65926,34.272305],[134.65926,34.272638],[134.659448,34.273763],[134.659448,34.274104],[134.65956,34.274463],[134.659448,34.274754],[134.659722,34.274871],[134.66011,34.275229],[134.66071,34.275546],[134.660985,34.275971],[134.661235,34.276604],[134.661347,34.277279],[134.661372,34.277887],[134.661322,34.278721],[134.661022,34.279895],[134.661047,34.280162],[134.660985,34.280387],[134.66121,34.280912],[134.661297,34.281404],[134.661485,34.282054],[134.661484,34.282487],[134.661434,34.282712],[134.661534,34.282912],[134.661847,34.283203],[134.662147,34.283587],[134.662534,34.284578],[134.662697,34.285078],[134.662947,34.28722],[134.662972,34.287711],[134.662809,34.288544],[134.662647,34.289044],[134.662422,34.289378],[134.662122,34.289603],[134.661934,34.289828],[134.661897,34.290353],[134.661384,34.290553],[134.661459,34.290778],[134.661659,34.290803],[134.661547,34.291228],[134.661134,34.292044],[134.660859,34.292444],[134.660722,34.292561],[134.660422,34.292694],[134.659484,34.292061],[134.659347,34.292177],[134.659534,34.292377],[134.659484,34.292494],[134.660084,34.292919],[134.659122,34.293619],[134.659072,34.293436],[134.657172,34.293602],[134.657172,34.293894],[134.656897,34.293777],[134.656735,34.293602],[134.656735,34.293419],[134.656297,34.293194],[134.656022,34.292927],[134.655822,34.292561],[134.655585,34.292452],[134.65541,34.292427],[134.655085,34.292544],[134.654698,34.292719],[134.654398,34.292927],[134.654148,34.293219],[134.65421,34.293469],[134.654423,34.293777],[134.654785,34.29441],[134.654972,34.294685],[134.654947,34.294819],[134.655285,34.295044],[134.65566,34.295177],[134.65611,34.295177],[134.65671,34.294977],[134.657097,34.294702],[134.657335,34.294569],[134.657647,34.294519],[134.658222,34.29466],[134.658684,34.294677],[134.659434,34.294902],[134.659984,34.295194],[134.660584,34.295627],[134.661496,34.296385],[134.661821,34.296769],[134.662146,34.297269],[134.662946,34.29821],[134.664046,34.299943],[134.664571,34.300668],[134.665533,34.30211],[134.665833,34.302693],[134.666558,34.303709],[134.667545,34.305326],[134.66812,34.306251],[134.668283,34.306609],[134.668208,34.306992],[134.668258,34.307201],[134.668445,34.307334],[134.668645,34.307376],[134.669358,34.308751],[134.669883,34.309834],[134.670457,34.310692],[134.671307,34.312267],[134.671282,34.312625],[134.67192,34.31375],[134.67222,34.313892],[134.672607,34.314517],[134.672857,34.315017],[134.672857,34.3151],[134.67277,34.315242],[134.672882,34.3156],[134.67307,34.315983],[134.673045,34.316342],[134.673382,34.316858],[134.673544,34.316908],[134.673732,34.317066],[134.673707,34.317308],[134.673769,34.317583],[134.673982,34.317691],[134.674394,34.317625],[134.674507,34.317741],[134.674694,34.317741],[134.675032,34.317675],[134.675107,34.317516],[134.675282,34.317491],[134.675932,34.317583],[134.676707,34.317958],[134.677757,34.3181],[134.677832,34.318141],[134.678406,34.318233],[134.679044,34.318391],[134.679594,34.318566],[134.680056,34.318841],[134.680556,34.319175],[134.681881,34.320208],[134.682593,34.321024],[134.683356,34.321874],[134.683831,34.322641],[134.684606,34.323633],[134.684931,34.323966],[134.685806,34.325257],[134.686031,34.325707],[134.686605,34.326557],[134.686968,34.327324],[134.687268,34.328365],[134.687305,34.32879],[134.687243,34.328899],[134.686918,34.328974],[134.686693,34.329132],[134.686068,34.329357],[134.686031,34.329649],[134.686205,34.330049],[134.686505,34.330299],[134.686755,34.330574],[134.687055,34.330798],[134.687268,34.331107],[134.687955,34.330615],[134.687993,34.330324],[134.687955,34.330074],[134.68813,34.329874],[134.688818,34.329599],[134.689505,34.329399],[134.68978,34.329149],[134.69018,34.328249],[134.690455,34.327949],[134.690493,34.327707],[134.691005,34.327099],[134.691555,34.327116],[134.691805,34.326982],[134.692555,34.326257],[134.692692,34.326032],[134.692792,34.325266],[134.69318,34.324549],[134.693542,34.324341],[134.69398,34.324183],[134.69593,34.323824],[134.696867,34.323799],[134.697417,34.323841],[134.698629,34.324116],[134.699554,34.324274],[134.699554,34.324291],[134.700104,34.324499],[134.700604,34.324608],[134.700992,34.324791],[134.701379,34.324874],[134.702579,34.324399],[134.702854,34.324199],[134.702917,34.323908],[134.702892,34.323883],[134.702967,34.32355],[134.703154,34.323233],[134.703492,34.322983],[134.703842,34.322891],[134.704092,34.322708],[134.704017,34.3224],[134.704154,34.32215],[134.704454,34.3219],[134.704979,34.321716],[134.705054,34.321633],[134.705079,34.321491],[134.705279,34.321425],[134.705491,34.32145],[134.705629,34.3214],[134.706154,34.321067],[134.706591,34.32095],[134.707004,34.320925],[134.708029,34.320975],[134.708604,34.321042],[134.709754,34.321058],[134.710116,34.321125],[134.710666,34.321283],[134.711466,34.321625],[134.713141,34.322342],[134.713991,34.32275],[134.714766,34.323241],[134.715203,34.323466],[134.715503,34.323691],[134.715941,34.323891],[134.716465,34.323983],[134.716765,34.324008],[134.717078,34.324183],[134.71749,34.324366],[134.71784,34.324458],[134.718115,34.324566],[134.718315,34.324883],[134.718528,34.32515],[134.718803,34.325375],[134.718978,34.325466],[134.717378,34.328016],[134.722227,34.330199],[134.723677,34.327916],[134.723902,34.327691],[134.724415,34.328233],[134.725415,34.329133],[134.72544,34.329333],[134.725327,34.329383],[134.72514,34.329316],[134.724752,34.330058],[134.725365,34.330774],[134.726152,34.330258],[134.726177,34.330308],[134.726602,34.330533],[134.726739,34.330683],[134.726952,34.331049],[134.727177,34.331316],[134.727339,34.331674],[134.728214,34.331357],[134.727727,34.330441],[134.727527,34.330216],[134.727064,34.329833],[134.726789,34.329583],[134.726489,34.329199],[134.726402,34.329041],[134.726727,34.328391],[134.727964,34.328699],[134.727452,34.329649],[134.727589,34.329874],[134.727802,34.329874],[134.728214,34.329966],[134.728652,34.329941],[134.729014,34.329874],[134.729652,34.329649],[134.730089,34.330008],[134.729539,34.330499],[134.730589,34.331382],[134.730502,34.331491],[134.729789,34.332057],[134.729289,34.332349],[134.728827,34.332507],[134.728739,34.332574],[134.728802,34.332691],[134.729264,34.333007],[134.729627,34.333432],[134.729902,34.333682],[134.730502,34.334424],[134.731689,34.33604],[134.731964,34.336474],[134.732101,34.336607],[134.733289,34.338165],[134.733939,34.339232],[134.734926,34.340848],[134.736051,34.34294],[134.736363,34.343506],[134.736688,34.344206],[134.738326,34.347289],[134.739425,34.349731],[134.739888,34.350906],[134.739988,34.351089],[134.740088,34.351281],[134.740675,34.352464],[134.740775,34.352847],[134.74085,34.353039],[134.74095,34.353214],[134.741125,34.353647],[134.7414,34.354314],[134.742013,34.355697],[134.742138,34.356155],[134.742987,34.357813],[134.743462,34.35873],[134.745225,34.362529],[134.745912,34.364179],[134.74605,34.364546],[134.746624,34.365846],[134.746774,34.366279],[134.746874,34.366529],[134.747037,34.366821],[134.747248,34.367181],[134.747374,34.367429],[134.747649,34.367912],[134.747762,34.368212],[134.747874,34.368445],[134.748112,34.368729],[134.748337,34.369062],[134.748587,34.369612],[134.748699,34.369954],[134.748987,34.370387],[134.749124,34.370654],[134.749299,34.371129],[134.749587,34.371753],[134.749449,34.371895],[134.749537,34.371937],[134.749699,34.372137],[134.749886,34.372487],[134.750061,34.37292],[134.749699,34.373045],[134.749824,34.373353],[134.750249,34.373237],[134.750674,34.374145],[134.749761,34.374395],[134.749836,34.374678],[134.749136,34.37487],[134.749199,34.374978],[134.748699,34.375128],[134.748874,34.375603],[134.751049,34.375045],[134.751461,34.376095],[134.751636,34.376461],[134.751699,34.376703],[134.751736,34.376853],[134.751836,34.377103],[134.751899,34.377378],[134.751936,34.37752],[134.752024,34.377778],[134.752099,34.377903],[134.752186,34.378103],[134.752586,34.379194],[134.752961,34.380194],[134.753011,34.380353],[134.752998,34.380411],[134.752961,34.380444],[134.752911,34.380494],[134.752923,34.380553],[134.752911,34.380636],[134.752948,34.380728],[134.752961,34.380802],[134.752973,34.380861],[134.753036,34.380969],[134.753061,34.381002],[134.753111,34.381219],[134.753198,34.381344],[134.753273,34.381411],[134.753336,34.381436],[134.753423,34.381502],[134.753511,34.381602],[134.753548,34.381719],[134.753573,34.381902],[134.753661,34.382036],[134.753736,34.382086],[134.753761,34.382211],[134.753736,34.382277],[134.753798,34.382402],[134.753811,34.382486],[134.753848,34.382636],[134.753961,34.382711],[134.754023,34.382869],[134.754011,34.382977],[134.754036,34.383061],[134.754123,34.383136],[134.754123,34.383236],[134.754136,34.383286],[134.754211,34.383319],[134.754236,34.383427],[134.754336,34.383536],[134.754348,34.383636],[134.754398,34.383777],[134.754411,34.383902],[134.754448,34.384019],[134.754523,34.38411],[134.754611,34.384227],[134.754661,34.384294],[134.754673,34.384369],[134.754723,34.384477],[134.754773,34.384527],[134.754773,34.38461],[134.754761,34.384794],[134.754811,34.384935],[134.754811,34.384994],[134.754761,34.385069],[134.754736,34.385185],[134.754761,34.385285],[134.754736,34.385402],[134.754786,34.385502],[134.754873,34.385552],[134.754948,34.385552],[134.755011,34.385569],[134.755086,34.385594],[134.755198,34.385594],[134.755248,34.385552],[134.755273,34.385569],[134.755323,34.385635],[134.755423,34.385677],[134.755473,34.385619],[134.755598,34.38561],[134.755698,34.385594],[134.755761,34.38561],[134.755823,34.385627],[134.755898,34.38566],[134.755998,34.385644],[134.756036,34.385602],[134.756111,34.385594],[134.756173,34.385619],[134.756211,34.385677],[134.756236,34.385727],[134.756223,34.385785],[134.756248,34.385819],[134.756311,34.385852],[134.756336,34.385894],[134.756336,34.38596],[134.756348,34.38601],[134.756386,34.386027],[134.756461,34.386052],[134.756511,34.386085],[134.756548,34.386144],[134.756636,34.386185],[134.756723,34.386185],[134.756835,34.386185],[134.75686,34.386202],[134.756935,34.386219],[134.757148,34.386152],[134.757285,34.386069],[134.75736,34.385727],[134.757298,34.385644],[134.757198,34.38561],[134.757123,34.385552],[134.757123,34.385419],[134.757198,34.385277],[134.757335,34.38511],[134.757485,34.385052],[134.757548,34.385019],[134.757523,34.384894],[134.757623,34.38481],[134.757898,34.384677],[134.757985,34.384627],[134.75811,34.384585],[134.758298,34.384552],[134.758448,34.384519],[134.758598,34.384494],[134.75881,34.384452],[134.75911,34.384419],[134.759298,34.384427],[134.75946,34.384444],[134.759698,34.384469],[134.75991,34.384494],[134.76011,34.384536],[134.76031,34.384577],[134.76061,34.384661],[134.760723,34.384702],[134.76086,34.384736],[134.761135,34.384844],[134.76146,34.385027],[134.761823,34.385269],[134.762023,34.385394],[134.762098,34.385435],[134.762335,34.385585],[134.762698,34.385819],[134.762935,34.386044],[134.763047,34.386144],[134.763172,34.386285],[134.763222,34.386352],[134.763472,34.386627],[134.763997,34.387244],[134.764697,34.38806],[134.76506,34.388535],[134.765097,34.388593],[134.765147,34.388685],[134.765272,34.388852],[134.76531,34.388943],[134.765372,34.389043],[134.765672,34.389552],[134.766035,34.39016],[134.766535,34.391052],[134.766909,34.39176],[134.767922,34.393818],[134.768072,34.394101],[134.768447,34.394868],[134.769172,34.396409],[134.769784,34.397793],[134.770234,34.398492],[134.770309,34.398684],[134.770546,34.399517],[134.770596,34.399734],[134.770696,34.399934],[134.770759,34.400051],[134.771034,34.400609],[134.771484,34.401642],[134.771596,34.401917],[134.771796,34.402342],[134.772121,34.403034],[134.772409,34.4037],[134.772759,34.404434],[134.772884,34.404725],[134.773908,34.407083],[134.774058,34.407458],[134.774121,34.407625],[134.774346,34.408133],[134.774596,34.408641],[134.774946,34.4097],[134.775096,34.410116],[134.775183,34.410291],[134.775283,34.410483],[134.775383,34.410725],[134.775433,34.410866],[134.775458,34.410941],[134.775546,34.411166],[134.775833,34.411758],[134.776008,34.412149],[134.776146,34.412516],[134.776133,34.412591],[134.776096,34.412641],[134.776033,34.412741],[134.776008,34.412833],[134.775933,34.412924],[134.775958,34.413008],[134.776058,34.413083],[134.776133,34.413241],[134.776208,34.413291],[134.776258,34.413341],[134.776258,34.413508],[134.776245,34.413599],[134.776145,34.413691],[134.776108,34.413833],[134.776095,34.413933],[134.77612,34.414091],[134.776133,34.414158],[134.776195,34.414183],[134.776233,34.414199],[134.776333,34.414216],[134.77642,34.414216],[134.776508,34.414216],[134.776558,34.414208],[134.776633,34.414183],[134.776858,34.414091],[134.777045,34.413991],[134.777158,34.413883],[134.77752,34.414024],[134.77757,34.413966],[134.777533,34.413833],[134.77747,34.413699],[134.77742,34.413658],[134.77737,34.413624],[134.777333,34.413574],[134.777408,34.413399],[134.77742,34.413291],[134.77772,34.413041],[134.778358,34.413066],[134.778358,34.413183],[134.779595,34.413274],[134.779645,34.413208],[134.779833,34.413299],[134.779908,34.413349],[134.780033,34.413441],[134.780395,34.413791],[134.779658,34.414374],[134.779983,34.414641],[134.780508,34.414266],[134.78077,34.414358],[134.780958,34.414433],[134.78112,34.414516],[134.781195,34.414583],[134.78132,34.414716],[134.781433,34.414824],[134.78152,34.414916],[134.78162,34.415191],[134.781957,34.415524],[134.782445,34.416116],[134.782595,34.416324],[134.782745,34.416574],[134.782882,34.416799],[134.782957,34.417057],[134.783195,34.417424],[134.783245,34.417491],[134.783295,34.417566],[134.783407,34.417757],[134.783482,34.417849],[134.78352,34.417916],[134.78362,34.418091],[134.783745,34.418282],[134.78397,34.418632],[134.784545,34.419515],[134.78482,34.41994],[134.78527,34.420832],[134.78547,34.421124],[134.785744,34.421823],[134.786182,34.422748],[134.786594,34.423782],[134.787144,34.424981],[134.787582,34.425881],[134.787719,34.426356],[134.787744,34.426581],[134.787669,34.426623],[134.787532,34.427273],[134.787532,34.427839],[134.787857,34.428198],[134.788157,34.428289],[134.788957,34.428106],[134.789232,34.428131],[134.789457,34.428331],[134.789894,34.429214],[134.790056,34.429373],[134.790306,34.429864],[134.790469,34.430339],[134.790744,34.430697],[134.791244,34.431939],[134.791244,34.432006],[134.791269,34.432006],[134.791544,34.432814],[134.792594,34.435589],[134.793493,34.437822],[134.793856,34.43883],[134.795043,34.441938],[134.795531,34.443271],[134.796056,34.444688],[134.796118,34.445096],[134.796081,34.445429],[134.795981,34.445771],[134.796056,34.445971],[134.796393,34.446104],[134.79658,34.446104],[134.797268,34.447054],[134.797593,34.447846],[134.79773,34.448312],[134.79793,34.448696],[134.797818,34.448812],[134.79773,34.449146],[134.797905,34.449304],[134.798043,34.44937],[134.798368,34.449354],[134.798505,34.449287],[134.798555,34.448879],[134.799168,34.448562],[134.799168,34.448746],[134.799418,34.448629],[134.79988,34.448496],[134.80018,34.448446],[134.801055,34.448629],[134.801855,34.448804],[134.802217,34.449029],[134.80298,34.449662],[134.80318,34.449796],[134.80373,34.450537],[134.80403,34.450854],[134.805567,34.453312],[134.80618,34.454595],[134.806392,34.455162],[134.807142,34.455837],[134.807554,34.456145],[134.807829,34.456437],[134.808317,34.457295],[134.808492,34.457861],[134.808842,34.458261],[134.808979,34.458378],[134.809229,34.458761],[134.809842,34.45932],[134.810254,34.459795],[134.810691,34.460244],[134.811566,34.460828],[134.812391,34.461194],[134.812804,34.461211],[134.813304,34.461119],[134.813441,34.460986],[134.813691,34.460919],[134.814041,34.460944],[134.814154,34.460986],[134.814729,34.461553],[134.815204,34.461911],[134.815691,34.462611],[134.815716,34.462719],[134.816328,34.463686],[134.816491,34.463911],[134.816878,34.464636],[134.817516,34.466302],[134.818116,34.467677],[134.818341,34.467994],[134.818441,34.468327],[134.818316,34.468844],[134.818416,34.46921],[134.818616,34.469452],[134.818916,34.469544],[134.819378,34.469502],[134.819878,34.469385],[134.820065,34.469135],[134.820203,34.468752],[134.820428,34.468369],[134.82064,34.46821],[134.820978,34.468144],[134.821053,34.468102],[134.821328,34.468119],[134.821803,34.468327],[134.82219,34.468277],[134.822378,34.468077],[134.822378,34.467877],[134.822565,34.467669],[134.822903,34.467469],[134.823253,34.467036],[134.823553,34.467019],[134.824078,34.467061],[134.824465,34.467194],[134.824853,34.467402],[134.824878,34.467402],[134.824965,34.467102],[134.825128,34.467127],[134.825428,34.467286],[134.82609,34.467469],[134.82634,34.467444],[134.826752,34.467577],[134.82724,34.467802],[134.827952,34.468186],[134.828127,34.468227],[134.828152,34.468211],[134.827852,34.467236],[134.82779,34.466944],[134.827627,34.466902],[134.827677,34.466744],[134.827015,34.466561],[134.82694,34.466694],[134.82639,34.466561],[134.826415,34.466202],[134.827427,34.465886],[134.827515,34.465886],[134.827977,34.466136],[134.828177,34.466294],[134.828427,34.466311],[134.828502,34.467369],[134.82859,34.467894],[134.828677,34.468119],[134.82909,34.468502],[134.829165,34.468502],[134.829302,34.468202],[134.82919,34.467669],[134.82914,34.467577],[134.829227,34.467486],[134.829465,34.467369],[134.829552,34.467286],[134.829577,34.467036],[134.829765,34.466744],[134.830152,34.466494],[134.83054,34.466361],[134.83194,34.466194],[134.83244,34.466178],[134.833952,34.466219],[134.834502,34.466328],[134.835927,34.466919],[134.837114,34.467544],[134.837627,34.467902],[134.838127,34.468194],[134.838764,34.468719],[134.839064,34.468894],[134.839251,34.468944],[134.840214,34.469769],[134.840664,34.470219],[134.841901,34.471302],[134.841976,34.471419],[134.842064,34.471685],[134.842226,34.472002],[134.842501,34.472335],[134.842801,34.472494],[134.843138,34.473102],[134.843626,34.473377],[134.843226,34.473869],[134.843276,34.474544],[134.843851,34.474794],[134.844126,34.474519],[134.844926,34.475202],[134.844926,34.475243],[134.844626,34.475427],[134.844401,34.47551],[134.844263,34.475535],[134.844238,34.475718],[134.844738,34.475652],[134.844951,34.47556],[134.845226,34.475268],[134.845663,34.475352],[134.846188,34.475693],[134.846413,34.475985],[134.846501,34.476168],[134.846501,34.47641],[134.847513,34.477785],[134.848063,34.47871],[134.848675,34.479426],[134.849113,34.480376],[134.84925,34.480551],[134.849225,34.480576],[134.849613,34.480735],[134.849775,34.480893],[134.850263,34.481951],[134.85035,34.482068],[134.8504,34.482309],[134.850875,34.482784],[134.850988,34.483168],[134.851013,34.483459],[134.851475,34.483593],[134.851675,34.483884],[134.8522,34.484967],[134.852412,34.485084],[134.852525,34.485351],[134.852525,34.485692],[134.852912,34.485959],[134.85305,34.486476],[134.8533,34.486659],[134.853412,34.486992],[134.853575,34.487242],[134.853875,34.487509],[134.854075,34.487826],[134.85415,34.488076],[134.854425,34.488409],[134.854737,34.489067],[134.85495,34.489292],[134.855175,34.489767],[134.855362,34.490009],[134.855537,34.490525],[134.855837,34.490909],[134.855949,34.491275],[134.856299,34.491742],[134.856524,34.4924],[134.856574,34.492667],[134.856687,34.492892],[134.856987,34.49325],[134.857124,34.4935],[134.857237,34.493842],[134.857462,34.494267],[134.857574,34.494583],[134.857762,34.4949],[134.857899,34.495216],[134.857987,34.495525],[134.858374,34.496316],[134.858374,34.496541],[134.858562,34.496541],[134.858699,34.49665],[134.858674,34.496741],[134.858699,34.496833],[134.858899,34.496791],[134.858699,34.49625],[134.859224,34.496158],[134.859999,34.4976],[134.860299,34.49755],[134.861349,34.499599],[134.861461,34.499624],[134.861811,34.500258],[134.862174,34.500999],[134.862611,34.501782],[134.862786,34.502457],[134.863061,34.503207],[134.863299,34.504049],[134.863936,34.505674],[134.863736,34.505957],[134.863774,34.506032],[134.864423,34.50604],[134.864761,34.506032],[134.865148,34.506749],[134.865298,34.506849],[134.865598,34.507249],[134.865823,34.507682],[134.865823,34.50799],[134.866073,34.50794],[134.866773,34.508832],[134.866961,34.508907],[134.867173,34.509098],[134.867361,34.509357],[134.867511,34.509757],[134.867811,34.510173],[134.868136,34.510848],[134.868273,34.510823],[134.868448,34.511156],[134.86916,34.513065],[134.869185,34.513381],[134.86916,34.513656],[134.86921,34.513715],[134.869723,34.513465],[134.869798,34.513498],[134.87001,34.513581],[134.87061,34.51389],[134.871135,34.514115],[134.871785,34.514439],[134.872232,34.514583],[134.872385,34.514598],[134.872573,34.514689],[134.873423,34.515273],[134.87406,34.515698],[134.874222,34.515973],[134.87491,34.517456],[134.87516,34.518222],[134.87546,34.518114],[134.876385,34.519489],[134.87576,34.519872],[134.87601,34.520272],[134.876635,34.519981],[134.876972,34.519914],[134.87716,34.519981],[134.877322,34.520181],[134.878034,34.521539]]]},"properties":{"name":"淡路","number":2,"id_url":"K58.html","yomi":"あわじ","id":"K58","pref":"兵庫県"},"type":"Feature"}]}