{"features":[{"type":"Feature","properties":{"id":"K72","pref":"長崎県","id_url":"K72.html","yomi":"いき","name":"壱岐","number":2},"geometry":{"type":"Polygon","coordinates":[[[129.672298,33.825007],[129.672098,33.825115],[129.671823,33.825182],[129.671699,33.825157],[129.671299,33.825182],[129.670949,33.825157],[129.670824,33.825107],[129.670599,33.825149],[129.670299,33.825374],[129.670349,33.82549],[129.670624,33.825515],[129.670649,33.825715],[129.670511,33.82599],[129.670436,33.826073],[129.670186,33.826232],[129.669961,33.826273],[129.670009,33.82645],[129.670111,33.826482],[129.670186,33.826507],[129.670486,33.82644],[129.670886,33.826573],[129.671386,33.827257],[129.671548,33.827598],[129.671698,33.828048],[129.671898,33.828406],[129.672086,33.828998],[129.671936,33.829289],[129.671911,33.829673],[129.671723,33.830164],[129.671598,33.830597],[129.671673,33.831181],[129.671673,33.831472],[129.67176,33.831747],[129.67211,33.831972],[129.67241,33.832089],[129.67271,33.832389],[129.672835,33.83268],[129.672985,33.832814],[129.673435,33.832905],[129.673485,33.833064],[129.673622,33.83413],[129.673197,33.834438],[129.67301,33.835255],[129.67301,33.83568],[129.67296,33.835746],[129.672897,33.836105],[129.672635,33.836579],[129.672572,33.836729],[129.672047,33.837454],[129.67146,33.838021],[129.67146,33.838088],[129.671622,33.838313],[129.672997,33.839521],[129.674109,33.840721],[129.674497,33.841304],[129.674822,33.842071],[129.674996,33.842587],[129.675034,33.843487],[129.674696,33.843512],[129.674571,33.843646],[129.674759,33.843962],[129.675084,33.844071],[129.675484,33.844071],[129.675709,33.844129],[129.675846,33.844446],[129.676359,33.845345],[129.676609,33.845562],[129.677146,33.845429],[129.677646,33.845221],[129.678233,33.844921],[129.678821,33.844537],[129.679133,33.844146],[129.679033,33.844037],[129.678971,33.844012],[129.678721,33.844246],[129.678158,33.844496],[129.677634,33.844796],[129.677196,33.844996],[129.676946,33.844954],[129.676784,33.844712],[129.676809,33.844371],[129.676959,33.843787],[129.677084,33.843646],[129.677434,33.843671],[129.677496,33.843646],[129.677584,33.843487],[129.677396,33.843379],[129.677571,33.842971],[129.678146,33.841346],[129.678421,33.841004],[129.678821,33.840821],[129.679259,33.840721],[129.679509,33.840521],[129.679659,33.840246],[129.679659,33.83998],[129.679584,33.839663],[129.679646,33.839621],[129.679871,33.839546],[129.680121,33.839546],[129.680183,33.839955],[129.680046,33.840563],[129.679583,33.841421],[129.679433,33.841896],[129.679633,33.842571],[129.679521,33.842954],[129.679496,33.843696],[129.679696,33.843829],[129.679971,33.843688],[129.680571,33.843621],[129.680846,33.843796],[129.681083,33.844154],[129.681583,33.844288],[129.681833,33.844304],[129.682995,33.844029],[129.683408,33.844221],[129.683595,33.844471],[129.683508,33.844604],[129.683283,33.844813],[129.683258,33.844946],[129.683333,33.845354],[129.683233,33.845579],[129.68152,33.846021],[129.681395,33.845821],[129.679546,33.846262],[129.679442,33.846645],[129.679808,33.846937],[129.679971,33.847021],[129.679971,33.847296],[129.680096,33.847429],[129.680508,33.847604],[129.681458,33.848087],[129.681933,33.848446],[129.682358,33.849029],[129.682508,33.84907],[129.683307,33.84947],[129.683407,33.849629],[129.683632,33.850462],[129.683757,33.850504],[129.68427,33.850545],[129.684832,33.850762],[129.685095,33.851237],[129.685632,33.851587],[129.685857,33.851837],[129.685894,33.85242],[129.685682,33.852737],[129.685469,33.85317],[129.685357,33.85357],[129.685544,33.854003],[129.686032,33.854378],[129.687644,33.855087],[129.688144,33.855212],[129.688906,33.855345],[129.688931,33.857278],[129.689244,33.857253],[129.689256,33.85597],[129.692144,33.855945],[129.692169,33.855696],[129.692419,33.855654],[129.692794,33.855262],[129.692719,33.854796],[129.692844,33.854679],[129.692844,33.854637],[129.692681,33.854437],[129.692619,33.854412],[129.692344,33.854504],[129.691906,33.854579],[129.691331,33.854537],[129.690956,33.854429],[129.690794,33.854271],[129.690669,33.854046],[129.690756,33.853846],[129.691231,33.853971],[129.691606,33.853929],[129.692081,33.853762],[129.692294,33.853579],[129.692319,33.853221],[129.692531,33.852863],[129.692656,33.852496],[129.692669,33.851888],[129.692856,33.851529],[129.693069,33.851321],[129.693731,33.851205],[129.693856,33.85123],[129.694081,33.85143],[129.694331,33.851763],[129.694306,33.852013],[129.694431,33.852255],[129.694731,33.852596],[129.694956,33.85293],[129.694893,33.852971],[129.694968,33.853788],[129.694156,33.854154],[129.694381,33.854446],[129.695256,33.854071],[129.695731,33.854138],[129.696018,33.854338],[129.696106,33.854538],[129.696556,33.855121],[129.697031,33.855163],[129.697505,33.855246],[129.697668,33.855379],[129.698068,33.855313],[129.69913,33.85503],[129.699505,33.855005],[129.700205,33.855205],[129.700868,33.855196],[129.701643,33.85483],[129.702143,33.854646],[129.70258,33.854638],[129.703055,33.854546],[129.703642,33.85418],[129.70408,33.853997],[129.704367,33.854155],[129.704842,33.854846],[129.704755,33.855188],[129.704755,33.855388],[129.70348,33.855463],[129.701905,33.855663],[129.701218,33.855888],[129.700468,33.856104],[129.700355,33.856304],[129.700293,33.856554],[129.699793,33.856988],[129.699455,33.857121],[129.699143,33.857038],[129.698355,33.857154],[129.698018,33.857362],[129.697643,33.857521],[129.697068,33.857412],[129.696543,33.857421],[129.696106,33.857487],[129.695881,33.857696],[129.695956,33.857987],[129.696305,33.858412],[129.69643,33.858479],[129.697155,33.858604],[129.69713,33.858812],[129.696943,33.859262],[129.69708,33.859645],[129.69733,33.859912],[129.69743,33.859954],[129.697805,33.859795],[129.69818,33.859587],[129.69903,33.859762],[129.699568,33.860095],[129.69963,33.860179],[129.69958,33.860454],[129.69933,33.86077],[129.699118,33.861154],[129.69903,33.861537],[129.69928,33.861737],[129.699655,33.861737],[129.699943,33.861462],[129.700305,33.861012],[129.70058,33.860512],[129.700792,33.860237],[129.701292,33.860104],[129.70133,33.860237],[129.70118,33.860845],[129.701217,33.860912],[129.701505,33.860929],[129.702155,33.860679],[129.70353,33.860221],[129.70393,33.860012],[129.704505,33.860071],[129.70463,33.860362],[129.704705,33.861087],[129.70458,33.861221],[129.704267,33.861246],[129.703792,33.861162],[129.703292,33.861145],[129.702917,33.861254],[129.702792,33.861554],[129.70268,33.862162],[129.702755,33.862562],[129.70298,33.862812],[129.703992,33.86332],[129.704717,33.863287],[129.704904,33.863445],[129.705129,33.863379],[129.705367,33.863104],[129.705617,33.863012],[129.706079,33.862737],[129.706267,33.86267],[129.707467,33.86277],[129.708054,33.862454],[129.708367,33.862337],[129.709029,33.862462],[129.709567,33.862621],[129.710067,33.862637],[129.710227,33.862427],[129.710129,33.862254],[129.709654,33.861962],[129.709404,33.861896],[129.708804,33.861837],[129.708267,33.861596],[129.707029,33.860904],[129.706742,33.860596],[129.706567,33.860171],[129.706467,33.859496],[129.706517,33.859088],[129.706617,33.858821],[129.707417,33.858071],[129.707717,33.857705],[129.707967,33.857338],[129.708029,33.85703],[129.707992,33.85698],[129.709229,33.856047],[129.709604,33.855822],[129.710067,33.855705],[129.710479,33.855338],[129.710967,33.855113],[129.711504,33.855013],[129.711854,33.855122],[129.712417,33.855072],[129.713179,33.855338],[129.714054,33.855555],[129.714466,33.855597],[129.715404,33.855589],[129.716066,33.855722],[129.716329,33.85628],[129.716716,33.856838],[129.717191,33.857038],[129.718066,33.856847],[129.719016,33.856772],[129.719328,33.856705],[129.719978,33.85643],[129.720228,33.85613],[129.721066,33.855789],[129.721553,33.855314],[129.721741,33.855064],[129.722316,33.854047],[129.722691,33.853722],[129.723026,33.853286],[129.723416,33.852373],[129.723728,33.851848],[129.724178,33.850856],[129.724453,33.850556],[129.725141,33.850173],[129.725828,33.850031],[129.726516,33.849981],[129.726991,33.85004],[129.727553,33.850348],[129.728003,33.850415],[129.728928,33.849982],[129.729378,33.850023],[129.729728,33.850223],[129.73094,33.85014],[129.731478,33.849915],[129.732003,33.849365],[129.732303,33.849099],[129.73334,33.84864],[129.734115,33.848449],[129.734865,33.848424],[129.735277,33.848465],[129.736002,33.84839],[129.73684,33.848132],[129.737465,33.848107],[129.737965,33.847899],[129.73844,33.847824],[129.739315,33.847841],[129.739915,33.847724],[129.740502,33.847649],[129.740665,33.847699],[129.74129,33.847716],[129.742827,33.847408],[129.743552,33.847308],[129.744527,33.847524],[129.746689,33.847666],[129.747914,33.847699],[129.750277,33.847458],[129.751551,33.8469],[129.751926,33.846808],[129.752051,33.846875],[129.752339,33.847125],[129.752426,33.847166],[129.752751,33.847183],[129.753189,33.847566],[129.753514,33.847633],[129.753664,33.84745],[129.753564,33.847183],[129.753876,33.847083],[129.754314,33.846858],[129.754439,33.846833],[129.754726,33.846991],[129.754939,33.847008],[129.755564,33.847008],[129.755539,33.84685],[129.755351,33.846733],[129.755814,33.846533],[129.756589,33.845667],[129.756964,33.845508],[129.757489,33.845567],[129.758189,33.845567],[129.758651,33.84565],[129.759101,33.845867],[129.759501,33.845842],[129.759751,33.845367],[129.759963,33.845275],[129.760876,33.84525],[129.762001,33.844767],[129.762401,33.844625],[129.762976,33.844692],[129.763413,33.844592],[129.763938,33.844542],[129.764326,33.844567],[129.764726,33.844742],[129.765588,33.845159],[129.766626,33.8454],[129.767038,33.845575],[129.767613,33.845934],[129.767463,33.846292],[129.76755,33.846409],[129.767863,33.846384],[129.768025,33.846467],[129.768125,33.846584],[129.768525,33.846284],[129.768863,33.845942],[129.768894,33.845842],[129.769085,33.845589],[129.769513,33.84515],[129.769913,33.844926],[129.770325,33.844784],[129.77085,33.844392],[129.771375,33.843809],[129.772088,33.843167],[129.772575,33.842851],[129.772909,33.842439],[129.772996,33.842055],[129.772934,33.841714],[129.772871,33.84158],[129.772175,33.840918],[129.771725,33.840651],[129.771213,33.840201],[129.770901,33.839801],[129.770701,33.839493],[129.770476,33.839243],[129.770226,33.839085],[129.769251,33.838718],[129.768926,33.838218],[129.768113,33.838676],[129.767726,33.83821],[129.768351,33.837868],[129.768101,33.837443],[129.768063,33.837193],[129.768151,33.836743],[129.768076,33.836585],[129.767838,33.836235],[129.767438,33.835802],[129.766139,33.834827],[129.765571,33.834456],[129.765339,33.834327],[129.765276,33.834327],[129.764901,33.834143],[129.764764,33.833943],[129.764801,33.83356],[129.764776,33.833085],[129.764676,33.832727],[129.765089,33.831377],[129.765226,33.831061],[129.765301,33.831036],[129.765501,33.830861],[129.765439,33.830502],[129.765664,33.830069],[129.765939,33.829844],[129.766426,33.829919],[129.766826,33.829852],[129.767126,33.829627],[129.767101,33.829536],[129.766701,33.829419],[129.766401,33.829219],[129.766139,33.828403],[129.765927,33.828111],[129.765602,33.828136],[129.765114,33.828036],[129.765002,33.828178],[129.764814,33.828061],[129.764739,33.827611],[129.764852,33.827111],[129.765577,33.827211],[129.765877,33.827053],[129.765964,33.826894],[129.765739,33.826803],[129.765452,33.826869],[129.765127,33.826803],[129.764739,33.826661],[129.764577,33.826661],[129.764452,33.826553],[129.764502,33.826236],[129.764639,33.826078],[129.764564,33.825828],[129.763839,33.825445],[129.763814,33.825103],[129.763839,33.824945],[129.764114,33.824386],[129.764089,33.824045],[129.763927,33.823845],[129.763714,33.823703],[129.763664,33.823503],[129.763714,33.823411],[129.763964,33.823236],[129.764289,33.823053],[129.764499,33.822737],[129.764589,33.822403],[129.764727,33.822178],[129.764452,33.82197],[129.764215,33.821928],[129.763802,33.82197],[129.763452,33.821853],[129.763677,33.821453],[129.763815,33.821403],[129.764077,33.821228],[129.76414,33.820912],[129.764195,33.820775],[129.76444,33.820737],[129.76449,33.82067],[129.764277,33.820462],[129.764115,33.820187],[129.764065,33.819787],[129.763715,33.819354],[129.763202,33.818854],[129.763052,33.818604],[129.761552,33.818912],[129.761215,33.81837],[129.762077,33.818129],[129.76189,33.81772],[129.761102,33.817895],[129.76084,33.817062],[129.760653,33.816654],[129.760465,33.816521],[129.760178,33.816179],[129.760253,33.815796],[129.760415,33.815596],[129.760778,33.814946],[129.761053,33.814296],[129.761278,33.813888],[129.76149,33.813779],[129.762303,33.813554],[129.762515,33.813171],[129.762815,33.812929],[129.763253,33.812904],[129.76369,33.813021],[129.764015,33.812954],[129.76434,33.812596],[129.76434,33.812488],[129.76404,33.811855],[129.76399,33.811446],[129.764028,33.811063],[129.763778,33.810788],[129.763265,33.810655],[129.76259,33.810405],[129.76184,33.810063],[129.761003,33.810096],[129.760565,33.810055],[129.760174,33.809776],[129.760003,33.809663],[129.758653,33.810471],[129.757678,33.80963],[129.757578,33.809721],[129.758491,33.81063],[129.758316,33.810721],[129.757941,33.811479],[129.757503,33.811821],[129.757128,33.811771],[129.756528,33.811629],[129.756016,33.811363],[129.755478,33.810929],[129.755641,33.810746],[129.755591,33.810654],[129.755403,33.810546],[129.754891,33.810696],[129.754591,33.810763],[129.753428,33.809971],[129.754028,33.809296],[129.753179,33.808663],[129.748604,33.808638],[129.748604,33.808254],[129.748304,33.808254],[129.748416,33.809113],[129.747712,33.808925],[129.744704,33.808304],[129.744579,33.807579],[129.744654,33.807563],[129.745117,33.807138],[129.745467,33.806688],[129.745767,33.806421],[129.746017,33.80628],[129.746254,33.806013],[129.746529,33.805788],[129.746654,33.805721],[129.747354,33.80553],[129.747554,33.805413],[129.747712,33.805342],[129.748254,33.80548],[129.748316,33.80733],[129.748566,33.807355],[129.748542,33.806746],[129.749516,33.806705],[129.749516,33.80648],[129.753502,33.806345],[129.754176,33.806319],[129.754216,33.806055],[129.754279,33.805988],[129.754679,33.80583],[129.755091,33.80558],[129.756041,33.804663],[129.756454,33.804372],[129.756941,33.804238],[129.757104,33.804155],[129.757341,33.803839],[129.757404,33.803705],[129.757116,33.802914],[129.757441,33.802647],[129.757654,33.802647],[129.758216,33.802805],[129.759116,33.802989],[129.759379,33.80308],[129.759329,33.803439],[129.758291,33.803639],[129.758079,33.804114],[129.760416,33.805005],[129.760616,33.804439],[129.761128,33.804464],[129.761428,33.804605],[129.761778,33.804605],[129.762641,33.804114],[129.763428,33.803305],[129.763741,33.802564],[129.764203,33.801822],[129.764416,33.801372],[129.764241,33.800922],[129.764103,33.800764],[129.764078,33.800556],[129.764628,33.799839],[129.766616,33.798023],[129.767078,33.797648],[129.768566,33.796998],[129.768891,33.796823],[129.769328,33.796781],[129.769728,33.796573],[129.770353,33.796081],[129.771091,33.79584],[129.771216,33.79584],[129.771516,33.795731],[129.772491,33.795265],[129.772978,33.795106],[129.773441,33.794998],[129.774203,33.795115],[129.774553,33.795065],[129.774903,33.794865],[129.775316,33.794556],[129.775778,33.794306],[129.776153,33.794306],[129.776691,33.794473],[129.777253,33.794698],[129.777528,33.794856],[129.777628,33.795081],[129.777503,33.79524],[129.777141,33.795506],[129.777391,33.795898],[129.77749,33.796256],[129.77789,33.796548],[129.778165,33.796531],[129.778215,33.796465],[129.778065,33.795806],[129.778091,33.795448],[129.778066,33.795065],[129.778291,33.794573],[129.778528,33.794231],[129.778966,33.79399],[129.779178,33.793923],[129.779966,33.79354],[129.780353,33.793232],[129.780603,33.792798],[129.780766,33.792373],[129.780841,33.79199],[129.780828,33.791607],[129.781016,33.79134],[129.781453,33.79109],[129.781691,33.790823],[129.781691,33.790374],[129.781828,33.790057],[129.781941,33.789949],[129.782891,33.789299],[129.783978,33.788624],[129.786066,33.787782],[129.786366,33.787624],[129.787016,33.787382],[129.787391,33.787291],[129.788228,33.787182],[129.78874,33.787232],[129.78929,33.787524],[129.78964,33.787641],[129.790365,33.787441],[129.79094,33.787132],[129.791128,33.787216],[129.791332,33.787288],[129.791528,33.787332],[129.791774,33.787387],[129.79239,33.787291],[129.793065,33.787316],[129.793715,33.787866],[129.79374,33.787907],[129.79434,33.788024],[129.79469,33.787799],[129.79534,33.787716],[129.795853,33.787691],[129.79639,33.787791],[129.797627,33.788474],[129.798002,33.788607],[129.798252,33.788582],[129.798652,33.788657],[129.799252,33.788432],[129.79944,33.788391],[129.799365,33.788182],[129.799174,33.787488],[129.798965,33.786674],[129.799115,33.785724],[129.798553,33.784191],[129.798003,33.782066],[129.79789,33.781533],[129.797678,33.781166],[129.797415,33.780891],[129.79679,33.780416],[129.79599,33.779533],[129.795878,33.779466],[129.795553,33.779491],[129.79529,33.779941],[129.794903,33.780275],[129.794278,33.780566],[129.793815,33.780875],[129.793603,33.781124],[129.793165,33.781366],[129.792566,33.781774],[129.792466,33.781933],[129.792865,33.782091],[129.793328,33.781733],[129.793653,33.781983],[129.793615,33.782158],[129.793515,33.782341],[129.793353,33.782316],[129.79339,33.783533],[129.787666,33.783616],[129.787591,33.782558],[129.787378,33.782583],[129.787553,33.784516],[129.787466,33.784724],[129.787166,33.785174],[129.785866,33.785591],[129.785003,33.785766],[129.784891,33.785766],[129.784453,33.785991],[129.784166,33.786016],[129.784078,33.785807],[129.783141,33.785732],[129.783028,33.785799],[129.782728,33.785641],[129.782166,33.785216],[129.781791,33.784782],[129.781354,33.784691],[129.780841,33.784824],[129.779791,33.785382],[129.778841,33.785599],[129.778216,33.785666],[129.776979,33.785657],[129.776404,33.785474],[129.776054,33.785116],[129.775816,33.784774],[129.775741,33.784591],[129.775402,33.784543],[129.775116,33.784657],[129.774841,33.784924],[129.774679,33.784816],[129.774766,33.784499],[129.774954,33.784182],[129.774716,33.784116],[129.774466,33.784674],[129.774166,33.784449],[129.772979,33.785366],[129.773379,33.785682],[129.773216,33.785774],[129.772779,33.786132],[129.772679,33.786024],[129.772004,33.785682],[129.770379,33.785174],[129.769742,33.784649],[129.769692,33.784474],[129.769767,33.784249],[129.769279,33.784132],[129.768817,33.784199],[129.768579,33.784174],[129.768417,33.784307],[129.767229,33.784324],[129.766492,33.784432],[129.766042,33.78459],[129.765517,33.78479],[129.765492,33.784657],[129.765142,33.784565],[129.765029,33.784699],[129.764229,33.78449],[129.763792,33.784307],[129.763667,33.783949],[129.763555,33.783382],[129.763517,33.782232],[129.763355,33.781666],[129.763005,33.781399],[129.762792,33.781282],[129.762655,33.781257],[129.76049,33.779688],[129.759355,33.778241],[129.759305,33.778016],[129.759543,33.777724],[129.759743,33.777299],[129.759393,33.777008],[129.758805,33.776416],[129.758343,33.775874],[129.75808,33.775849],[129.757918,33.775783],[129.757755,33.775374],[129.75773,33.775099],[129.757818,33.774716],[129.757793,33.774266],[129.757843,33.774133],[129.758743,33.773641],[129.75933,33.773783],[129.759743,33.773916],[129.760393,33.773766],[129.760955,33.77345],[129.76128,33.773183],[129.761393,33.772616],[129.761668,33.771783],[129.762005,33.771425],[129.762843,33.770917],[129.763193,33.770708],[129.764043,33.769975],[129.764255,33.7697],[129.764555,33.769183],[129.76478,33.768217],[129.764868,33.768042],[129.765243,33.767592],[129.765868,33.7671],[129.76698,33.767167],[129.767218,33.76715],[129.768055,33.767267],[129.768843,33.767675],[129.771942,33.768167],[129.77208,33.768275],[129.77223,33.768775],[129.772417,33.769],[129.772555,33.769358],[129.772792,33.769725],[129.772817,33.770042],[129.772417,33.770467],[129.77233,33.7706],[129.772567,33.770967],[129.77268,33.771367],[129.77243,33.7718],[129.772342,33.772067],[129.772455,33.772425],[129.77248,33.772858],[129.772605,33.773083],[129.772605,33.773308],[129.772792,33.773375],[129.773205,33.773308],[129.774017,33.773408],[129.774529,33.773183],[129.775417,33.772958],[129.775454,33.772667],[129.775529,33.772417],[129.776129,33.771883],[129.776729,33.771842],[129.776729,33.771683],[129.777104,33.771592],[129.777129,33.771417],[129.777517,33.771392],[129.778154,33.773017],[129.777604,33.7732],[129.777692,33.773358],[129.777854,33.773383],[129.778229,33.773317],[129.778604,33.772975],[129.779392,33.77255],[129.780879,33.772042],[129.781317,33.771708],[129.781892,33.771525],[129.782379,33.771308],[129.783192,33.771042],[129.784629,33.770417],[129.785879,33.769608],[129.786466,33.7693],[129.786991,33.768942],[129.787391,33.768375],[129.787529,33.768042],[129.787829,33.767475],[129.788079,33.767117],[129.788429,33.766875],[129.788766,33.766425],[129.789066,33.765592],[129.789091,33.765184],[129.788942,33.764376],[129.788942,33.763901],[129.789454,33.763342],[129.789916,33.763026],[129.790241,33.762867],[129.790791,33.762967],[129.791104,33.763076],[129.791379,33.763059],[129.792491,33.762884],[129.792841,33.762859],[129.793891,33.763384],[129.794154,33.763434],[129.795616,33.763484],[129.796179,33.763601],[129.797403,33.763201],[129.797803,33.763159],[129.797891,33.763109],[129.798028,33.762526],[129.798216,33.762142],[129.798678,33.761809],[129.798628,33.761267],[129.798316,33.760542],[129.798079,33.760209],[129.797691,33.759884],[129.797029,33.759684],[129.796704,33.759343],[129.796541,33.758959],[129.796629,33.758618],[129.796516,33.758259],[129.796516,33.758009],[129.796579,33.757968],[129.796654,33.757784],[129.796491,33.757626],[129.796391,33.757584],[129.796141,33.757376],[129.796016,33.757018],[129.796041,33.756634],[129.796104,33.756501],[129.796941,33.756209],[129.797404,33.755943],[129.797779,33.755676],[129.798004,33.755135],[129.798029,33.754843],[129.798004,33.754818],[129.797654,33.754818],[129.797541,33.754835],[129.797266,33.755243],[129.797054,33.755468],[129.796779,33.755401],[129.796704,33.755351],[129.796279,33.754918],[129.796241,33.754785],[129.796416,33.754468],[129.796679,33.754268],[129.796816,33.754251],[129.797116,33.754093],[129.797391,33.754001],[129.797441,33.75391],[129.797391,33.753826],[129.797116,33.753801],[129.796604,33.753885],[129.796141,33.753726],[129.795629,33.753743],[129.795116,33.753943],[129.794654,33.754218],[129.794354,33.754526],[129.794166,33.754935],[129.794054,33.754868],[129.793029,33.754635],[129.792929,33.75486],[129.793729,33.75516],[129.793941,33.755476],[129.793891,33.755493],[129.793866,33.75556],[129.793966,33.755793],[129.794216,33.755768],[129.794454,33.756176],[129.794429,33.756243],[129.793291,33.756826],[129.793254,33.756909],[129.792717,33.756909],[129.792092,33.757043],[129.791479,33.756951],[129.790617,33.756759],[129.789854,33.756559],[129.789267,33.756326],[129.788867,33.756101],[129.788542,33.75576],[129.787954,33.75531],[129.787892,33.755218],[129.787842,33.754876],[129.787954,33.75461],[129.788042,33.754518],[129.788092,33.754343],[129.787992,33.75326],[129.788029,33.753151],[129.788254,33.752985],[129.788379,33.752743],[129.788192,33.752676],[129.788104,33.752535],[129.787755,33.75236],[129.787492,33.75241],[129.787355,33.752318],[129.787292,33.752051],[129.787317,33.751393],[129.787417,33.75131],[129.787817,33.751235],[129.78793,33.751077],[129.78793,33.750735],[129.787767,33.75076],[129.78768,33.751035],[129.787555,33.750993],[129.787517,33.750785],[129.78728,33.75061],[129.787005,33.750518],[129.78698,33.750318],[129.787242,33.75011],[129.787517,33.75011],[129.787642,33.750068],[129.787667,33.74986],[129.787392,33.74921],[129.787117,33.749102],[129.786867,33.748743],[129.786817,33.748452],[129.786892,33.748135],[129.786967,33.748018],[129.787455,33.747652],[129.787692,33.747652],[129.78778,33.747627],[129.788105,33.747694],[129.788505,33.747669],[129.788805,33.747535],[129.789067,33.74726],[129.789067,33.747194],[129.78953,33.746852],[129.789605,33.746694],[129.789567,33.746485],[129.789442,33.746419],[129.789217,33.746535],[129.788792,33.746677],[129.78863,33.746652],[129.78828,33.746794],[129.787905,33.74711],[129.787805,33.74716],[129.787442,33.747027],[129.787142,33.746777],[129.786817,33.746402],[129.78668,33.745819],[129.78643,33.745619],[129.786205,33.745302],[129.786067,33.744585],[129.785955,33.744294],[129.785917,33.743952],[129.786055,33.743752],[129.786355,33.743811],[129.786592,33.743811],[129.786755,33.743536],[129.78683,33.743152],[129.786717,33.742777],[129.786555,33.742686],[129.786555,33.742569],[129.786742,33.742461],[129.787017,33.742544],[129.787392,33.742427],[129.787355,33.742319],[129.787392,33.742269],[129.78768,33.742294],[129.787842,33.742219],[129.787973,33.742159],[129.78798,33.742061],[129.788142,33.742044],[129.78833,33.742177],[129.788442,33.742127],[129.788442,33.741944],[129.78838,33.741769],[129.788517,33.741611],[129.78868,33.741652],[129.789105,33.741669],[129.789355,33.741627],[129.789455,33.741552],[129.78938,33.741419],[129.789405,33.741244],[129.789342,33.741061],[129.789155,33.740969],[129.788967,33.740994],[129.78883,33.740844],[129.788505,33.740727],[129.788455,33.740752],[129.788317,33.740711],[129.787992,33.740669],[129.787992,33.740619],[129.787717,33.740536],[129.78753,33.740694],[129.787667,33.740961],[129.788017,33.740986],[129.78813,33.741252],[129.78803,33.741611],[129.78768,33.741819],[129.78728,33.741802],[129.786405,33.741877],[129.786255,33.742011],[129.78623,33.742102],[129.786042,33.742352],[129.785955,33.742352],[129.785842,33.742244],[129.78563,33.742269],[129.785253,33.742376],[129.785067,33.742319],[129.784955,33.742136],[129.784655,33.742052],[129.784493,33.742094],[129.784355,33.742094],[129.78428,33.742144],[129.784093,33.742077],[129.78393,33.742236],[129.78393,33.742369],[129.783962,33.742557],[129.783855,33.742802],[129.78353,33.742961],[129.783205,33.743027],[129.78278,33.743036],[129.782668,33.743061],[129.78143,33.742936],[129.780805,33.742736],[129.780343,33.742536],[129.77983,33.742177],[129.779701,33.741895],[129.779418,33.741777],[129.779118,33.741536],[129.778918,33.741219],[129.77898,33.741127],[129.779193,33.741061],[129.779355,33.740944],[129.779755,33.740786],[129.77983,33.740652],[129.779855,33.740494],[129.779618,33.740377],[129.779318,33.740319],[129.778743,33.740319],[129.778456,33.740394],[129.778318,33.740344],[129.778043,33.740011],[129.777806,33.739994],[129.777556,33.740086],[129.777531,33.740194],[129.777425,33.740279],[129.777293,33.740269],[129.777018,33.740244],[129.776881,33.740336],[129.776643,33.740794],[129.776518,33.740877],[129.776268,33.740886],[129.775918,33.740777],[129.7758,33.740646],[129.775756,33.740502],[129.775506,33.740194],[129.775206,33.740086],[129.775154,33.740119],[129.775081,33.740177],[129.774843,33.740652],[129.774568,33.740719],[129.774243,33.740677],[129.773918,33.740452],[129.773756,33.740186],[129.773856,33.739869],[129.774206,33.739552],[129.774068,33.739394],[129.773606,33.739394],[129.773256,33.739494],[129.773043,33.739586],[129.772593,33.739927],[129.772343,33.739927],[129.772093,33.739677],[129.771856,33.739619],[129.771668,33.739711],[129.771369,33.739777],[129.770969,33.739827],[129.770431,33.739944],[129.769969,33.740194],[129.769656,33.740444],[129.769356,33.740627],[129.769119,33.740677],[129.768731,33.740677],[129.768269,33.740552],[129.767981,33.740419],[129.767756,33.74026],[129.766594,33.740252],[129.766269,33.740202],[129.766219,33.740052],[129.766081,33.739985],[129.765969,33.739827],[129.765544,33.739919],[129.765519,33.739985],[129.765431,33.74001],[129.764994,33.739969],[129.764481,33.739819],[129.764106,33.739527],[129.763831,33.738944],[129.764144,33.738561],[129.764356,33.738419],[129.764494,33.738444],[129.764681,33.738286],[129.764681,33.738236],[129.764494,33.738102],[129.764406,33.737719],[129.764356,33.737677],[129.764106,33.737677],[129.764031,33.738127],[129.763469,33.738477],[129.763394,33.738494],[129.763169,33.738411],[129.762957,33.738411],[129.762582,33.738486],[129.762282,33.738461],[129.761882,33.739144],[129.761507,33.739502],[129.761032,33.739827],[129.760657,33.740027],[129.760519,33.74026],[129.760494,33.74046],[129.760607,33.740485],[129.760869,33.740435],[129.760844,33.74061],[129.761044,33.740902],[129.761182,33.740952],[129.761294,33.741244],[129.761507,33.741285],[129.761532,33.74146],[129.761432,33.742235],[129.761057,33.742235],[129.760644,33.741835],[129.760454,33.741749],[129.760269,33.741744],[129.759707,33.741727],[129.758732,33.741827],[129.758569,33.741919],[129.758357,33.742127],[129.757819,33.741952],[129.757657,33.742152],[129.758419,33.742502],[129.758282,33.742844],[129.758369,33.74316],[129.758269,33.74341],[129.758019,33.743502],[129.757969,33.74316],[129.757232,33.743327],[129.756982,33.742652],[129.757144,33.74261],[129.757057,33.742335],[129.756869,33.74236],[129.756594,33.741577],[129.756357,33.741627],[129.755932,33.740769],[129.755719,33.740727],[129.755607,33.740777],[129.755919,33.74136],[129.755861,33.741581],[129.755919,33.741827],[129.756394,33.742793],[129.756507,33.742952],[129.756644,33.743402],[129.754507,33.74346],[129.753844,33.74376],[129.753649,33.743719],[129.753482,33.743652],[129.753482,33.743135],[129.753498,33.742926],[129.753632,33.741893],[129.753482,33.741577],[129.753364,33.741501],[129.753255,33.741374],[129.753173,33.740909],[129.75307,33.740702],[129.753007,33.740252],[129.754045,33.740177],[129.754032,33.739702],[129.753445,33.739827],[129.753432,33.739602],[129.753382,33.739485],[129.753195,33.739469],[129.752982,33.73951],[129.752757,33.739602],[129.751957,33.739727],[129.751495,33.73991],[129.751182,33.740185],[129.750882,33.740502],[129.750645,33.740685],[129.75027,33.740844],[129.74992,33.740894],[129.749507,33.740827],[129.749132,33.740652],[129.748795,33.740294],[129.748695,33.74011],[129.748607,33.740094],[129.748532,33.740002],[129.748282,33.739985],[129.748232,33.740002],[129.747982,33.739919],[129.747907,33.739919],[129.74782,33.73996],[129.747714,33.739917],[129.747517,33.739951],[129.74737,33.739902],[129.746883,33.739677],[129.746283,33.739452],[129.745695,33.739385],[129.745258,33.739235],[129.744695,33.739077],[129.744508,33.73896],[129.744258,33.738894],[129.744183,33.738919],[129.743695,33.738919],[129.743258,33.738852],[129.741933,33.738744],[129.741295,33.738569],[129.739396,33.738369],[129.738696,33.738235],[129.738571,33.73826],[129.738246,33.738127],[129.738133,33.738144],[129.737271,33.738552],[129.737221,33.738644],[129.736708,33.738852],[129.735821,33.739118],[129.735708,33.739118],[129.734958,33.739235],[129.734496,33.739235],[129.734171,33.739193],[129.733933,33.738927],[129.733358,33.738493],[129.732896,33.738318],[129.732734,33.738343],[129.732521,33.73816],[129.732334,33.73771],[129.732521,33.73751],[129.732621,33.73746],[129.732784,33.737644],[129.733221,33.73746],[129.733296,33.737277],[129.733559,33.735927],[129.733559,33.735544],[129.733159,33.735477],[129.732909,33.735344],[129.732471,33.734719],[129.732371,33.73451],[129.732146,33.734202],[129.732098,33.733857],[129.732096,33.733636],[129.732284,33.733094],[129.732709,33.732261],[129.733034,33.732169],[129.733459,33.731427],[129.733459,33.731202],[129.733159,33.730994],[129.732834,33.730502],[129.732796,33.729786],[129.732959,33.729628],[129.733096,33.729261],[129.733359,33.729153],[129.733759,33.728386],[129.734109,33.728244],[129.734246,33.728069],[129.733684,33.727978],[129.732709,33.727961],[129.732246,33.727444],[129.732171,33.727378],[129.732009,33.727061],[129.731809,33.726861],[129.731647,33.726611],[129.731347,33.726269],[129.730784,33.726211],[129.730359,33.726119],[129.729897,33.726094],[129.728872,33.726211],[129.728634,33.726344],[129.728359,33.726278],[129.727947,33.726078],[129.727597,33.725811],[129.727034,33.725136],[129.727109,33.725111],[129.727134,33.724778],[129.727372,33.724261],[129.727722,33.723645],[129.727484,33.723128],[129.727509,33.723061],[129.727234,33.72232],[129.726822,33.721695],[129.726097,33.721128],[129.725685,33.72082],[129.724572,33.720078],[129.724222,33.719962],[129.723797,33.71967],[129.723497,33.71952],[129.722685,33.71927],[129.722385,33.719162],[129.721822,33.71932],[129.721497,33.719095],[129.72131,33.718753],[129.721497,33.71842],[129.721597,33.718037],[129.721547,33.717878],[129.721198,33.717612],[129.721135,33.717453],[129.721385,33.717403],[129.72146,33.71727],[129.721273,33.717087],[129.720948,33.71702],[129.720298,33.71707],[129.719648,33.716578],[129.719598,33.716487],[129.719248,33.716487],[129.71876,33.71667],[129.718498,33.716553],[129.718173,33.716262],[129.718135,33.716037],[129.718385,33.715837],[129.718598,33.715545],[129.718449,33.715283],[129.718485,33.715112],[129.718748,33.715029],[129.71891,33.714595],[129.71921,33.714437],[129.71926,33.714212],[129.719406,33.713907],[129.719473,33.71367],[129.719585,33.713354],[129.719573,33.713087],[129.719498,33.712887],[129.719548,33.712587],[129.719498,33.712187],[129.719548,33.711912],[129.719948,33.711754],[129.720198,33.711754],[129.720785,33.711887],[129.721248,33.711954],[129.721835,33.711771],[129.722829,33.711094],[129.722879,33.711028],[129.722879,33.710936],[129.72266,33.710688],[129.72256,33.710713],[129.722348,33.710446],[129.721985,33.710329],[129.721535,33.710446],[129.720373,33.710471],[129.71991,33.710429],[129.719348,33.710254],[129.718948,33.710004],[129.718948,33.709888],[129.718611,33.709304],[129.718961,33.708721],[129.718886,33.708246],[129.718711,33.707954],[129.718611,33.707846],[129.718311,33.707704],[129.717986,33.707796],[129.717911,33.707871],[129.717611,33.707954],[129.717473,33.708204],[129.717511,33.708496],[129.717936,33.709354],[129.718211,33.709646],[129.718485,33.710454],[129.718573,33.710746],[129.718835,33.710812],[129.718835,33.711062],[129.71876,33.711221],[129.718198,33.711737],[129.71811,33.711721],[129.717923,33.711579],[129.717537,33.711393],[129.717248,33.711221],[129.716973,33.710846],[129.716948,33.710662],[129.717061,33.710279],[129.716698,33.709221],[129.716648,33.708971],[129.716586,33.708954],[129.71642,33.708819],[129.716373,33.708729],[129.716348,33.707738],[129.716361,33.707171],[129.716561,33.706996],[129.716898,33.70638],[129.717086,33.705688],[129.717111,33.705121],[129.717023,33.704763],[129.716861,33.704446],[129.716598,33.704113],[129.716248,33.704113],[129.716086,33.704063],[129.715511,33.70443],[129.715461,33.70468],[129.715273,33.704988],[129.715073,33.706346],[129.715011,33.706521],[129.714936,33.707196],[129.714536,33.707788],[129.713998,33.708129],[129.713486,33.708304],[129.712711,33.708513],[129.712111,33.708629],[129.711986,33.708629],[129.711661,33.708738],[129.710586,33.709646],[129.709774,33.710229],[129.709136,33.710612],[129.708699,33.710754],[129.708186,33.710529],[129.707486,33.710304],[129.707136,33.710171],[129.706511,33.710062],[129.706274,33.710037],[129.706224,33.710062],[129.706147,33.710178],[129.705949,33.710237],[129.705299,33.710379],[129.705062,33.710404],[129.704924,33.710471],[129.704737,33.710629],[129.704687,33.710829],[129.704637,33.710896],[129.704224,33.711054],[129.703849,33.710987],[129.703712,33.710812],[129.703262,33.710837],[129.703012,33.710879],[129.702399,33.710654],[129.702012,33.710679],[129.701562,33.710812],[129.701187,33.710971],[129.700724,33.711021],[129.700462,33.711312],[129.700137,33.711562],[129.699862,33.711695],[129.699649,33.711562],[129.699537,33.711295],[129.699437,33.71127],[129.698974,33.710754],[129.698625,33.710421],[129.698237,33.710221],[129.698187,33.709837],[129.698075,33.709771],[129.69775,33.709654],[129.6977,33.709679],[129.69765,33.709929],[129.697487,33.710221],[129.697275,33.710287],[129.696975,33.710104],[129.69625,33.710287],[129.696275,33.710446],[129.69625,33.710562],[129.696387,33.710829],[129.696275,33.711145],[129.696525,33.712179],[129.69655,33.712204],[129.696525,33.712337],[129.69675,33.71297],[129.6965,33.713354],[129.6961,33.713379],[129.6957,33.713087],[129.695237,33.713104],[129.695025,33.71322],[129.694725,33.713179],[129.694562,33.71302],[129.694612,33.712954],[129.694662,33.712745],[129.694375,33.712595],[129.69415,33.712612],[129.693212,33.712437],[129.693,33.712279],[129.692962,33.712187],[129.6927,33.711945],[129.692475,33.711987],[129.692475,33.71217],[129.692125,33.712237],[129.691775,33.712062],[129.69165,33.71217],[129.69175,33.712395],[129.69195,33.712595],[129.691725,33.71282],[129.691325,33.713029],[129.691462,33.713345],[129.691737,33.713295],[129.692137,33.713095],[129.692462,33.713095],[129.692837,33.713204],[129.69295,33.713562],[129.693162,33.713903],[129.693487,33.714012],[129.6937,33.714237],[129.693737,33.714528],[129.6937,33.71462],[129.693437,33.714845],[129.69325,33.715095],[129.693437,33.715428],[129.693412,33.715653],[129.693225,33.71577],[129.693037,33.716037],[129.692825,33.716112],[129.692637,33.716154],[129.6925,33.716403],[129.6918,33.716561],[129.690912,33.716545],[129.690598,33.716472],[129.690425,33.716586],[129.690162,33.716636],[129.6901,33.716678],[129.689868,33.716633],[129.689562,33.716703],[129.689487,33.716703],[129.689263,33.716545],[129.689213,33.71657],[129.68895,33.716928],[129.688725,33.716886],[129.688538,33.716995],[129.688625,33.71722],[129.688566,33.717295],[129.688413,33.717286],[129.68825,33.717295],[129.688138,33.71752],[129.688165,33.717706],[129.688038,33.718145],[129.688325,33.718261],[129.688787,33.718345],[129.689487,33.718411],[129.690137,33.71857],[129.6903,33.718745],[129.690437,33.719153],[129.6906,33.719353],[129.690812,33.719378],[129.691112,33.719353],[129.691275,33.719261],[129.692025,33.718561],[129.692075,33.718545],[129.692725,33.71852],[129.693212,33.718445],[129.693537,33.718311],[129.693637,33.718336],[129.693937,33.718536],[129.693962,33.718628],[129.693912,33.718878],[129.693912,33.719503],[129.694024,33.720019],[129.693787,33.720044],[129.693487,33.719844],[129.692875,33.720044],[129.692787,33.720119],[129.69285,33.720494],[129.693062,33.720719],[129.693387,33.720878],[129.694274,33.721211],[129.695137,33.721461],[129.695199,33.721461],[129.695462,33.721619],[129.695574,33.721819],[129.695849,33.721753],[129.695974,33.721769],[129.696199,33.722203],[129.696012,33.722494],[129.696174,33.722761],[129.696574,33.723144],[129.696924,33.723394],[129.696899,33.723777],[129.696937,33.724086],[129.697362,33.724586],[129.697536,33.725036],[129.697536,33.725436],[129.697374,33.725661],[129.697024,33.725911],[129.696649,33.726094],[129.696162,33.726252],[129.695837,33.726477],[129.695574,33.726844],[129.695387,33.72691],[129.694787,33.72666],[129.694224,33.726352],[129.694574,33.725894],[129.694912,33.725336],[129.694937,33.724502],[129.694699,33.724186],[129.694474,33.724052],[129.693587,33.723802],[129.693262,33.723761],[129.693049,33.723944],[129.692699,33.724052],[129.692237,33.724077],[129.691812,33.724169],[129.691512,33.723069],[129.6914,33.722802],[129.6911,33.722419],[129.69105,33.722169],[129.691175,33.721903],[129.6912,33.721653],[129.691012,33.721336],[129.690637,33.721178],[129.690175,33.721069],[129.689375,33.721161],[129.6891,33.721361],[129.688912,33.721861],[129.68865,33.722178],[129.688562,33.722178],[129.688262,33.722086],[129.687787,33.722069],[129.687562,33.722361],[129.687137,33.722677],[129.6866,33.722877],[129.686175,33.723311],[129.685825,33.723511],[129.6856,33.723419],[129.68485,33.723286],[129.684413,33.723336],[129.6838,33.723627],[129.683725,33.723677],[129.684263,33.724661],[129.68435,33.724727],[129.684263,33.724952],[129.68405,33.725069],[129.683963,33.725044],[129.683813,33.725135],[129.68375,33.725344],[129.68405,33.725794],[129.684137,33.726102],[129.684137,33.72631],[129.684275,33.726694],[129.684325,33.727027],[129.684137,33.727094],[129.683737,33.726919],[129.6832,33.726802],[129.682788,33.726877],[129.682438,33.727077],[129.6822,33.72746],[129.682013,33.72766],[129.68185,33.72796],[129.6815,33.728118],[129.681288,33.728027],[129.681038,33.72746],[129.681013,33.727194],[129.681125,33.727102],[129.681363,33.726994],[129.681663,33.726744],[129.681713,33.726519],[129.681625,33.726177],[129.681463,33.726085],[129.681138,33.72611],[129.68065,33.726094],[129.679713,33.726294],[129.679225,33.726319],[129.67915,33.726527],[129.679175,33.726819],[129.679125,33.727285],[129.678963,33.727668],[129.678638,33.727852],[129.677963,33.727968],[129.6777,33.727927],[129.67735,33.727627],[129.677163,33.72761],[129.676976,33.727768],[129.676751,33.728177],[129.676813,33.728402],[129.677025,33.72851],[129.677154,33.72863],[129.6773,33.728935],[129.677538,33.729185],[129.677738,33.729452],[129.678225,33.730601],[129.678438,33.730893],[129.678575,33.73116],[129.678713,33.731726],[129.678875,33.731901],[129.678925,33.732043],[129.679088,33.732176],[129.679313,33.732285],[129.67945,33.732559],[129.6795,33.732801],[129.679638,33.732959],[129.679938,33.733001],[129.680225,33.732934],[129.680637,33.732959],[129.680987,33.733051],[129.681387,33.733426],[129.681525,33.733426],[129.68185,33.733543],[129.68225,33.733809],[129.6824,33.734618],[129.682375,33.734976],[129.682262,33.735201],[129.68205,33.735434],[129.682212,33.735726],[129.682162,33.736109],[129.681975,33.736267],[129.68175,33.736351],[129.68175,33.736534],[129.68235,33.736759],[129.6827,33.737209],[129.683625,33.737184],[129.683949,33.737409],[129.684024,33.737676],[129.684212,33.737859],[129.685162,33.738234],[129.685734,33.738467],[129.685674,33.738617],[129.684787,33.739225],[129.684499,33.739475],[129.684224,33.739834],[129.683799,33.739925],[129.683124,33.739792],[129.682874,33.739775],[129.682737,33.73995],[129.682799,33.740109],[129.682962,33.740359],[129.683037,33.740609],[129.683312,33.740717],[129.683637,33.740942],[129.684012,33.741125],[129.684287,33.741167],[129.684549,33.74105],[129.685224,33.740867],[129.685874,33.740934],[129.686287,33.741025],[129.686799,33.74125],[129.687224,33.741634],[129.687574,33.741875],[129.688011,33.742034],[129.688686,33.741942],[129.688852,33.742017],[129.688899,33.742367],[129.689174,33.742817],[129.689536,33.743858],[129.689661,33.7441],[129.689861,33.744325],[129.690699,33.744908],[129.690911,33.745383],[129.690936,33.745767],[129.690761,33.746058],[129.690561,33.745992],[129.690649,33.745608],[129.690449,33.7452],[129.689861,33.7448],[129.688936,33.74435],[129.688674,33.74415],[129.688474,33.743658],[129.688149,33.743342],[129.687986,33.74325],[129.687611,33.742958],[129.687237,33.742575],[129.686799,33.742334],[129.686662,33.742059],[129.686549,33.741967],[129.686424,33.742059],[129.686237,33.742125],[129.685824,33.742134],[129.685662,33.742267],[129.685537,33.742517],[129.685537,33.742583],[129.685862,33.742742],[129.685937,33.743233],[129.685887,33.743417],[129.685799,33.743536],[129.685749,33.743867],[129.68574,33.743948],[129.685649,33.744067],[129.685537,33.744108],[129.685249,33.744117],[129.684887,33.743733],[129.683837,33.743125],[129.683537,33.742858],[129.683162,33.742675],[129.682912,33.742742],[129.683024,33.743958],[129.682999,33.74405],[129.682687,33.744167],[129.682624,33.744208],[129.682687,33.744433],[129.683312,33.745533],[129.683412,33.745875],[129.683424,33.745954],[129.68342,33.745968],[129.683412,33.745983],[129.681724,33.746641],[129.681862,33.747074],[129.682099,33.747049],[129.682287,33.747449],[129.681912,33.748333],[129.681724,33.748424],[129.681374,33.748333],[129.681237,33.748199],[129.681112,33.747908],[129.681187,33.747724],[129.681099,33.747474],[129.680774,33.747208],[129.680462,33.747274],[129.680399,33.747549],[129.680187,33.747908],[129.679699,33.748183],[129.679624,33.748341],[129.679624,33.748491],[129.679199,33.748857],[129.678849,33.749082],[129.678499,33.749241],[129.678012,33.749216],[129.677874,33.749374],[129.677824,33.750124],[129.677662,33.750574],[129.677424,33.750707],[129.677149,33.750682],[129.676862,33.750457],[129.676662,33.750441],[129.6764,33.750482],[129.676237,33.750732],[129.675912,33.751074],[129.675937,33.751274],[129.676112,33.751674],[129.676162,33.752015],[129.676574,33.752824],[129.676674,33.753165],[129.676679,33.75321],[129.676662,33.753257],[129.676349,33.753482],[129.676174,33.753523],[129.675999,33.753498],[129.675449,33.753298],[129.674287,33.753757],[129.673962,33.753965],[129.673862,33.753982],[129.673812,33.754048],[129.673387,33.754115],[129.673112,33.753982],[129.672762,33.75359],[129.672337,33.75334],[129.672087,33.75334],[129.671987,33.753407],[129.671987,33.753565],[129.671937,33.753673],[129.671762,33.75379],[129.671587,33.754015],[129.671425,33.754465],[129.671775,33.755773],[129.672425,33.757356],[129.672525,33.757515],[129.672425,33.75774],[129.673124,33.758514],[129.673274,33.758606],[129.673749,33.758564],[129.673824,33.758606],[129.673974,33.758764],[129.674012,33.759039],[129.673787,33.759373],[129.673412,33.759398],[129.673012,33.759798],[129.672812,33.759773],[129.672712,33.759731],[129.672537,33.759498],[129.672312,33.759273],[129.672287,33.759181],[129.671862,33.758639],[129.67175,33.758414],[129.671375,33.758048],[129.671075,33.757931],[129.6707,33.758198],[129.670662,33.758356],[129.670537,33.758564],[129.670387,33.758606],[129.670187,33.758606],[129.669887,33.758198],[129.66975,33.757764],[129.669625,33.757581],[129.66945,33.757489],[129.66895,33.757398],[129.6685,33.757398],[129.667975,33.757548],[129.667903,33.757569],[129.667925,33.757481],[129.66815,33.757323],[129.66815,33.757098],[129.6683,33.757031],[129.668643,33.75688],[129.668613,33.755498],[129.668551,33.755253],[129.6686,33.754781],[129.668425,33.754123],[129.668275,33.753873],[129.668275,33.753715],[129.668138,33.753531],[129.667938,33.75349],[129.667775,33.753623],[129.667475,33.75364],[129.6672,33.753598],[129.666888,33.753256],[129.666938,33.753007],[129.667125,33.752648],[129.667038,33.75224],[129.666825,33.752065],[129.6662,33.751948],[129.665775,33.752157],[129.665401,33.752107],[129.664913,33.751907],[129.664913,33.75164],[129.665263,33.750715],[129.663876,33.750357],[129.663988,33.749773],[129.665363,33.749699],[129.665738,33.749657],[129.665976,33.749407],[129.666163,33.749115],[129.666113,33.748707],[129.666301,33.74839],[129.666913,33.748165],[129.667076,33.747915],[129.666863,33.747757],[129.666513,33.747649],[129.666351,33.747624],[129.665001,33.74779],[129.664788,33.74779],[129.664601,33.74799],[129.664301,33.748424],[129.663926,33.748557],[129.663738,33.748582],[129.663201,33.74874],[129.662876,33.749032],[129.662576,33.74899],[129.662126,33.749123],[129.661714,33.749373],[129.661314,33.749373],[129.660939,33.749057],[129.660739,33.748832],[129.660901,33.748565],[129.661901,33.747974],[129.662164,33.747774],[129.662301,33.747574],[129.662326,33.747207],[129.662214,33.746674],[129.662051,33.746374],[129.661726,33.746265],[129.661301,33.746224],[129.660739,33.74649],[129.660601,33.746699],[129.660489,33.747057],[129.660226,33.747215],[129.659601,33.747057],[129.659276,33.746899],[129.659364,33.746315],[129.659389,33.745915],[129.659251,33.745707],[129.659251,33.745507],[129.659139,33.745324],[129.658814,33.745324],[129.658552,33.745532],[129.658277,33.745849],[129.658014,33.746324],[129.657689,33.746549],[129.657314,33.746707],[129.657089,33.746657],[129.657014,33.746574],[129.657014,33.746257],[129.657202,33.746049],[129.657302,33.745782],[129.657327,33.745399],[129.657277,33.74454],[129.657327,33.744249],[129.657164,33.743666],[129.657264,33.743599],[129.657564,33.743507],[129.657839,33.743307],[129.658027,33.743082],[129.658077,33.742832],[129.657939,33.742541],[129.657964,33.742157],[129.658077,33.741974],[129.658102,33.741433],[129.658014,33.741324],[129.657739,33.740491],[129.657714,33.740199],[129.65749,33.739549],[129.657415,33.739116],[129.657302,33.738783],[129.65744,33.738508],[129.65749,33.738216],[129.65744,33.738125],[129.65714,33.737883],[129.657052,33.7379],[129.65679,33.737908],[129.656602,33.7382],[129.656552,33.738425],[129.65642,33.738611],[129.656202,33.738716],[129.656065,33.738966],[129.65609,33.739433],[129.65539,33.739733],[129.654902,33.739733],[129.654577,33.739666],[129.654315,33.739691],[129.654102,33.739891],[129.653777,33.740116],[129.653727,33.740116],[129.65329,33.740566],[129.653052,33.741157],[129.653102,33.741316],[129.653515,33.741307],[129.653777,33.741399],[129.654077,33.741374],[129.65419,33.741757],[129.65394,33.742074],[129.653565,33.742191],[129.653515,33.742749],[129.653577,33.742865],[129.65379,33.74304],[129.653465,33.743315],[129.653115,33.743207],[129.652902,33.743065],[129.652365,33.743157],[129.652277,33.743299],[129.652365,33.743499],[129.652465,33.743499],[129.652602,33.743607],[129.652902,33.743607],[129.65314,33.743765],[129.653277,33.744107],[129.653315,33.744557],[129.653277,33.74469],[129.653365,33.745073],[129.65334,33.745232],[129.653502,33.74649],[129.65364,33.74674],[129.653452,33.746982],[129.652915,33.747257],[129.65229,33.747373],[129.651915,33.747598],[129.651627,33.747731],[129.651627,33.747865],[129.65144,33.748315],[129.651415,33.748473],[129.651465,33.748723],[129.651302,33.749265],[129.651065,33.749356],[129.650852,33.749398],[129.650465,33.749673],[129.650315,33.749964],[129.650202,33.750414],[129.650127,33.750523],[129.649791,33.750685],[129.649715,33.750664],[129.649665,33.750639],[129.649477,33.750664],[129.64934,33.750756],[129.649177,33.750773],[129.64859,33.750489],[129.648502,33.750506],[129.64824,33.750506],[129.648177,33.750489],[129.64794,33.750506],[129.647453,33.750714],[129.647428,33.750898],[129.647453,33.750939],[129.647428,33.751206],[129.647565,33.751497],[129.647777,33.751681],[129.647915,33.751722],[129.64819,33.751722],[129.648315,33.751906],[129.648127,33.752106],[129.64784,33.752222],[129.647615,33.752131],[129.647353,33.751931],[129.647053,33.751772],[129.646923,33.751669],[129.64649,33.751439],[129.64629,33.751547],[129.646428,33.751839],[129.646628,33.751956],[129.646647,33.75196],[129.646681,33.752],[129.646815,33.752131],[129.646978,33.752381],[129.647115,33.752856],[129.647302,33.753214],[129.647502,33.753256],[129.647765,33.753547],[129.648115,33.753797],[129.648265,33.754139],[129.64854,33.754322],[129.64894,33.754364],[129.64929,33.754481],[129.649465,33.754731],[129.649452,33.755089],[129.649277,33.755247],[129.649177,33.755497],[129.649352,33.755697],[129.649627,33.755614],[129.650002,33.755572],[129.650127,33.755664],[129.650152,33.755905],[129.650377,33.756205],[129.650327,33.75638],[129.650139,33.756522],[129.650214,33.756605],[129.650389,33.756772],[129.650564,33.756772],[129.650614,33.75693],[129.650564,33.757105],[129.650439,33.757289],[129.650264,33.757622],[129.650352,33.757872],[129.650427,33.757964],[129.650702,33.758147],[129.651102,33.758305],[129.651177,33.758422],[129.651252,33.758672],[129.651077,33.758872],[129.650727,33.758872],[129.650327,33.758705],[129.650152,33.758755],[129.649927,33.759088],[129.650114,33.75963],[129.649939,33.759788],[129.649914,33.759972],[129.650214,33.760147],[129.650839,33.760313],[129.651214,33.760363],[129.651364,33.760338],[129.651914,33.760138],[129.652639,33.760255],[129.652714,33.76033],[129.653164,33.760463],[129.653839,33.760155],[129.654176,33.759955],[129.654789,33.760272],[129.654889,33.760455],[129.655039,33.760838],[129.654614,33.761105],[129.654614,33.761197],[129.654801,33.761513],[129.655076,33.761763],[129.654426,33.762255],[129.653551,33.761797],[129.653376,33.761772],[129.653051,33.761597],[129.653026,33.761547],[129.653051,33.761522],[129.652889,33.760847],[129.652839,33.760847],[129.652676,33.761097],[129.652626,33.761363],[129.652651,33.76168],[129.652326,33.762038],[129.652414,33.762605],[129.652214,33.762738],[129.651764,33.762755],[129.651514,33.762596],[129.651364,33.762213],[129.651239,33.762121],[129.651052,33.761896],[129.650727,33.761871],[129.650214,33.761888],[129.650064,33.761821],[129.649739,33.761746],[129.649539,33.761746],[129.649239,33.76168],[129.649189,33.761838],[129.649389,33.762038],[129.649664,33.76218],[129.649814,33.76243],[129.649564,33.762513],[129.649439,33.762763],[129.649002,33.762913],[129.648752,33.762938],[129.648539,33.76273],[129.648439,33.762463],[129.648139,33.76228],[129.647839,33.762255],[129.647414,33.762455],[129.647189,33.762405],[129.647102,33.762563],[129.646902,33.762763],[129.646777,33.762971],[129.646802,33.763013],[129.646952,33.763038],[129.647202,33.763013],[129.647252,33.763221],[129.647202,33.763313],[129.646852,33.763463],[129.646652,33.763688],[129.646614,33.763979],[129.646789,33.764071],[129.646914,33.764096],[129.647814,33.764529],[129.648039,33.764696],[129.648626,33.764963],[129.648714,33.765054],[129.649139,33.765288],[129.649639,33.765354],[129.649889,33.765521],[129.649976,33.765838],[129.649652,33.766054],[129.649052,33.765963],[129.648852,33.765713],[129.648502,33.765596],[129.648102,33.765479],[129.647677,33.765363],[129.647627,33.765388],[129.647377,33.765229],[129.647039,33.765071],[129.646927,33.765088],[129.646577,33.765046],[129.64569,33.764721],[129.64534,33.764513],[129.64519,33.764538],[129.644727,33.764713],[129.644677,33.764713],[129.644702,33.764846],[129.645002,33.765121],[129.644927,33.765321],[129.644527,33.765437],[129.644277,33.765729],[129.644215,33.766021],[129.644415,33.766246],[129.644515,33.766312],[129.64479,33.766612],[129.645165,33.766904],[129.645802,33.767537],[129.646527,33.767904],[129.647402,33.768162],[129.647827,33.768387],[129.648277,33.768529],[129.648302,33.768662],[129.648127,33.768887],[129.648077,33.768887],[129.647902,33.769004],[129.647827,33.768995],[129.647102,33.768679],[129.647002,33.768612],[129.646677,33.768495],[129.646427,33.768354],[129.646302,33.768379],[129.646052,33.768379],[129.646002,33.768354],[129.645152,33.768487],[129.644952,33.768304],[129.644852,33.767921],[129.644652,33.767846],[129.644077,33.767754],[129.643602,33.767571],[129.643552,33.767479],[129.642802,33.767046],[129.642677,33.767087],[129.642477,33.767246],[129.642502,33.767337],[129.642627,33.767454],[129.642648,33.767583],[129.642652,33.767696],[129.642752,33.767854],[129.642827,33.767879],[129.643252,33.768179],[129.643115,33.768312],[129.64304,33.768962],[129.64299,33.768987],[129.643007,33.769058],[129.643003,33.769139],[129.64304,33.769487],[129.643277,33.769687],[129.643299,33.769807],[129.643177,33.770029],[129.643427,33.770612],[129.643627,33.770729],[129.644077,33.770887],[129.64454,33.771229],[129.644839,33.77157],[129.64459,33.77182],[129.644639,33.771978],[129.644739,33.77207],[129.644814,33.772095],[129.644764,33.77252],[129.644802,33.772562],[129.645302,33.77282],[129.645639,33.772728],[129.645727,33.772978],[129.645653,33.773173],[129.645602,33.773337],[129.645627,33.773545],[129.646477,33.773478],[129.646952,33.773412],[129.647276,33.773297],[129.647503,33.773275],[129.648314,33.773128],[129.648739,33.773153],[129.649039,33.773337],[129.649089,33.773428],[129.649189,33.773453],[129.649426,33.773728],[129.649851,33.773753],[129.651239,33.773695],[129.651364,33.773604],[129.651289,33.773379],[129.651227,33.773346],[129.651064,33.773262],[129.650839,33.773062],[129.650739,33.772854],[129.651076,33.772545],[129.651251,33.771754],[129.651376,33.771779],[129.651551,33.771979],[129.651851,33.772029],[129.652001,33.772212],[129.652151,33.77262],[129.652526,33.772595],[129.652826,33.772512],[129.652901,33.77242],[129.652934,33.772365],[129.65303,33.772279],[129.653051,33.772104],[129.653176,33.771879],[129.653488,33.771745],[129.653763,33.77157],[129.653738,33.771254],[129.653888,33.771054],[129.654013,33.771054],[129.654388,33.771212],[129.654388,33.771254],[129.654638,33.771579],[129.654638,33.77162],[129.654788,33.771845],[129.654938,33.771895],[129.655113,33.772054],[129.655294,33.771958],[129.655404,33.771906],[129.655638,33.771879],[129.655713,33.771896],[129.655963,33.771829],[129.656163,33.771679],[129.656388,33.771404],[129.656451,33.771179],[129.656376,33.770887],[129.656126,33.770729],[129.656076,33.770729],[129.655901,33.770596],[129.655876,33.770229],[129.655501,33.769821],[129.655276,33.769687],[129.654813,33.768937],[129.654763,33.768962],[129.654713,33.768646],[129.655288,33.768713],[129.655788,33.768671],[129.655888,33.768588],[129.656051,33.768379],[129.656126,33.768338],[129.656451,33.767938],[129.656651,33.767938],[129.656926,33.768138],[129.657226,33.768229],[129.657351,33.768479],[129.657551,33.768621],[129.657726,33.768646],[129.65835,33.768263],[129.65865,33.767904],[129.659088,33.767663],[129.659863,33.767438],[129.660013,33.76753],[129.6594,33.768204],[129.659225,33.768588],[129.6591,33.768988],[129.6591,33.769079],[129.658888,33.769196],[129.658863,33.769238],[129.658488,33.769438],[129.658088,33.769796],[129.658463,33.769979],[129.658838,33.770004],[129.659138,33.769938],[129.659588,33.769738],[129.659838,33.769696],[129.659938,33.769738],[129.659963,33.769879],[129.659738,33.770146],[129.6594,33.770771],[129.659325,33.770846],[129.65925,33.770862],[129.659025,33.771129],[129.65905,33.771246],[129.6593,33.771271],[129.6597,33.771362],[129.659825,33.771796],[129.660025,33.771837],[129.6604,33.771596],[129.66055,33.771321],[129.66055,33.771096],[129.66065,33.771029],[129.661188,33.770854],[129.661313,33.770879],[129.661438,33.770696],[129.661613,33.770363],[129.661713,33.769821],[129.66185,33.769621],[129.66185,33.769371],[129.66215,33.769438],[129.662462,33.769921],[129.662537,33.769963],[129.662487,33.770054],[129.662612,33.770321],[129.662687,33.770438],[129.662837,33.770438],[129.663137,33.770238],[129.663187,33.770129],[129.663025,33.769513],[129.662875,33.769246],[129.662775,33.769171],[129.662725,33.768971],[129.66275,33.768655],[129.662738,33.768521],[129.662788,33.768363],[129.663012,33.768388],[129.663137,33.768455],[129.663387,33.76868],[129.663862,33.768846],[129.66395,33.768913],[129.664387,33.768913],[129.664487,33.768805],[129.664537,33.768196],[129.664337,33.767946],[129.664237,33.767921],[129.664137,33.767763],[129.663925,33.76738],[129.6638,33.767355],[129.663625,33.767221],[129.66355,33.767221],[129.663475,33.766946],[129.663525,33.766538],[129.663488,33.765822],[129.663688,33.765613],[129.663913,33.765505],[129.664213,33.765422],[129.664462,33.765872],[129.664662,33.766097],[129.664887,33.766413],[129.66535,33.766597],[129.66555,33.767071],[129.6658,33.767163],[129.665825,33.76753],[129.66605,33.767713],[129.666125,33.76773],[129.66635,33.767713],[129.66655,33.76758],[129.6668,33.767288],[129.6667,33.767038],[129.666912,33.766722],[129.667262,33.76668],[129.667687,33.766797],[129.667887,33.767005],[129.668137,33.767138],[129.668312,33.767163],[129.668562,33.767138],[129.668962,33.766622],[129.669462,33.766288],[129.670099,33.76598],[129.670299,33.766097],[129.670524,33.766272],[129.670412,33.766413],[129.670337,33.766613],[129.670137,33.76688],[129.670087,33.767105],[129.669987,33.767313],[129.669999,33.767697],[129.670199,33.768097],[129.670174,33.768255],[129.670074,33.768505],[129.669874,33.768755],[129.669787,33.768996],[129.669837,33.769046],[129.670137,33.769005],[129.670549,33.768805],[129.670599,33.768688],[129.670574,33.768488],[129.670874,33.767972],[129.671112,33.767813],[129.671637,33.767747],[129.671937,33.767638],[129.672312,33.767863],[129.672711,33.76798],[129.673336,33.767963],[129.673611,33.76783],[129.673786,33.767588],[129.674086,33.767338],[129.674111,33.767205],[129.674274,33.76698],[129.674249,33.766913],[129.674349,33.766622],[129.674224,33.766439],[129.674274,33.766147],[129.673887,33.765372],[129.673987,33.765264],[129.674237,33.76508],[129.674561,33.764947],[129.674911,33.764664],[129.675211,33.765072],[129.675461,33.76498],[129.676224,33.76483],[129.676299,33.76478],[129.676899,33.764739],[129.677199,33.764589],[129.677274,33.764589],[129.677349,33.764364],[129.677674,33.764181],[129.677736,33.763889],[129.677811,33.763806],[129.677911,33.763489],[129.678086,33.763356],[129.678186,33.763289],[129.678261,33.763106],[129.678536,33.762839],[129.678511,33.762747],[129.678924,33.762481],[129.679249,33.762389],[129.679349,33.762439],[129.679574,33.762464],[129.679724,33.762373],[129.679749,33.762331],[129.679849,33.762331],[129.679899,33.762031],[129.680024,33.761806],[129.679886,33.761473],[129.679636,33.761448],[129.679486,33.761356],[129.679436,33.761198],[129.679411,33.760764],[129.679686,33.760631],[129.680049,33.760256],[129.680074,33.759873],[129.679974,33.759306],[129.679999,33.759265],[129.680661,33.758998],[129.681161,33.758815],[129.681361,33.758281],[129.681649,33.75799],[129.682074,33.757648],[129.682149,33.757648],[129.682299,33.757832],[129.682274,33.757898],[129.682236,33.758348],[129.682511,33.758648],[129.682836,33.758765],[129.682861,33.758698],[129.683261,33.758765],[129.683536,33.758881],[129.683861,33.759623],[129.684161,33.759898],[129.684473,33.760015],[129.684786,33.759948],[129.685311,33.759456],[129.685911,33.759348],[129.685961,33.759665],[129.686061,33.760098],[129.686061,33.760248],[129.685798,33.760365],[129.685573,33.76054],[129.685273,33.760898],[129.684848,33.761031],[129.684048,33.761023],[129.682948,33.760865],[129.682823,33.760773],[129.682524,33.760723],[129.682161,33.760831],[129.681936,33.761014],[129.681911,33.761439],[129.681836,33.761798],[129.681474,33.762298],[129.681474,33.762631],[129.681548,33.762748],[129.681473,33.763039],[129.681536,33.763689],[129.681636,33.763764],[129.681761,33.764014],[129.681811,33.764256],[129.681736,33.764531],[129.681686,33.764547],[129.681436,33.764531],[129.681311,33.764281],[129.681211,33.764256],[129.681036,33.764272],[129.680961,33.764322],[129.680611,33.764406],[129.680461,33.764381],[129.679649,33.764489],[129.679649,33.764581],[129.679374,33.764831],[129.679499,33.765006],[129.679774,33.765172],[129.679949,33.765331],[129.680273,33.765356],[129.680523,33.765422],[129.680723,33.765381],[129.680823,33.765406],[129.681173,33.765656],[129.681198,33.765922],[129.680948,33.765964],[129.680711,33.766122],[129.680636,33.766347],[129.680811,33.766505],[129.681036,33.76658],[129.681736,33.766697],[129.681986,33.767147],[129.682161,33.76733],[129.682461,33.767514],[129.682536,33.767605],[129.682273,33.768097],[129.682123,33.76803],[129.681723,33.767847],[129.681423,33.767772],[129.681348,33.767822],[129.681348,33.767955],[129.681598,33.768314],[129.681448,33.768472],[129.681123,33.768514],[129.680473,33.768397],[129.680573,33.768197],[129.680523,33.767814],[129.679623,33.767264],[129.679273,33.767305],[129.679223,33.767355],[129.679048,33.767355],[129.678824,33.767105],[129.678599,33.766964],[129.678374,33.766964],[129.678124,33.767214],[129.678074,33.767455],[129.678174,33.767639],[129.678399,33.767889],[129.678948,33.768205],[129.679098,33.76823],[129.679061,33.768438],[129.678811,33.768572],[129.678686,33.768588],[129.677961,33.768763],[129.677836,33.76883],[129.677736,33.76883],[129.677361,33.768647],[129.676961,33.768738],[129.676536,33.768955],[129.676049,33.769138],[129.676074,33.769297],[129.676324,33.769363],[129.676549,33.769297],[129.676861,33.769138],[129.677111,33.769055],[129.677261,33.76908],[129.677611,33.768963],[129.678036,33.769172],[129.678361,33.769222],[129.679111,33.769155],[129.679211,33.76918],[129.679411,33.769088],[129.679611,33.769497],[129.679411,33.769655],[129.679023,33.76988],[129.678948,33.769972],[129.678698,33.770105],[129.678423,33.770413],[129.678373,33.770347],[129.678398,33.770438],[129.678298,33.77053],[129.677711,33.770971],[129.677711,33.771038],[129.677836,33.771155],[129.678111,33.771221],[129.678211,33.771296],[129.678436,33.771246],[129.678986,33.771005],[129.679248,33.77078],[129.679448,33.77078],[129.679748,33.770697],[129.679873,33.770538],[129.680273,33.770297],[129.680448,33.770338],[129.680773,33.770655],[129.680848,33.770905],[129.680261,33.771646],[129.680211,33.77178],[129.680036,33.771913],[129.679786,33.771913],[129.679261,33.772071],[129.678598,33.772405],[129.678423,33.772471],[129.678198,33.772463],[129.677948,33.772238],[129.677873,33.772305],[129.677598,33.772263],[129.677223,33.772255],[129.677098,33.772213],[129.676823,33.77203],[129.676773,33.772046],[129.676498,33.772005],[129.676074,33.772088],[129.676049,33.77218],[129.675699,33.77213],[129.675449,33.771971],[129.675324,33.771971],[129.675149,33.772155],[129.675074,33.772513],[129.674861,33.772846],[129.674736,33.772896],[129.674386,33.773138],[129.674236,33.773479],[129.674361,33.773746],[129.674636,33.774046],[129.674949,33.774179],[129.675261,33.774113],[129.675411,33.774179],[129.675911,33.774229],[129.676411,33.774096],[129.676911,33.773879],[129.677111,33.773854],[129.677336,33.773971],[129.677273,33.774738],[129.676948,33.774871],[129.676873,33.774979],[129.676648,33.775188],[129.676748,33.775438],[129.677173,33.775688],[129.677623,33.775979],[129.677786,33.776296],[129.677961,33.776862],[129.678111,33.777087],[129.678086,33.777229],[129.677798,33.777604],[129.677448,33.777671],[129.676936,33.777171],[129.676786,33.777262],[129.676323,33.778179],[129.676048,33.778137],[129.676048,33.777929],[129.675873,33.777454],[129.675773,33.777437],[129.675411,33.776937],[129.675086,33.776637],[129.675036,33.776571],[129.674936,33.776504],[129.674636,33.775937],[129.674161,33.775862],[129.674036,33.775821],[129.673961,33.775846],[129.673936,33.775821],[129.673186,33.775771],[129.673011,33.775721],[129.672661,33.775746],[129.671374,33.776254],[129.670674,33.776271],[129.670599,33.776312],[129.670174,33.776421],[129.668724,33.776212],[129.668649,33.776254],[129.668049,33.776387],[129.667974,33.776362],[129.667874,33.776271],[129.667349,33.775996],[129.666599,33.775929],[129.666099,33.776012],[129.665462,33.776212],[129.664512,33.776587],[129.663825,33.777037],[129.66325,33.777254],[129.662225,33.77702],[129.661575,33.776904],[129.66,33.776895],[129.65995,33.776595],[129.66005,33.776487],[129.660525,33.776404],[129.660875,33.77647],[129.66095,33.77627],[129.660938,33.776112],[129.660838,33.776112],[129.660538,33.775929],[129.659763,33.775854],[129.65945,33.775987],[129.658813,33.777153],[129.658188,33.77792],[129.658138,33.778053],[129.657725,33.778612],[129.657525,33.778795],[129.65735,33.778903],[129.656613,33.77987],[129.656388,33.78027],[129.656163,33.780428],[129.655801,33.780586],[129.655776,33.780653],[129.655801,33.780995],[129.655976,33.781103],[129.656051,33.781261],[129.656101,33.781536],[129.656013,33.782211],[129.655863,33.782478],[129.655876,33.783178],[129.656176,33.784036],[129.656176,33.784286],[129.656013,33.784694],[129.656038,33.784719],[129.656088,33.785328],[129.656188,33.785461],[129.656238,33.785819],[129.656351,33.786003],[129.656326,33.786094],[129.656451,33.786569],[129.656563,33.787494],[129.656438,33.787786],[129.656188,33.787919],[129.656038,33.788053],[129.656138,33.788261],[129.656163,33.788419],[129.656076,33.788578],[129.655826,33.788728],[129.655701,33.788886],[129.655701,33.789044],[129.655876,33.789519],[129.656151,33.789744],[129.656238,33.789902],[129.656576,33.789686],[129.656876,33.789369],[129.656951,33.789169],[129.657126,33.789078],[129.657301,33.789053],[129.658388,33.788569],[129.658838,33.788278],[129.659238,33.788211],[129.659313,33.788236],[129.659538,33.788103],[129.6599,33.788036],[129.6609,33.788111],[129.66125,33.788069],[129.6613,33.788253],[129.661238,33.788453],[129.660663,33.788744],[129.660438,33.788919],[129.660263,33.789144],[129.660188,33.789303],[129.660525,33.789644],[129.660575,33.790278],[129.6603,33.790453],[129.65975,33.790653],[129.659638,33.790744],[129.659238,33.791036],[129.658763,33.791436],[129.658688,33.791594],[129.658601,33.792044],[129.658726,33.792294],[129.658601,33.792494],[129.658576,33.792627],[129.657763,33.794002],[129.657276,33.794336],[129.656876,33.794561],[129.656526,33.794894],[129.655739,33.795252],[129.655264,33.795377],[129.655064,33.795627],[129.655014,33.796102],[129.654826,33.796327],[129.654401,33.796685],[129.654276,33.796702],[129.653951,33.79641],[129.653901,33.796069],[129.653826,33.795977],[129.653702,33.796044],[129.653652,33.796252],[129.653477,33.796635],[129.653502,33.796877],[129.653464,33.797335],[129.653639,33.797494],[129.653814,33.79776],[129.653564,33.797985],[129.653014,33.798144],[129.652064,33.79811],[129.651839,33.797952],[129.651814,33.797885],[129.651589,33.797952],[129.651402,33.79806],[129.651227,33.79851],[129.650977,33.798535],[129.650902,33.798618],[129.650877,33.798893],[129.65034,33.799477],[129.650415,33.79966],[129.650365,33.799743],[129.65049,33.799993],[129.65069,33.800085],[129.651439,33.800135],[129.652364,33.799852],[129.652614,33.799893],[129.652964,33.799877],[129.653402,33.799677],[129.653452,33.79961],[129.653352,33.799135],[129.653402,33.798777],[129.654189,33.798377],[129.654664,33.798019],[129.654789,33.797994],[129.655501,33.797635],[129.655976,33.796602],[129.656264,33.79636],[129.656689,33.796294],[129.657114,33.796344],[129.657364,33.796527],[129.657826,33.796952],[129.657901,33.797519],[129.657576,33.797494],[129.657326,33.797377],[129.656414,33.797985],[129.656439,33.798144],[129.656314,33.798477],[129.656339,33.798544],[129.656539,33.798727],[129.656814,33.79891],[129.657264,33.799052],[129.658014,33.799102],[129.658689,33.798944],[129.658814,33.79886],[129.659489,33.798702],[129.659651,33.798635],[129.660226,33.798485],[129.660301,33.798527],[129.660788,33.799027],[129.661138,33.799169],[129.661926,33.799194],[129.662526,33.799085],[129.663275,33.798885],[129.66345,33.798802],[129.663825,33.798869],[129.664025,33.798802],[129.664488,33.79851],[129.664813,33.798402],[129.665063,33.798719],[129.665275,33.798927],[129.665775,33.799152],[129.666337,33.798911],[129.666762,33.798869],[129.666812,33.798894],[129.666937,33.799069],[129.66695,33.799277],[129.667075,33.799569],[129.66725,33.799844],[129.66735,33.800135],[129.66735,33.800494],[129.6673,33.80061],[129.667037,33.800719],[129.666638,33.80101],[129.666263,33.801144],[129.666038,33.801094],[129.665563,33.801069],[129.665463,33.801119],[129.665288,33.801269],[129.66515,33.802019],[129.664925,33.802327],[129.66475,33.802444],[129.664113,33.802644],[129.663938,33.80266],[129.663513,33.80266],[129.662938,33.80241],[129.662488,33.802335],[129.662063,33.802352],[129.661788,33.802469],[129.661738,33.80251],[129.661663,33.802485],[129.661414,33.802619],[129.660689,33.802727],[129.660414,33.80291],[129.660026,33.803219],[129.659943,33.803429],[129.659651,33.803419],[129.659476,33.803235],[129.659376,33.802969],[129.658676,33.80301],[129.658626,33.803118],[129.658351,33.803318],[129.658152,33.80361],[129.658039,33.803677],[129.657814,33.804018],[129.657414,33.804352],[129.657139,33.804418],[129.656914,33.804577],[129.656614,33.804643],[129.656527,33.80471],[129.656127,33.804843],[129.656027,33.804843],[129.655902,33.804952],[129.655827,33.804952],[129.655477,33.805085],[129.655302,33.805243],[129.655052,33.805285],[129.655002,33.805351],[129.654752,33.80546],[129.654289,33.805501],[129.654165,33.805776],[129.65389,33.805976],[129.65324,33.806218],[129.653065,33.80631],[129.652677,33.806443],[129.652102,33.806568],[129.651602,33.806609],[129.650802,33.806559],[129.650277,33.806584],[129.649927,33.806626],[129.649777,33.806734],[129.649702,33.806759],[129.64964,33.806959],[129.649665,33.807093],[129.650065,33.807368],[129.65054,33.807534],[129.65064,33.807601],[129.650901,33.807676],[129.650965,33.807759],[129.651115,33.808051],[129.651415,33.808393],[129.651215,33.808526],[129.651102,33.808751],[129.651202,33.808909],[129.651452,33.808934],[129.651752,33.809051],[129.651777,33.809251],[129.652002,33.809643],[129.652227,33.809801],[129.652477,33.810051],[129.652515,33.810409],[129.65274,33.810684],[129.653165,33.811026],[129.65314,33.811251],[129.65339,33.811226],[129.653265,33.811451],[129.65324,33.811726],[129.653327,33.811859],[129.653977,33.812251],[129.654002,33.812559],[129.654202,33.812726],[129.654852,33.812726],[129.655202,33.812801],[129.655552,33.813026],[129.655927,33.813409],[129.656127,33.813684],[129.656352,33.813842],[129.656489,33.814159],[129.656614,33.814317],[129.657039,33.814434],[129.657839,33.814484],[129.658327,33.814376],[129.658577,33.814217],[129.658702,33.813951],[129.658302,33.813926],[129.657802,33.813967],[129.657202,33.814009],[129.656977,33.813851],[129.656752,33.813418],[129.656927,33.813259],[129.657102,33.813284],[129.657427,33.813268],[129.657777,33.813176],[129.657989,33.812951],[129.657865,33.812768],[129.65794,33.812343],[129.65814,33.812118],[129.65849,33.812101],[129.65939,33.81226],[129.659689,33.812443],[129.660414,33.812943],[129.660489,33.813193],[129.660814,33.813359],[129.661139,33.813426],[129.661439,33.813359],[129.661789,33.813201],[129.661852,33.812301],[129.661952,33.812101],[129.661977,33.811743],[129.661864,33.81086],[129.661802,33.80991],[129.661702,33.809685],[129.661727,33.809277],[129.661976,33.80881],[129.661989,33.808585],[129.662239,33.808427],[129.662414,33.80856],[129.662526,33.808877],[129.662551,33.809152],[129.662376,33.80951],[129.662326,33.809868],[129.662489,33.810301],[129.662614,33.81046],[129.662739,33.81046],[129.662839,33.81066],[129.663089,33.810868],[129.663364,33.810893],[129.663414,33.811051],[129.663514,33.811118],[129.663814,33.811118],[129.664289,33.81101],[129.664439,33.81081],[129.664701,33.81061],[129.664851,33.810451],[129.665226,33.810476],[129.665951,33.810726],[129.666301,33.810735],[129.666451,33.810668],[129.666251,33.810485],[129.665976,33.81046],[129.665701,33.810393],[129.665526,33.810276],[129.665376,33.810093],[129.665401,33.809868],[129.665388,33.80951],[129.665138,33.808943],[129.665338,33.808402],[129.665551,33.80811],[129.665751,33.807885],[129.665951,33.808227],[129.666201,33.80836],[129.666725,33.80841],[129.667025,33.808502],[129.6672,33.808502],[129.6674,33.807627],[129.667188,33.807335],[129.667063,33.807102],[129.666963,33.806268],[129.667038,33.80611],[129.6673,33.804893],[129.66755,33.80476],[129.667463,33.80456],[129.667213,33.804535],[129.666663,33.803402],[129.666663,33.80331],[129.667438,33.803385],[129.66765,33.803227],[129.6676,33.80291],[129.668,33.802577],[129.6682,33.802577],[129.668625,33.80301],[129.668725,33.803194],[129.6688,33.803235],[129.668875,33.803352],[129.668775,33.803594],[129.668812,33.80391],[129.668787,33.804002],[129.669012,33.804685],[129.668962,33.804727],[129.669162,33.80511],[129.669212,33.805135],[129.669487,33.805135],[129.669762,33.805002],[129.669962,33.804844],[129.670112,33.804802],[129.670312,33.804827],[129.670537,33.804919],[129.670812,33.805168],[129.671012,33.805235],[129.671212,33.805152],[129.671312,33.804769],[129.671237,33.804452],[129.671099,33.804135],[129.671174,33.804019],[129.670999,33.803569],[129.671024,33.803477],[129.670999,33.803119],[129.671087,33.802935],[129.671162,33.802869],[129.671287,33.802644],[129.671312,33.802469],[129.671187,33.802194],[129.671137,33.80201],[129.671237,33.801719],[129.671749,33.801385],[129.671724,33.801027],[129.671374,33.800685],[129.671399,33.800552],[129.671662,33.800011],[129.671762,33.799961],[129.671837,33.799669],[129.671637,33.799627],[129.671287,33.799669],[129.671162,33.799602],[129.671137,33.799552],[129.671462,33.799036],[129.671649,33.798952],[129.672174,33.798977],[129.672424,33.798886],[129.672724,33.798661],[129.673124,33.798127],[129.674211,33.797861],[129.674861,33.797619],[129.675623,33.796969],[129.675798,33.796994],[129.676198,33.797311],[129.676886,33.798036],[129.676836,33.798244],[129.676286,33.798669],[129.675374,33.799019],[129.675199,33.799044],[129.674749,33.798902],[129.674374,33.798944],[129.674049,33.799077],[129.673286,33.799611],[129.673061,33.799744],[129.673211,33.800202],[129.673286,33.800294],[129.673436,33.800561],[129.673524,33.800902],[129.673774,33.80126],[129.674674,33.80161],[129.675074,33.801885],[129.676024,33.802185],[129.676324,33.802252],[129.676624,33.802502],[129.676973,33.802869],[129.677211,33.803277],[129.677286,33.803594],[129.677236,33.803727],[129.677236,33.804085],[129.677336,33.804377],[129.677323,33.804694],[129.677248,33.804827],[129.677248,33.804919],[129.677398,33.805077],[129.677773,33.80531],[129.678123,33.805427],[129.678223,33.805427],[129.678298,33.805469],[129.678598,33.805385],[129.678898,33.805319],[129.679173,33.805094],[129.679736,33.805052],[129.680385,33.805169],[129.680785,33.805169],[129.680885,33.805127],[129.68111,33.805444],[129.681385,33.805219],[129.681835,33.804952],[129.682385,33.804819],[129.68291,33.804735],[129.68341,33.804802],[129.68386,33.805035],[129.684385,33.805602],[129.684735,33.806035],[129.685185,33.806219],[129.685785,33.80631],[129.686709,33.806385],[129.686884,33.806185],[129.687059,33.80591],[129.686997,33.805685],[129.687172,33.805619],[129.687497,33.805402],[129.687597,33.805402],[129.687897,33.805127],[129.688322,33.804952],[129.688397,33.804952],[129.688609,33.804661],[129.688784,33.804594],[129.689909,33.804986],[129.690197,33.805236],[129.689597,33.805911],[129.689147,33.806177],[129.688934,33.806444],[129.689209,33.806602],[129.689034,33.807035],[129.688909,33.807119],[129.688634,33.80701],[129.688309,33.807094],[129.687872,33.807319],[129.687447,33.807477],[129.686997,33.807627],[129.686747,33.807827],[129.686084,33.808685],[129.68581,33.809177],[129.685447,33.809718],[129.685097,33.81046],[129.684797,33.810385],[129.684485,33.810677],[129.68436,33.811018],[129.68421,33.811285],[129.683322,33.811593],[129.682423,33.811343],[129.68241,33.811118],[129.682435,33.810751],[129.68221,33.810302],[129.681785,33.810343],[129.68176,33.810368],[129.68181,33.810793],[129.68171,33.810768],[129.68156,33.810768],[129.681435,33.810818],[129.681285,33.811018],[129.681223,33.811351],[129.681323,33.811918],[129.68131,33.812576],[129.68121,33.813026],[129.68106,33.813184],[129.680535,33.813493],[129.68021,33.813401],[129.679398,33.813684],[129.678961,33.814609],[129.678786,33.814859],[129.678511,33.815126],[129.678211,33.815526],[129.677823,33.815817],[129.677673,33.816176],[129.677573,33.816542],[129.677236,33.8171],[129.677211,33.817392],[129.677311,33.8178],[129.677686,33.818184],[129.677723,33.818459],[129.677523,33.818634],[129.677298,33.818592],[129.677098,33.818475],[129.676773,33.8185],[129.676648,33.818583],[129.676498,33.818608],[129.676173,33.818808],[129.676148,33.818875],[129.676073,33.818875],[129.675686,33.819142],[129.675611,33.819142],[129.675536,33.819183],[129.675161,33.819275],[129.674986,33.819275],[129.674786,33.819183],[129.674724,33.818458],[129.674574,33.818367],[129.674424,33.818392],[129.673974,33.818],[129.673724,33.818092],[129.673599,33.818292],[129.673311,33.818925],[129.673011,33.819217],[129.672886,33.819483],[129.672736,33.819575],[129.672699,33.8198],[129.672749,33.82],[129.673474,33.8203],[129.673874,33.820525],[129.674074,33.82085],[129.674348,33.821008],[129.674723,33.821033],[129.675373,33.8209],[129.675648,33.820883],[129.675998,33.821083],[129.676198,33.821383],[129.676223,33.82145],[129.676023,33.821608],[129.675998,33.821808],[129.676536,33.822016],[129.676635,33.822216],[129.67666,33.822491],[129.676635,33.822716],[129.676485,33.823116],[129.676435,33.823166],[129.676448,33.823341],[129.676198,33.823566],[129.675948,33.823632],[129.675573,33.823857],[129.675398,33.824107],[129.675435,33.824716],[129.675285,33.825007],[129.675085,33.82514],[129.674836,33.825182],[129.674711,33.825024],[129.674611,33.82484],[129.674486,33.824749],[129.674261,33.82479],[129.673561,33.824657],[129.673461,33.824949],[129.673861,33.825082],[129.673936,33.825157],[129.673748,33.82569],[129.673698,33.82574],[129.673623,33.82574],[129.672773,33.825957],[129.672723,33.825915],[129.672373,33.825099],[129.672298,33.825007]]]}}],"type":"FeatureCollection"}